,storeNo,name,lat,lng,address
0,13655029,바른국밥 첨단점,35.2117217,126.83737422,광주광역시 광산구 첨단내촌로 56 1층(월계동)
1,13701546,록시드갸토 첨단아크레타점,35.21424934,126.84642891,"광주광역시 광산구 임방울대로800번길 71 아크레타 첨단1층 105,106호(월계동)"
2,10646557,크리스피크림도넛 광주첨단점,35.21722116,126.84245697,"광주광역시 광산구 월계동 867-1 1층 113,114(일부)호 (월계동, 첨단센츄럴빌딩)"
3,13414085,인끼밥상,35.2182211,126.84562333,"광주광역시 광산구 쌍암동 669-4 (쌍암동,105.106호(1층))"
4,13911414,챙길 밥 첨단신도시점,35.21091623,126.83706871,광주광역시 광산구 첨단내촌로 45-4 1층(월계동)
5,10775053,백족발 첨단직영점,35.21944319,126.8457344,광주광역시 광산구 쌍암동 667-7 1층(쌍암동)
6,13315849,청담피자 광주1호첨단점,35.21860993,126.84470673,광주광역시 광산구 쌍암동 668-11 1동1층101호
7,13861697,그집 곱도리탕 첨단점,35.21119406,126.84220714,광주광역시 광산구 첨단중앙로67번길 7-4 1층(월계동)
8,13692536,배떡 첨단1지구점,35.22163735,126.84351232,광주광역시 광산구 첨단중앙로182번길 20 1층(쌍암동)
9,13907529,BHC 첨단3호점,35.21074974,126.84626235,"광주광역시 광산구 첨단중앙로68번길 60 상가1동 1층 104호(산월동, 첨단3-1차 호반리젠시빌)"
10,13514402,치킨플러스 광주첨단월계점,35.2106385,126.83826306,광주광역시 광산구 월계동 836-4 1층(월계동)
11,13825109,도야짬뽕 첨단2지구점,35.20691708,126.86070561,"광주광역시 북구 첨단연신로107번길 45-21 (신용동,101,102,103,104호)"
12,10675630,상무초밥 첨단직영점,35.21513811,126.8450679,광주광역시 광산구 첨단중앙로106번길 37 가동 1층(월계동)
13,12027052,도마카이 스시&참치 전문점,35.21916544,126.84578996,광주광역시 광산구 쌍암동 667-8
14,13137828,미스터초밥 첨단점,35.2153326,126.84901199,"광주광역시 광산구 쌍암동 694-5 1층 128,129호(쌍암동)"
15,10735575,난타5000 첨단금호점,35.22002402725568,126.8362798804684,"광주광역시 광산구 월계동 756-10 104동(월계동, 첨단이정주차빌딩)"
16,13077299,썬더치킨 첨단점,35.20962787195708,126.8372302977329,광주광역시 광산구 월계동 804-9 1층(월계동)
17,13108749,히뽕쭈 쭈꾸미&돈곱창전골,35.21094394,126.83351347,광주광역시 광산구 월계동 780-14 1층
18,13269871,마루요시 첨단점,35.21605469,126.84626221,광주광역시 광산구 월계동 878-8 1층(월계동)
19,13403430,BHC 첨단중앙점,35.21399936,126.84573453,광주광역시 광산구 월계동 891-6 (월계동)
20,13714036,아메리칸피자 첨단양산점,35.22116533,126.85251153,광주광역시 광산구 앰코로 35 폭스존 1층 105호(쌍암동)
21,13593662,한끼닭강정,35.20652821,126.85951128,광주광역시 북구 신용동 691 대성빌딩 1층 111호 (신용동)
22,13747599,엘리펀트피자 광주첨단점,35.21088845,126.83704094,광주광역시 광산구 첨단내촌로 45-4 1층(월계동)
23,10860822,꾸브라꼬숯불두마리치킨 첨단점,35.21438822,126.84673444,광주 광산구 월계동 892-15 1층
24,13915590,혼밥대장 한식전문점 첨단점,35.21377716,126.84573454,광주광역시 광산구 임방울대로800번길 82 1층 (월계동)
25,13080366,썬더치킨 쌍암공원점,35.22160957,126.84304014,광주광역시 광산구 쌍암동 654-16
26,13861696,대박삼겹김치찜&초대박등갈비김치찜,35.21119406,126.84220714,광주광역시 광산구 첨단중앙로67번길 7-4 1층(월계동)
27,10594397,토픽쌀피자 첨단점,35.21671937422007,126.83815279941513,광주광역시 광산구 월계로 117-32 상가1층 토픽쌀피자
28,13438349,피자알볼로 첨단1지구점,35.21812324961763,126.84851697107749,"광주광역시 광산구 쌍암동 683-2 상가동 101호(쌍암동,광주첨단 LH2단지)"
29,10727522,후라이드참잘하는집 첨단점,35.21274938,126.83851298,광주광역시 광산구 월계동 818-15 1층 (월계동)
30,13371073,혼마구로 참치,35.222323168120404,126.84965660928681,광주광역시 북구 첨단과기로208번길 43-10 1층 136호(오룡동)
31,13131222,BHC 광주첨단1호점,35.21866532,126.83484649,광주광역시 광산구 월계동 759-1
32,13352639,혼밥대왕 첨단점,35.22013762,126.84970625,"광주광역시 광산구 임방울대로825번길 60-6 103동 101호(쌍암동,첨단중해마루힐)"
33,13100452,걸작떡볶이치킨 첨단점,35.21352542978512,126.84346851254911,"광주광역시 광산구 쌍암동 694-59 110동 1층 113호 (쌍암동, 쌍암중흥에스클래스리버시티)"
34,13372146,김선영반찬,35.21689920770985,126.84017060879361,"광주광역시 광산구 쌍암동 687-5 상가동2동 102호(쌍암동,첨단대라수3차)"
35,13678693,바른초밥 첨단점,35.21419379,126.84634559,"광주광역시 광산구 월계동 892-8 아크레타 첨단1층 118,119,120호(월계동)"
36,10727522,후라이드참잘하는집 첨단점,35.21274938,126.83851298,광주광역시 광산구 월계동 818-15 1층 (월계동)
37,13915590,혼밥대장 한식전문점 첨단점,35.21377716,126.84573454,광주광역시 광산구 임방울대로800번길 82 1층 (월계동)
38,13918119,빈샐러드,35.2277142438336,126.83919127883524,광주광역시 북구 삼소로 3-4 1층(오룡동)(*미고시)
39,13828182,이태리수라간,35.21991531,126.84281798,광주광역시 광산구 첨단중앙로152번길 5-10 1층(쌍암동)
40,13290004,비스트로피자 광주첨단점,35.21680455,126.84279028,광주광역시 광산구 월계동 874-1 1층(월계동)
41,13435699,족발창고 첨단점,35.21291455194878,126.8388974140791,광주광역시 광산구 월계동 819-16 1층(월계동)
42,13911414,챙길 밥 첨단신도시점,35.21091623,126.83706871,광주광역시 광산구 첨단내촌로 45-4 1층(월계동)
43,13787142,1004 아구찜,35.21394391,126.85181733,광주광역시 광산구 월계로 235-8 미르채리버파크 2층 214-224호(쌍암동)
44,13645538,냉면쟁이고기꾼첨단점,35.21091615,126.83231913,광주광역시 광산구 월계동 781-2 1층
45,13312258,달리는커피 첨단1호점,35.21057310925684,126.83818075246765,광주광역시 광산구 월계동 836-5 1층
46,13680746,수제돈가스 청연 첨단점,35.21230488,126.83218022,"광주광역시 광산구 월계동 763-6  (월계동,첨단 호반2차@ 상가동 112호(1층))"
47,13315849,청담피자 광주1호첨단점,35.21860993,126.84470673,광주광역시 광산구 쌍암동 668-11 1동1층101호
48,13915590,혼밥대장 한식전문점 첨단점,35.21377716,126.84573454,광주광역시 광산구 임방울대로800번길 82 1층 (월계동)
49,13678693,바른초밥 첨단점,35.21419379,126.84634559,"광주광역시 광산구 월계동 892-8 아크레타 첨단1층 118,119,120호(월계동)"
50,10675630,상무초밥 첨단직영점,35.21513811,126.8450679,광주광역시 광산구 첨단중앙로106번길 37 가동 1층(월계동)
51,13640544,PIZZA FULL 첨단본점,35.22094309,126.84990066,"광주광역시 광산구 쌍암동 687-5 상가1동1층107호(쌍암동,첨단대라수3차)"
52,13694989,미풍해장국 첨단점,35.21919321,126.8454011,광주광역시 광산구 첨단중앙로152번길 57 1층(쌍암동)
53,13151663,첨단강원도 코다리찜,35.2192765,126.8430402,광주광역시 광산구 쌍암동 659-4 1층(쌍암동)
54,13858155,타코야끼킹,35.21910597729612,126.84149653222424,"광주광역시 광산구 첨단중앙로 153 상가동 1층 102호(월계동, 첨단단지대주APT)"
55,13850548,봉명동내커피 광주첨단점,35.21286043,126.83581877,광주광역시 광산구 월계로 92 1층(월계동)
56,13038740,전라도이야기,35.21663797,126.84673438,광주광역시 광산구 월계동 872-5 1층
57,13895181,제육민국,35.21883207,126.84112371,"광주광역시 광산구 첨단중앙로 153 상가동 1층 102호(월계동, 첨단단지대주APT)"
58,13728813,돈돈파파,35.22130414,126.84848411,광주광역시 광산구 임방울대로825번길 73 1층(쌍암동)
59,13895468,오로라 요거트 아이스크림 광주점,35.2102775,126.84242936,광주광역시 광산구 첨단중앙로47번길 8-14 1층 (월계동)
60,13131222,BHC 광주첨단1호점,35.21866532,126.83484649,광주광역시 광산구 월계동 759-1
61,10671639,7번가피자 첨단1지구점,35.2136348,126.8493751,"광주광역시 광산구 쌍암동 694-63 107호 (쌍암동, 첨단프라자)"
62,13845496,삼복당,35.22172066,126.84306791,광주광역시 광산구 첨단중앙로182번길 16 가동 2층 201호(쌍암동)
63,13895181,제육민국,35.21883207,126.84112371,"광주광역시 광산구 첨단중앙로 153 상가동 1층 102호(월계동, 첨단단지대주APT)"
64,13810742,에그폭탄덮밥,35.22133196,126.85115054,광주광역시 광산구 첨단중앙로182번길 90 상가동 1층 127호 (쌍암동)
65,13032900,해담 첨단점,35.21852667,126.84842863,광주광역시 광산구 쌍암동 682-4 1층
66,13780356,바코포차,35.219119,126.843682,광주광역시 광산구 첨단중앙로152번길 25 1층 바코포차
67,13080366,썬더치킨 쌍암공원점,35.22160957,126.84304014,광주광역시 광산구 쌍암동 654-16
68,13376398,극찬강정,35.22160957,126.84304014,광주 광산구 쌍암동 654-16
69,13231895,이층면옥,35.22169289,126.84304014,광주광역시 광산구 쌍암동 654-16 가동 2층 201호(쌍암동)
70,13113621,굽네치킨 첨단2호점,35.20652821,126.85951128,광주광역시 북구 신용동 691
71,13899628,이화수전통육개장 광주첨단점,35.21994319,126.84906742,광주광역시 광산구 임방울대로825번길 44 1층(쌍암동)
72,13329109,마라하오 첨단점,35.21288827,126.83931846,광주광역시 광산구 월계동 820-16 1층
73,13505972,효자반점,35.21980426,126.84573439,광주광역시 광산구 쌍암동 666-6 1층(쌍암동)
74,10858032,돌섬아구찜,35.21130509,126.83787419,광주광역시 광산구 월계동 835-3
75,13830326,채선당 도시락&샐러드 광주첨단점,35.21361053,126.84642893,광주광역시 광산구 월계로 191 1층(월계동)
76,13319396,투썸플레이스 광주첨단호수공원점,35.22166513,126.84376229,광주광역시 광산구 쌍암동 654-19 1~2층 (쌍암동)
77,13142159,원할머니명품도시락 광주첨단점,35.22163736,126.84415115,광주광역시 광산구 쌍암동 664-1
78,13349524,싸움의고수 첨단점,35.22241514,126.84948399,광주광역시 북구 오룡동 1110-22 1층 106-b호
79,13349524,싸움의고수 첨단점,35.22241514,126.84948399,광주광역시 북구 오룡동 1110-22 1층 106-b호
80,13349524,싸움의고수 첨단점,35.22241514,126.84948399,광주광역시 북구 오룡동 1110-22 1층 106-b호
81,13073060,유달리 쌍암점,35.21430499,126.8520673,광주광역시 광산구 쌍암동 694-142 야스텍타워 1층 103호
82,13914492,대담국수,35.22160959,126.84440113,"광주광역시 광산구 첨단중앙로182번길 28 , 1층 (쌍암동)"
83,13818466,청년김치찌개&김치찜 신가수완점,35.18930754,126.83593046,"광주광역시 광산구 신창로35번길 20 상가동1층109호(신가동,신창6차부영사랑으로)"
84,13448681,BBQ 첨단산월점,35.208565092976386,126.84433638967937,"광주광역시 광산구 산월동 886-1 상가동1층106호(산월동,부영사랑으로)"
85,13770770,삼삼숯불갈비,35.20897209,126.84223497,광주광역시 광산구 산월로 45 (월계동)
86,13897886,베이크쇼디치,35.22249846,126.84951177,광주광역시 북구 첨단과기로208번길 43-10 마루힐 아이비씨 지식산업센터 1층 112-a호(오룡동)
87,10035620,원할머니보쌈족발 광주첨단점,35.22152643200226,126.84409080031607,광주광역시 광산구 쌍암동 664-1 (쌍암동 664-1)
88,10749680,롯데리아 광주첨단점,35.2214268,126.8419316,광주광역시 광산구 쌍암동 654-2
89,13820773,가배 풍성두툼한 사시미&초밥,35.21427754,126.87167668,광주광역시 북구 임방울대로1041번길 20 1층(용두동)
90,13841747,김가네(첨단병원점),35.22030419,126.84476224,광주광역시 광산구 첨단중앙로170번길 54 1층 (쌍암동)
91,13417229,착한족발 첨단쌍암점,35.21308272,126.84145716,광주광역시 광산구 첨단내촌로70번길 92 1층(월계동)
92,13712379,홍콩다방 광주첨단점,35.21513821,126.85115069,"광주광역시 광산구 첨단강변로99번길 21 1층102호(쌍암동,윤진리안채)"
93,13352639,혼밥대왕 첨단점,35.22013762,126.84970625,"광주광역시 광산구 임방울대로825번길 60-6 103동 101호(쌍암동,첨단중해마루힐)"
94,13408759,덮덮밥 첨단점,35.21377716,126.84573454,"광주광역시 광산구 월계동 891-7 월계동,(1층)"
95,13810306,인생 김치찌개,35.22133196,126.85115054,광주광역시 광산구 첨단중앙로182번길 90 상가동 1층 127호 (쌍암동)
96,13302814,마왕족발 광주첨단점,35.21605473,126.84828981,광주광역시 광산구 월계동 881-1 1층 110호(월계동)
97,13458388,킹콩부대찌개 광주첨단월계점,35.213851,126.847819,광주광역시 광산구 월계동 893-9 1층 121호
98,13835378,빛고을닭강정 첨단점,35.2152493,126.85042853,"광주광역시 광산구 월계로 223-20 1층 112호 (쌍암동, 첨단도휘에드가 2차)"
99,13265904,청석골냉면,35.21097179,126.8378742,광주광역시 광산구 월계동 837-1 (월계동)
100,13678693,바른초밥 첨단점,35.21419379,126.84634559,"광주광역시 광산구 월계동 892-8 아크레타 첨단1층 118,119,120호(월계동)"
101,13086171,일계양득 첨단점,35.20897207,126.84126283,광주광역시 광산구 월계동 851-16 1층(월계동)
102,13865337,바로덮밥 첨단점,35.21947091,126.84281799,광주광역시 광산구 첨단중앙로152번길 5-6 1층(쌍암동)
103,13692536,배떡 첨단1지구점,35.22163735,126.84351232,광주광역시 광산구 첨단중앙로182번길 20 1층(쌍암동)
104,13348259,국내산 1번고기,35.21694354,126.84976188,광주광역시 광산구 쌍암동 694-140 1층(쌍암동)
105,13615368,제육대가 (첨단점),35.20672267,126.86123335,광주광역시 북구 신용동 709 (주)첨단금송 1층 104호(신용동)
106,13823775,파운데이 쌍암점,35.22033195,126.84429006,광주광역시 광산구 첨단중앙로152번길 31-16 A동 1층(쌍암동)
107,13403430,BHC 첨단중앙점,35.21399936,126.84573453,광주광역시 광산구 월계동 891-6 (월계동)
108,10763885,아주커치킨 첨단3점,35.212281820152086,126.8339971052254,광주광역시 광산구 월계동 763-5 상가동 105호
109,13655029,바른국밥 첨단점,35.2117217,126.83737422,광주광역시 광산구 첨단내촌로 56 1층(월계동)
110,13007411,60계치킨 첨단점,35.21394387,126.84923423,광주광역시 광산구 쌍암동 694-63 1층 124호 일부
111,10860822,꾸브라꼬숯불두마리치킨 첨단점,35.21438822,126.84673444,광주 광산구 월계동 892-15 1층
112,12042297,부리나 바베큐 첨단점,35.22083187,126.84281795,광주광역시 광산구 쌍암동 663-10 (쌍암동 1층)
113,13160605,큰집감자탕 첨단점,35.22083188,126.84304016,광주광역시 광산구 쌍암동 663-9 (쌍암동)
114,13904973,아궁이 양푼이갈비찜&담양식돼지숯불갈비,35.20983349,126.86498294,"광주광역시 북구 첨단연신로108번길 105 (신용동, 1층)"
115,13388472,맛드림 김밥랜드 첨단점,35.22099849,126.84081813,광주광역시 광산구 월계동 758-4
116,13241290,학교앞분식,35.2127493,126.83401338,"광주광역시 광산구 월계동 763-5 상가동1층108호(월계동,첨단모아미래도아파트)"
117,13907974,먹방냉면 첨단점,35.21319375,126.836902,광주광역시 광산구 첨단내촌로70번길 9 1층(월계동)
118,13907972,쭈볶남 첨단점,35.21319375,126.836902,광주광역시 광산구 첨단내촌로70번길 9 1층(월계동)
119,13514402,치킨플러스 광주첨단월계점,35.2106385,126.83826306,광주광역시 광산구 월계동 836-4 1층(월계동)
120,13313552,덕장진땡이 본점,35.2203875,126.84426228,광주광역시 광산구 쌍암동 666-1 A동 1층(쌍암동)
121,13143390,유치짬뽕&칡냉면,35.2142771,126.84556788,광주광역시 광산구 월계동 891-5 1층 111호
122,13692940,성심카츠,35.20991637,126.83862416,광주광역시 광산구 첨단내촌로36번길 26 1층(월계동)
123,13002624,청자다방 쌍암점,35.22083189,126.84373454,광주광역시 광산구 쌍암동 663-6 1층
124,13292535,조개까는자리 회 수산,35.21293224192996,126.83727061034051,광주광역시 광산구 월계동 771-12 (월계동)
125,13710724,순살만공격 첨단점,35.2113266531664,126.84975535727183,"광주광역시 광산구 첨단중앙로68번길 134 상가2동 1층 110호(산월동,첨단3-3차 호반리젠시빌)"
126,10703154,Don돈까츠&덮밥 리조또 1호점,35.20463975,126.87217687,광주광역시 북구 양산동 284-10
127,10554957,BBQ 첨단1호점,35.220162321411415,126.83168088729555,"광주광역시 광산구 첨단중앙로181번길 88-16 (월계동,라인5차@상가 101호)"
128,13813046,아리랑백반,35.21272162,126.83967955,광주광역시 광산구 월계로130번길 19 1층(월계동)
129,13829770,앙떡 로제떡볶이&돈까스 광주첨단점,35.21091623,126.83706871,광주광역시 광산구 첨단내촌로 45-4 1층(월계동)
130,13348264,꼬기부심,35.21694354,126.84976188,광주광역시 광산구 쌍암동 694-140 1층(쌍암동)
131,13887586,청자다방 첨단1호점,35.21538819,126.85131734,광주광역시 광산구 첨단강변로99번길 23 1층(쌍암동)
132,13895468,오로라 요거트 아이스크림 광주점,35.2102775,126.84242936,광주광역시 광산구 첨단중앙로47번길 8-14 1층 (월계동)
133,13895181,제육민국,35.21883207,126.84112371,"광주광역시 광산구 첨단중앙로 153 상가동 1층 102호(월계동, 첨단단지대주APT)"
134,13354522,티바두마리치킨 첨단점,35.21172174,126.84001288,광주광역시 광산구 월계동 832-3 1층(월계동)
135,13877973,아웃백 광주첨단점,35.21511036,126.84637334,광주광역시 광산구 첨단중앙로106번길 65-3 월계동주차빌딩1층 122(일부)호(월계동)
136,13896884,9평커피,35.22249846,126.84951177,"광주광역시 북구 첨단과기로208번길 43-10 1층 127호(오룡동, 마루힐아이비씨지식산업센터)"
137,13807169,교반 육회비빔밥&냉면 첨단점,35.20897209,126.84223497,광주광역시 광산구 산월로 45 1층 (월계동)
138,13865379,꾸꾸삼겹 첨단점,35.20897209,126.84226275,광주광역시 광산구 산월로 45 1층 (월계동)
139,13511217,민킹부대찌개,35.20897207,126.84126283,광주광역시 광산구 월계동 851-16
140,13652077,왕손피자 광산점,35.18966848,126.82845889,광주광역시 광산구 수완동 1458 1층(수완동)
141,12006579,파리바게뜨 첨단쌍암점,35.22038747,126.84215136,광주광역시 광산구 쌍암동 655-2 쌍암동
142,13290004,비스트로피자 광주첨단점,35.21680455,126.84279028,광주광역시 광산구 월계동 874-1 1층(월계동)
143,13352610,김가네 첨단점,35.21361053,126.84642893,"광주광역시 광산구 월계동 892-5 2호(월계동,(1층))"
144,10540314,이가네석쇠불고기&냉면,35.20975738873187,126.83742509094093,광주광역시 광산구 월계동 839-12
145,13332043,1인 한독대 국물 김치찜,35.20897207,126.84126283,"광주광역시 광산구 월계동 851-16 (월계동,1층)"
146,10877555,첨단롯데슈퍼앞 윤가앞족발,35.2204937,126.8424079,광주광역시 광산구 쌍암동 655-4 1층(쌍암동)
147,13462761,쫄리면 비비시던가 비빔밥,35.21387039967335,126.84221849519979,광주광역시 광산구 월계동 836-1 1층 (월계동)
148,13345438,미친곱떡 첨단점,35.21533261,126.8496786,광주광역시 광산구 쌍암동 694-114 1동 1층 104호(쌍암동)
149,13908938,항아리 김치찜,35.20897208,126.84129061,광주광역시 광산구 산월로 35-1
150,10727522,후라이드참잘하는집 첨단점,35.21274938,126.83851298,광주광역시 광산구 월계동 818-15 1층 (월계동)
151,13315851,청담카츠 첨단점,35.21860993,126.84470673,광주광역시 광산구 쌍암동 668-11 1동1층101호
152,13362883,단미드카페,35.22247069,126.84951177,광주광역시 북구 오룡동 1110-22 1층(오룡동)
153,13529377,뉴크로피자,35.20652823,126.86062229,광주광역시 북구 첨단연신로107번길 45-22 토담빌딩 1층109호(신용동)
154,13440840,냉면일번지,35.2117217,126.83737422,광주광역시 광산구 첨단내촌로 56 1층(월계동)
155,13109279,이디야커피 광주첨단지식산업센터점,35.22241514,126.84948399,광주광역시 북구 오룡동 1110-22
156,13239744,수유리우동집 첨단지식산업센터점,35.22241514,126.84948399,광주광역시 북구 오룡동 1110-22 1층 109호 (오룡동)
157,13170860,찡찡꼬마김밥,35.22241514,126.84948399,광주광역시 북구 오룡동 1110-22 1층 121호(오룡동)
158,13692536,배떡 첨단1지구점,35.22163735,126.84351232,광주광역시 광산구 첨단중앙로182번길 20 1층(쌍암동)
159,13396761,장가계양꼬치,35.22027637,126.84242911,광주광역시 광산구 쌍암동 655-5 (쌍암동)
160,13032674,부어치킨 쌍암점,35.22027637,126.84240134,광주광역시 광산구 첨단중앙로152번길 5-15 1층(쌍암동)
161,13823775,파운데이 쌍암점,35.22033195,126.84429006,광주광역시 광산구 첨단중앙로152번길 31-16 A동 1층(쌍암동)
162,13300846,김된찌 브라더스 광주첨단점,35.21269383,126.83829078,광주광역시 광산구 월계로118번길 20 1층(월계동)
163,10554957,BBQ 첨단1호점,35.220162321411415,126.83168088729555,"광주광역시 광산구 첨단중앙로181번길 88-16 (월계동,라인5차@상가 101호)"
164,13400969,고기궁전 첨단양산점,35.2095558,126.86828821,광주광역시 북구 신용동 602-10 1층107호
165,13182059,만기네집 식육식당 첨단본점,35.2208319,126.84437337,광주광역시 광산구 쌍암동 664-6 (쌍암동)
166,13841369,위키드 라운지,35.21547146,126.84837315,"광주광역시 광산구 임방울대로826번길 42 더첨단 시너지타워2 4층 301,302호(월계동)"
167,13865338,바로파스타 첨단점,35.21947091,126.84281799,광주광역시 광산구 첨단중앙로152번길 5-6 1층(쌍암동)
168,10727522,후라이드참잘하는집 첨단점,35.21274938,126.83851298,광주광역시 광산구 월계동 818-15 1층 (월계동)
169,13807169,교반 육회비빔밥&냉면 첨단점,35.20897209,126.84223497,광주광역시 광산구 산월로 45 1층 (월계동)
170,13918442,압력솥 사골김치찜 1392 첨단점,35.21308272,126.84145716,광주광역시 광산구 첨단내촌로70번길 92 1층(월계동)
171,13844733,신선우동,35.20991637,126.83867971,광주광역시 광산구 첨단내촌로36번길 26 1층(월계동)
172,13909058,빽다방 광주첨단재활병원점,35.22030419,126.84476224,광주광역시 광산구 첨단중앙로170번길 54 1층 (쌍암동)
173,13841747,김가네(첨단병원점),35.22030419,126.84476224,광주광역시 광산구 첨단중앙로170번길 54 1층 (쌍암동)
174,13232154,본죽&비빔밥 광주첨단점,35.22041529,126.84537329,"광주광역시 광산구 쌍암동 666-4 쌍암동,103호(1층)"
175,13020738,육개장 명가 & 갈비탕,35.20902753,126.8359022,광주광역시 광산구 월계동 799-3 1층
176,13908942,삼시국밥 첨단점,35.20897208,126.84129061,광주광역시 광산구 산월로 35-1
177,13113285,더반,35.22030419,126.84506777,광주광역시 광산구 쌍암동 666-3 1층 103호
178,13430042,응급실국물떡볶이 첨단중앙점,35.21666567,126.84240143,광주광역시 광산구 월계동 867-6 1층105호(월계동)
179,13300846,김된찌 브라더스 광주첨단점,35.21269383,126.83829078,광주광역시 광산구 월계로118번길 20 1층(월계동)
180,13120983,롱쓰부대찌개 광주첨단점,35.21269383,126.83829078,광주광역시 광산구 월계로118번길 20 1층(월계동)
181,10675630,상무초밥 첨단직영점,35.21513811,126.8450679,광주광역시 광산구 첨단중앙로106번길 37 가동 1층(월계동)
182,13223660,한촌설렁탕 광주첨단점,35.22241514,126.84948399,광주광역시 북구 오룡동 1110-22 1층 104호 (오룡동)
183,13286931,나능이 능이버섯백숙 첨단점,35.21663791,126.84337357,광주광역시 광산구 월계동 874-9 1층
184,13427869,입큰아구찜&알곤이찜,35.22241514,126.84948399,광주광역시 북구 오룡동 1110-22 1층 115호(오룡동)
185,12031766,홍루이젠 광주첨단점,35.2200264,126.84251245,광주광역시 광산구 쌍암동 655-3 1층 109호
186,13295481,아주커치킨 첨단2호점,35.22019302,126.8406515,"광주광역시 광산구 첨단중앙로181번길 7 (월계동,(1층))"
187,13522122,금순이직화쭈꾸미,35.2203042,126.84573438,광주광역시 광산구 쌍암동 666-5 1층(쌍암동)
188,13850573,패스트롤 첨단점,35.22249846,126.84951177,광주광역시 북구 첨단과기로208번길 43-10 마루힐아이비씨지식산업센터1층103-a호(오룡동)
189,13804790,벌크커피쌍암점,35.21994307,126.84229025,광주광역시 광산구 첨단중앙로 164 1층 101호(쌍암동)
190,13920698,킹스타피자 첨단점,35.2122496,126.84837323,"광주광역시 광산구 첨단중앙로68번길 99 상가동 1층 103호(산월동,호반리젠시빌)"
191,13295949,김밥나라 모아미래도점,35.21219382,126.83462445,광주광역시 광산구 월계동 776-5 (1층)
192,13529377,뉴크로피자,35.20652823,126.86062229,광주광역시 북구 첨단연신로107번길 45-22 토담빌딩 1층109호(신용동)
193,13858155,타코야끼킹,35.21910597729612,126.84149653222424,"광주광역시 광산구 첨단중앙로 153 상가동 1층 102호(월계동, 첨단단지대주APT)"
194,10675630,상무초밥 첨단직영점,35.21513811,126.8450679,광주광역시 광산구 첨단중앙로106번길 37 가동 1층(월계동)
195,13905493,싸다아구찜&탕 첨단점,35.21536038,126.84970637,광주광역시 광산구 첨단강변로99번길 51 1층101호(쌍암동)
196,10017452,또래오래 광주첨단비아점,35.22109770010371,126.83641816619988,"광주광역시 광산구 월계동 757-8 103호(월계동, 일신@상가 103호)"
197,13779322,두마리찜닭 두찜 첨단1지구점,35.21877657,126.84381792,광주광역시 광산구 첨단중앙로152번길 30 1층(쌍암동)
198,13860417,식사준비 광주첨단쌍암점,35.21994307,126.84229025,광주광역시 광산구 첨단중앙로 164 미래빌딩 1층 103-2호(쌍암동)
199,13479111,본도시락 광주첨단점,35.2211931,126.85237266,광주광역시 광산구 쌍암동 688-4 폭스존 1층 104호 (쌍암동)
200,13149648,판다마라탕,35.20902753,126.8359022,광주광역시 광산구 월계동 799-3 1층
201,13872098,노랑분식 광주본점,35.21913768,126.84623436,광주광역시 광산구 임방울대로801번길 26 1층(쌍암동)
202,13052812,처갓집양념치킨 첨단점,35.21261048,126.83687424,광주광역시 광산구 월계동 813-9 1층
203,13715204,프리미엄 칼국수한마당,35.22083187,126.84281795,"광주광역시 광산구 첨단중앙로170번길 17 (쌍암동,(1층))"
204,10668510,굽네치킨 광주첨단점,35.212938989738205,126.83596462097549,광주광역시 광산구 월계동 772-6 1층
205,13750845,새벽달 첨단점,35.21527705,126.84920642,"광주광역시 광산구 임방울대로826번길 47 더시너지첨단 1층 122,123호(쌍암동)"
206,10756476,예향정 첨단점,35.220193952095876,126.84387482831032,광주광역시 광산구 쌍암동 661-4 1층 예향정
207,12008047,배스킨라빈스 광주첨단점,35.22016263910748,126.83693524715196,"광주광역시 광산구 첨단중앙로181번길 42-4 월계동,금광아파트 상가 1호, 2호"
208,10617147,못생긴파닭 첨단점,35.20991636,126.83792977,광주광역시 광산구 첨단내촌로36번길 12 1층 (월계동)
209,13873251,읍천리382 첨단점,35.20894190571505,126.83924358436593,광주광역시 광산구 산월로 17 1층 (월계동)
210,13823775,파운데이 쌍암점,35.22033195,126.84429006,광주광역시 광산구 첨단중앙로152번길 31-16 A동 1층(쌍암동)
211,13450219,금커피별빙수 & 과일 첨단점,35.21383275,126.84781769,광주광역시 광산구 월계동 893-9 1층 116호(월계동)
212,13424663,꽃섬,35.21394382,126.84634559,"광주광역시 광산구 월계동 892-7 (월계동,, 1층)"
213,13895181,제육민국,35.21883207,126.84112371,"광주광역시 광산구 첨단중앙로 153 상가동 1층 102호(월계동, 첨단단지대주APT)"
214,13167933,비비큐치킨앤비어 첨단점,35.21430499,126.8520673,"광주광역시 광산구 쌍암동 694-142 2층 206,207호(쌍암동,야스텍타워)"
215,13217504,삼첩분식 첨단점,35.20991637,126.83851305,광주광역시 광산구 월계동 844-1 1층
216,13710724,순살만공격 첨단점,35.2113266531664,126.84975535727183,"광주광역시 광산구 첨단중앙로68번길 134 상가2동 1층 110호(산월동,첨단3-3차 호반리젠시빌)"
217,13640544,PIZZA FULL 첨단본점,35.22094309,126.84990066,"광주광역시 광산구 쌍암동 687-5 상가1동1층107호(쌍암동,첨단대라수3차)"
218,12026816,땡초돼지김치찌개첨단점,35.20936088,126.8390408,광주광역시 광산구 월계동 845-6 1층
219,10840116,하루엔소쿠 프리미엄돈까스 첨단점,35.21363826,126.84406802,광주광역시 광산구 월계로 169 신양메티칼센터104호
220,13714036,아메리칸피자 첨단양산점,35.22116533,126.85251153,광주광역시 광산구 앰코로 35 폭스존 1층 105호(쌍암동)
221,13148811,첨단애진곰탕,35.21980425,126.84542886,광주광역시 광산구 쌍암동 666-7 1층
222,13680472,하노이어이,35.21319375,126.83687423,광주광역시 광산구 월계동 771-13 (월계동)
223,10719876,존막창&닭발 첨단점,35.20991637,126.83851305,광주광역시 광산구 월계동 844-1 1층
224,13670256,삶오로지다 족발보쌈 본점,35.21047252,126.87764847,광주광역시 북구 양산동 849 1층
225,13348264,꼬기부심,35.21694354,126.84976188,광주광역시 광산구 쌍암동 694-140 1층(쌍암동)
226,13821022,숯양두마리치킨 첨단점,35.221669632257814,126.84072584430699,"광주광역시 광산구 첨단중앙로181번길 6 상가동 103호(월계동,월계동 모아아파트)"
227,13329109,마라하오 첨단점,35.21288827,126.83931846,광주광역시 광산구 월계동 820-16 1층
228,13779322,두마리찜닭 두찜 첨단1지구점,35.21877657,126.84381792,광주광역시 광산구 첨단중앙로152번길 30 1층(쌍암동)
229,13175928,함평한우촌,35.21980426,126.84581772,광주광역시 광산구 임방울대로801번길 37 1층(쌍암동)
230,13701546,록시드갸토 첨단아크레타점,35.21424934,126.84642891,"광주광역시 광산구 임방울대로800번길 71 아크레타 첨단1층 105,106호(월계동)"
231,13895181,제육민국,35.21883207,126.84112371,"광주광역시 광산구 첨단중앙로 153 상가동 1층 102호(월계동, 첨단단지대주APT)"
232,13839720,회조아,35.21947093,126.84376235,광주광역시 광산구 첨단중앙로152번길 31-5 1층(쌍암동)
233,13719610,보배반점 첨단점,35.2160825,126.84828981,광주광역시 광산구 임방울대로826번길 30 1층115호(월계동)
234,13574571,띠띠와플,35.209524,126.839433,광주광역시 광산구 월계동 846-5 띠띠와플
235,13290004,비스트로피자 광주첨단점,35.21680455,126.84279028,광주광역시 광산구 월계동 874-1 1층(월계동)
236,13578190,아이러브피자 첨단점,35.20905536,126.83920746,광주광역시 광산구 월계동 843-4 1층(월계동)
237,13038740,전라도이야기,35.21663797,126.84673438,광주광역시 광산구 월계동 872-5 1층
238,13323570,요달의찜닭 광주쌍암점,35.22022083,126.84306795,광주광역시 광산구 쌍암동 662-5 1층(쌍암동)
239,13680746,수제돈가스 청연 첨단점,35.21230488,126.83218022,"광주광역시 광산구 월계동 763-6  (월계동,첨단 호반2차@ 상가동 112호(1층))"
240,13670715,카페달링 첨단양산직영점,35.20652823,126.86026121,광주광역시 북구 신용동 693 J-TOWER 1층 106호 (신용동)
241,13435388,닥엔돈스 돼지쪽갈비 첨단2지구점,35.20730593,126.86109445,광주광역시 북구 신용동 705 1층 105호(신용동)
242,13403430,BHC 첨단중앙점,35.21399936,126.84573453,광주광역시 광산구 월계동 891-6 (월계동)
243,10668510,굽네치킨 광주첨단점,35.212938989738205,126.83596462097549,광주광역시 광산구 월계동 772-6 1층
244,13269871,마루요시 첨단점,35.21605469,126.84626221,광주광역시 광산구 월계동 878-8 1층(월계동)
245,13481180,연어로만,35.21927649,126.84279022,광주광역시 광산구 쌍암동 659-7 1층(쌍암동)
246,13914469,와플대학 광주첨단캠퍼스,35.213648,126.844043,"광주광역시 광산구 월계로 169 1층 105호, 와플대학"
247,13670715,카페달링 첨단양산직영점,35.20652823,126.86026121,광주광역시 북구 신용동 693 J-TOWER 1층 106호 (신용동)
248,13317585,청년감자탕 광주점,35.21288887,126.87520418,"광주광역시 북구 하서로 428 201호,202호,203호"
249,13804625,뚜레쥬르 광주첨단대라수점,35.22130418,126.85115054,광주광역시 광산구 첨단중앙로182번길 90 첨단대라수어썸시티 상가동 1층 104호 (쌍암동)
250,13559766,피굽남피자 광주8호첨단점,35.22169131447119,126.8516352416907,광주광역시 광산구 쌍암동 688-2 첨단대라수어썸시티 상가동 1층 126호(쌍암동)
251,13750735,훈민전골 광주첨단점,35.21269383,126.83829078,광주광역시 광산구 월계로118번길 20 1층(월계동)
252,13670256,삶오로지다 족발보쌈 본점,35.21047252,126.87764847,광주광역시 북구 양산동 849 1층
253,10915136,매운날 양푼이매운갈비찜,35.21458262,126.84540122,광주광역시 광산구 월계동 891-3 1층(월계동)
254,13140468,공차 첨단엘씨타워점,35.2138049,126.84348474,광주광역시 광산구 월계동 889-2
255,13131222,BHC 광주첨단1호점,35.21866532,126.83484649,광주광역시 광산구 월계동 759-1
256,13714036,아메리칸피자 첨단양산점,35.22116533,126.85251153,광주광역시 광산구 앰코로 35 폭스존 1층 105호(쌍암동)
257,13448681,BBQ 첨단산월점,35.208565092976386,126.84433638967937,"광주광역시 광산구 산월동 886-1 상가동1층106호(산월동,부영사랑으로)"
258,13259667,바른치킨 첨단점,35.22024873,126.85017843,광주광역시 광산구 쌍암동 686-3 첨단중해마루힐 주차타워 1층 상가104호 (쌍암동)
259,13850548,봉명동내커피 광주첨단점,35.21286043,126.83581877,광주광역시 광산구 월계로 92 1층(월계동)
260,12032652,동락,35.2167491,126.84901195,광주광역시 광산구 쌍암동 694-26 1층 (쌍암동)
261,13352639,혼밥대왕 첨단점,35.22013762,126.84970625,"광주광역시 광산구 임방울대로825번길 60-6 103동 101호(쌍암동,첨단중해마루힐)"
262,13732954,OBPC 원바이트피자클럽,35.21424934,126.84642891,"광주광역시 광산구 임방울대로800번길 71 아크레타첨단4층401,402(월계동)"
263,10769918,미스터피자 첨단수완점,35.2193623,126.842203,광주광역시 광산구 쌍암동 656-4
264,13762263,순돌이 회수산 첨단점,35.21513811,126.8450679,광주광역시 광산구 첨단중앙로106번길 37 나동 1층(월계동)
265,13484415,프랭크버거 광주첨단병원점,35.2203042,126.84540107,광주광역시 광산구 쌍암동 666-4 1층(쌍암동)
266,13003893,정고집볼테기,35.21905436,126.84640102,광주광역시 광산구 쌍암동 673-7 1층(쌍암동)
267,13407106,위대한수산,35.19994513,126.82995851,광주광역시 광산구 수완동 1134 1층(수완동)
268,13744847,사우나떡볶이로제&국물 첨단중앙점,35.22116533,126.85251153,광주광역시 광산구 앰코로 35 폭스존 1층 112호(쌍암동)
269,13899238,양많이 탕탕탕,35.20694484,126.8601501,광주광역시 북구 첨단연신로107번길 45-17 건영빌딩1층101호(신용동)
270,13362573,애월항,35.214401,126.849074,광주광역시 광산구 쌍암동 694-60 2층애월항
271,13348264,꼬기부심,35.21694354,126.84976188,광주광역시 광산구 쌍암동 694-140 1층(쌍암동)
272,13312258,달리는커피 첨단1호점,35.21057310925684,126.83818075246765,광주광역시 광산구 월계동 836-5 1층
273,13835378,빛고을닭강정 첨단점,35.2152493,126.85042853,"광주광역시 광산구 월계로 223-20 1층 112호 (쌍암동, 첨단도휘에드가 2차)"
274,13786867,용용선생 광주첨단점,35.21544368,126.84834538,"광주광역시 광산구 임방울대로826번길 42 더첨단 시너지타워2 1~2층 110,111호(월계동)"
275,13009897,자매떡볶이 첨단점,35.21302718,126.84198489,광주광역시 광산구 월계동 827-1
276,13640544,PIZZA FULL 첨단본점,35.22094309,126.84990066,"광주광역시 광산구 쌍암동 687-5 상가1동1층107호(쌍암동,첨단대라수3차)"
277,13407106,위대한수산,35.19994513,126.82995851,광주광역시 광산구 수완동 1134 1층(수완동)
278,13113621,굽네치킨 첨단2호점,35.20652821,126.85951128,광주광역시 북구 신용동 691
279,13024454,금성칡냉면 첨단점,35.21944314,126.84281799,광주광역시 광산구 쌍암동 659-8 1층
280,13853142,취영각,35.21919321,126.8454011,광주광역시 광산구 첨단중앙로152번길 57 1층(쌍암동)
281,13899628,이화수전통육개장 광주첨단점,35.21994319,126.84906742,광주광역시 광산구 임방울대로825번길 44 1층(쌍암동)
282,13893007,무공돈까스 첨단지구점,35.22244295,126.85173379,광주광역시 북구 첨단과기로208번길 43-22 와이어스파크(지식산업센터) 2층 R-228호(오룡동)
283,13907529,BHC 첨단3호점,35.21074974,126.84626235,"광주광역시 광산구 첨단중앙로68번길 60 상가1동 1층 104호(산월동, 첨단3-1차 호반리젠시빌)"
284,13020738,육개장 명가 & 갈비탕,35.20902753,126.8359022,광주광역시 광산구 월계동 799-3 1층
285,13053051,88켄터키치킨 첨단점,35.2136939,126.84934533,광주광역시 광산구 쌍암동 694-63 121호(쌍암동)
286,13669821,구이랑찌개랑,35.20652828,126.8636498,광주광역시 북구 신용동 732 첨단씨티빌딩  1층(신용동)
287,13048365,우리콩&팥칼국수,35.21444426,126.87553744,광주광역시 북구 하서로 443 (용두동)
288,13156361,우술재 백숙,35.21033296,126.83706873,광주광역시 광산구 첨단내촌로 39 (월계동)
289,13830326,채선당 도시락&샐러드 광주첨단점,35.21361053,126.84642893,광주광역시 광산구 월계로 191 1층(월계동)
290,13175994,지코바치킨 첨단신용점,35.20194723438197,126.85391998926097,광주광역시 북구 신용동 731 1층 114호(신용동)
291,13292535,조개까는자리 회 수산,35.21293224192996,126.83727061034051,광주광역시 광산구 월계동 771-12 (월계동)
292,13143390,유치짬뽕&칡냉면,35.2142771,126.84556788,광주광역시 광산구 월계동 891-5 1층 111호
293,13744847,사우나떡볶이로제&국물 첨단중앙점,35.22116533,126.85251153,광주광역시 광산구 앰코로 35 폭스존 1층 112호(쌍암동)
294,13302814,마왕족발 광주첨단점,35.21605473,126.84828981,광주광역시 광산구 월계동 881-1 1층 110호(월계동)
295,10864982,루키차이나,35.21919321,126.8454011,광주광역시 광산구 첨단중앙로152번길 57 1층(쌍암동)
296,13315849,청담피자 광주1호첨단점,35.21860993,126.84470673,광주광역시 광산구 쌍암동 668-11 1동1층101호
297,13817383,덕수파스타 광주첨단점,35.21133279,126.83387454,광주광역시 광산구 월계로34번길 37-19 1층(월계동)
298,10860822,꾸브라꼬숯불두마리치킨 첨단점,35.21438822,126.84673444,광주 광산구 월계동 892-15 1층
299,13678312,더리터 첨단점,35.21536039,126.85020633,광주광역시 광산구 쌍암동 694-56 1층 102호(쌍암동)
300,13791814,화채의미 첨단점,35.20902762,126.84079065,광주광역시 광산구 산월로 33 1층(월계동)
301,13047675,황하호연 첨단점,35.21916544,126.84578996,광주광역시 광산구 쌍암동 667-8 1층
302,13047679,황하호연 첨단점,35.21916544,126.84578996,광주광역시 광산구 쌍암동 667-8 1층
303,12027052,도마카이 스시&참치 전문점,35.21916544,126.84578996,광주광역시 광산구 쌍암동 667-8
304,13758906,바른보쌈1990 첨단점,35.20650044,126.85948351,광주광역시 북구 첨단연신로91번길 44 대성빌딩 1층 109호 (신용동)
305,13427869,입큰아구찜&알곤이찜,35.22241514,126.84948399,광주광역시 북구 오룡동 1110-22 1층 115호(오룡동)
306,13745195,엄송치킨 본점,35.21083355,126.87528755,광주광역시 북구 양산로 10 1층(양산동)
307,10778314,보향미보쌈전문점,35.2166602,126.8445154,"광주광역시 광산구 월계동 873-16 (월계동,(1층))"
308,13009897,자매떡볶이 첨단점,35.21302718,126.84198489,광주광역시 광산구 월계동 827-1
309,13862763,돼지가 김치찜 했어 첨단점,35.20694484,126.85976125,광주광역시 북구 첨단연신로107번길 45-11 1층102호(신용동)
310,13484415,프랭크버거 광주첨단병원점,35.2203042,126.84540107,광주광역시 광산구 쌍암동 666-4 1층(쌍암동)
311,10780201,BHC 광주비아점,35.22055378,126.822292,광주광역시 광산구 비아로24번길 10-3 1층(비아동)
312,13469767,코랑커피,35.20694485,126.86070561,"광주광역시 북구 신용동 704 (신용동,1층106호)"
313,13479706,오빠통닭 첨단점,35.20730592,126.86045562,광주광역시 북구 신용동 697 1층 101호 (신용동)
314,13608254,첨단알찜,35.22241514,126.84948399,"광주광역시 북구 오룡동 1110-22 2층 221,222호(오룡동)"
315,13789618,여기카페 첨단점,35.21091617,126.8334857,광주광역시 광산구 월계로34번길 21-16 1층 (월계동)
316,13061026,자담치킨 첨단점,35.2095832,126.84626238,광주광역시 광산구 산월동 885-3  110호
317,13853381,인생냉면 첨단점,35.22133196,126.85115054,광주광역시 광산구 첨단중앙로182번길 90 상가동 1층 127호 (쌍암동)
318,13457172,소고기 숙주 국밥&쌀국수,35.20463975,126.87217687,광주 북구 양산동 284-10
319,13448681,BBQ 첨단산월점,35.208565092976386,126.84433638967937,"광주광역시 광산구 산월동 886-1 상가동1층106호(산월동,부영사랑으로)"
320,13702592,가희플레이트,35.22130418,126.85115054,광주광역시 광산구 첨단중앙로182번길 90 상가동 1층 105호(쌍암동)
321,13791818,소프트젤라또,35.20902762,126.84079065,광주광역시 광산구 산월로 33 1층(월계동)
322,10860822,꾸브라꼬숯불두마리치킨 첨단점,35.21438822,126.84673444,광주 광산구 월계동 892-15 1층
323,10462524,교촌치킨 첨단2호점,35.22047079,126.84242911,광주광역시 광산구 쌍암동 655-4 1층(쌍암동)
324,13078712,조선짬뽕 첨단점,35.21694353,126.84901195,광주광역시 광산구 쌍암동 694-21 1층
325,10848917,고흥 수산,35.2064336,126.8706675,광주광역시 북구 연제동 478-39
326,13137828,미스터초밥 첨단점,35.2153326,126.84901199,"광주광역시 광산구 쌍암동 694-5 1층 128,129호(쌍암동)"
327,13388472,맛드림 김밥랜드 첨단점,35.22099849,126.84081813,광주광역시 광산구 월계동 758-4
328,13381774,차돌풍 첨단점,35.21530477,126.84570673,광주광역시 광산구 월계동 887-5 1층(월계동)
329,10627945,명품푸라닭치킨 첨단점,35.21597144,126.85031741,광주광역시 광산구 쌍암동 694-42 1층(쌍암동)
330,13447442,불장난 파스타 첨단점,35.20836144,126.86512185,광주광역시 북구 첨단연신로108번길 39-18 1층(신용동)
331,13882521,상무칡냉면1978 첨단점,35.21363827,126.84434578,"광주광역시 광산구 월계로 173 (월계동,2층203호)"
332,13038740,전라도이야기,35.21663797,126.84673438,광주광역시 광산구 월계동 872-5 1층
333,13376559,유달리 첨단대라수점,35.22133196,126.85115054,광주광역시 광산구 쌍암동 688-2 1층113호(쌍암동)
334,13346552,동경규동 쌍암점,35.22133196,126.85115054,"광주광역시 광산구 쌍암동 688-2 상가동 1층 106호(쌍암동,첨단대라수어썸시티)"
335,13762263,순돌이 회수산 첨단점,35.21513811,126.8450679,광주광역시 광산구 첨단중앙로106번길 37 나동 1층(월계동)
336,13484218,바름카츠 첨단점,35.21536039,126.85020633,광주광역시 광산구 쌍암동 694-56 1층 104호(쌍암동)
337,13304676,명인면옥 첨단점,35.21430523,126.86620494,광주광역시 북구 임방울대로 991 1층(신용동)
338,13120983,롱쓰부대찌개 광주첨단점,35.21269383,126.83829078,광주광역시 광산구 월계로118번길 20 1층(월계동)
339,13738014,유마롱(YUMARONG),35.22130418,126.85115054,광주광역시 광산구 첨단중앙로182번길 90 1층 102호(쌍암동)
340,13009897,자매떡볶이 첨단점,35.21302718,126.84198489,광주광역시 광산구 월계동 827-1
341,13791808,왕링마라탕 첨단점,35.20902762,126.84079065,광주광역시 광산구 산월로 33 1층(월계동)
342,13052812,처갓집양념치킨 첨단점,35.21261048,126.83687424,광주광역시 광산구 월계동 813-9 1층
343,13856587,화채나무,35.20902762,126.84081843,광주광역시 광산구 산월로 33 1층(월계동)
344,13713145,큰손김치찜&찌개,35.20694486,126.86131667,광주광역시 북구 첨단연신로91번길 32-10 1층 109호(신용동)
345,13886119,조짬,35.21694353,126.84898417,광주광역시 광산구 임방울대로826번길 7-4 1층(쌍암동)
346,10775053,백족발 첨단직영점,35.21944319,126.8457344,광주광역시 광산구 쌍암동 667-7 1층(쌍암동)
347,10681521,김정호깐풍기 본점,35.20897207,126.84081843,광주광역시 광산구 월계동 851-19 1층 (월계동)
348,10675630,상무초밥 첨단직영점,35.21513811,126.8450679,광주광역시 광산구 첨단중앙로106번길 37 가동 1층(월계동)
349,13317585,청년감자탕 광주점,35.21288887,126.87520418,"광주광역시 북구 하서로 428 201호,202호,203호"
350,13789222,순살몬스터 첨단마을점,35.21172174,126.8399851,광주광역시 광산구 월계로130번길 37-8 1층(월계동)
351,13026728,뚜레쥬르 첨단쌍암점,35.219914209634524,126.8370879486792,광주광역시 광산구 쌍암동 655-3 1층 102호(쌍암동)
352,13899474,물회&회덮밥 8000원 첨단점,35.21119406,126.84220714,광주광역시 광산구 첨단중앙로67번길 7-4 1층(월계동)
353,13061026,자담치킨 첨단점,35.2095832,126.84626238,광주광역시 광산구 산월동 885-3  110호
354,13865337,바로덮밥 첨단점,35.21947091,126.84281799,광주광역시 광산구 첨단중앙로152번길 5-6 1층(쌍암동)
355,13873251,읍천리382 첨단점,35.20894190571505,126.83924358436593,광주광역시 광산구 산월로 17 1층 (월계동)
356,13791814,화채의미 첨단점,35.20902762,126.84079065,광주광역시 광산구 산월로 33 1층(월계동)
357,13259879,돈오락쪽갈비 첨단2지구점,35.20730591,126.86012232,광주광역시 북구 신용동 696 1층 102호 (신용동)
358,13323570,요달의찜닭 광주쌍암점,35.22022083,126.84306795,광주광역시 광산구 쌍암동 662-5 1층(쌍암동)
359,13683710,닭발공작소,35.2042509,126.87151028,광주광역시 북구 양산동 288-15 호반아파트 상가동 2층 201호 (양산동)
360,10735575,난타5000 첨단금호점,35.22002402725568,126.8362798804684,"광주광역시 광산구 월계동 756-10 104동(월계동, 첨단이정주차빌딩)"
361,13150647,이백장돈가스 첨단점,35.21238564093246,126.83454160212854,"광주광역시 광산구 월계동 763-5 상가동1층103호(월계동,첨단모아미래도 아파트)"
362,13078712,조선짬뽕 첨단점,35.21694353,126.84901195,광주광역시 광산구 쌍암동 694-21 1층
363,10472085,배터지는생동까스 첨단점,35.2128791,126.8393209,광주광역시 광산구 월계동 820-16
364,13786964,인생뼈구이 첨단점,35.21941537,126.84304019,광주광역시 광산구 첨단중앙로152번길 17-5 1층(쌍암동)
365,10419902,호식이두마리치킨 첨단점,35.21211051,126.83565214,광주광역시 광산구 월계동 775-14 102호 (1층)
366,13069660,파리바게뜨 광주첨단점,35.21999852,126.83629078,광주광역시 광산구 월계동 756-10 첨단이정주차빌딩(1층)
367,13029694,레스토랑 스테이크펍,35.18053043,126.81693237,광주광역시 광산구 신가동 1288
368,13865337,바로덮밥 첨단점,35.21947091,126.84281799,광주광역시 광산구 첨단중앙로152번길 5-6 1층(쌍암동)
369,10612632,아이커버거&치킨 첨단점,35.21241603,126.83540216,광주광역시 광산구 첨단내촌로 69-20 (월계동)
370,13219567,한끼삼계탕&냉면,35.2117217,126.83737422,광주광역시 광산구 첨단내촌로 56 1층(월계동)
371,13300846,김된찌 브라더스 광주첨단점,35.21269383,126.83829078,광주광역시 광산구 월계로118번길 20 1층(월계동)
372,10905320,담소촌숯불갈비전문점,35.2141105,126.84837319,광주광역시 광산구 임방울대로826번길 74 1층 (월계동)
373,10617147,못생긴파닭 첨단점,35.20991636,126.83792977,광주광역시 광산구 첨단내촌로36번길 12 1층 (월계동)
374,13720437,죽통령,35.2117217,126.83737422,광주광역시 광산구 첨단내촌로 56 1층(월계동)
375,13300846,김된찌 브라더스 광주첨단점,35.21269383,126.83829078,광주광역시 광산구 월계로118번길 20 1층(월계동)
376,13269871,마루요시 첨단점,35.21605469,126.84626221,광주광역시 광산구 월계동 878-8 1층(월계동)
377,10065213,아주커치킨 첨단호반점,35.20884685757785,126.84676663799343,광주광역시 광산구 산월동 885-3 (부영e그린아파트 상가)
378,10866148,안심찹쌀로 탕쓱 잘튀기는집,35.20991636,126.83792977,광주광역시 광산구 첨단내촌로36번길 12 1층 (월계동)
379,13798640,컴포즈커피 첨단월계모아점,35.22191504,126.84031815,"광주광역시 광산구 첨단중앙로181번길 6 상가동 1층 108호(월계동,월계동 모아아파트)"
380,13782078,갓잡은 육회&연어 광산점,35.20949971,126.83654102,광주광역시 광산구 첨단내촌로35번길 7-12 1층(월계동)
381,13791817,건어물맛집,35.20902762,126.84079065,광주광역시 광산구 산월로 33 1층(월계동)
382,10412527,네네치킨 첨단1호점,35.2086527628611,126.84354783259195,"광주광역시 광산구 산월동 886-1 산월동,부영사랑으로 상가동 (110호)"
383,13371073,혼마구로 참치,35.222323168120404,126.84965660928681,광주광역시 북구 첨단과기로208번길 43-10 1층 136호(오룡동)
384,13040575,해마루회수산,35.22213784,126.8759261,광주광역시 북구 용두동 1045-1 1층(용두동)
385,13920698,킹스타피자 첨단점,35.2122496,126.84837323,"광주광역시 광산구 첨단중앙로68번길 99 상가동 1층 103호(산월동,호반리젠시빌)"
386,13167933,비비큐치킨앤비어 첨단점,35.21430499,126.8520673,"광주광역시 광산구 쌍암동 694-142 2층 206,207호(쌍암동,야스텍타워)"
387,13808283,피자나라치킨공주 첨단점,35.21208278,126.83812415,광주광역시 광산구 월계로118번길 30-5 1층(월계동)
388,13615368,제육대가 (첨단점),35.20672267,126.86123335,광주광역시 북구 신용동 709 (주)첨단금송 1층 104호(신용동)
389,13514402,치킨플러스 광주첨단월계점,35.2106385,126.83826306,광주광역시 광산구 월계동 836-4 1층(월계동)
390,13170860,찡찡꼬마김밥,35.22241514,126.84948399,광주광역시 북구 오룡동 1110-22 1층 121호(오룡동)
391,13813144,일로아구찜,35.21436048,126.84845651,광주광역시 광산구 임방울대로826번길 70 1층(월계동)
392,13019031,옹고집 본가감자탕,35.2101663,126.83615215,광주광역시 광산구 월계동 807-7 1층(월계동)
393,13744847,사우나떡볶이로제&국물 첨단중앙점,35.22116533,126.85251153,광주광역시 광산구 앰코로 35 폭스존 1층 112호(쌍암동)
394,13645173,큰수저 김치찜2호점,35.2095558,126.86828821,"광주광역시 북구 신용동 602-10 (신용동,1층103호)"
395,13120983,롱쓰부대찌개 광주첨단점,35.21269383,126.83829078,광주광역시 광산구 월계로118번길 20 1층(월계동)
396,13430042,응급실국물떡볶이 첨단중앙점,35.21666567,126.84240143,광주광역시 광산구 월계동 867-6 1층105호(월계동)
397,13394384,마선생 마약국밥 광주첨단점,35.21384304797752,126.84614466408027,"광주광역시 광산구 월계동 892-7 (월계동,(1층))"
398,13861696,대박삼겹김치찜&초대박등갈비김치찜,35.21119406,126.84220714,광주광역시 광산구 첨단중앙로67번길 7-4 1층(월계동)
399,13840788,하랑은 초밥&덮밥&모밀 신용점,35.20897248,126.86526071,광주광역시 북구 첨단연신로108번길 59-17 1층 101호(신용동)
400,13137828,미스터초밥 첨단점,35.2153326,126.84901199,"광주광역시 광산구 쌍암동 694-5 1층 128,129호(쌍암동)"
401,12026816,땡초돼지김치찌개첨단점,35.20936088,126.8390408,광주광역시 광산구 월계동 845-6 1층
402,13526913,테그42 광주첨단점,35.21624918,126.85037296,광주광역시 광산구 쌍암동 694-118 1층 101(일부)호(쌍암동)
403,13323833,피자마루 첨단점,35.21058313,126.84873435,"광주광역시 광산구 산월동 884-1 산월동,호반@상가3-2차 101호(1층)"
404,10626850,옛날짜장,35.2188947,126.8532111,광주광역시 북구 오룡동 1115-4
405,13259667,바른치킨 첨단점,35.22024873,126.85017843,광주광역시 광산구 쌍암동 686-3 첨단중해마루힐 주차타워 1층 상가104호 (쌍암동)
406,13732114,파더스 베이글 첨단점,35.21497144,126.84406799,광주광역시 광산구 첨단중앙로106번길 15 1.2층(월계동)
407,13759333,바른카페쌍암점,35.214555329102346,126.84401575988898,"광주광역시 광산구 첨단중앙로152번길 6-8 상가동 1층 101호 (쌍암동, 광주첨단 LH 1단지)"
408,13823775,파운데이 쌍암점,35.22033195,126.84429006,광주광역시 광산구 첨단중앙로152번길 31-16 A동 1층(쌍암동)
409,12026820,땡초돼지국물갈비찜첨단점,35.20936088,126.8390408,광주광역시 광산구 월계동 845-6 1층
410,13692536,배떡 첨단1지구점,35.22163735,126.84351232,광주광역시 광산구 첨단중앙로182번길 20 1층(쌍암동)
411,13862763,돼지가 김치찜 했어 첨단점,35.20694484,126.85976125,광주광역시 북구 첨단연신로107번길 45-11 1층102호(신용동)
412,13808283,피자나라치킨공주 첨단점,35.21208278,126.83812415,광주광역시 광산구 월계로118번길 30-5 1층(월계동)
413,13075286,이백장돈가스 첨단점,35.21250605320084,126.83457664389313,"광주광역시 광산구 월계로 77 상가동1층103호(월계동,첨단모아미래도 아파트)"
414,13861697,그집 곱도리탕 첨단점,35.21119406,126.84220714,광주광역시 광산구 첨단중앙로67번길 7-4 1층(월계동)
415,10727522,후라이드참잘하는집 첨단점,35.21274938,126.83851298,광주광역시 광산구 월계동 818-15 1층 (월계동)
416,13131222,BHC 광주첨단1호점,35.21866532,126.83484649,광주광역시 광산구 월계동 759-1
417,13821022,숯양두마리치킨 첨단점,35.221669632257814,126.84072584430699,"광주광역시 광산구 첨단중앙로181번길 6 상가동 103호(월계동,월계동 모아아파트)"
418,13471997,레커버거,35.20652821,126.85951128,광주광역시 북구 신용동 691 대성빌딩 1층 111호 (신용동)
419,12006347,맘스케익 광주1호점,35.2140295,126.8773976,광주광역시 북구 용두동 1083 1층(용두동)
420,13459186,초밥생각,35.20908383,126.88025938,광주광역시 북구 양산동 1028 1층(양산동)
421,10727522,후라이드참잘하는집 첨단점,35.21274938,126.83851298,광주광역시 광산구 월계동 818-15 1층 (월계동)
422,13047899,카페하논,35.21822108,126.84426234,광주광역시 광산구 쌍암동 669-1 1층(쌍암동)
423,13728813,돈돈파파,35.22130414,126.84848411,광주광역시 광산구 임방울대로825번길 73 1층(쌍암동)
424,13461078,장미분식 첨단직영점,35.21602687,126.84376244,광주광역시 광산구 월계동 875-7 1층(월계동)
425,13872098,노랑분식 광주본점,35.21913768,126.84623436,광주광역시 광산구 임방울대로801번길 26 1층(쌍암동)
426,13191656,도야족발보쌈 첨단점,35.21513813,126.84637334,광주광역시 광산구 월계동 885-1 1층 122호일부(110호)
427,10637770,명동보쌈국수 첨단점,35.21411046,126.84581786,광주광역시 광산구 월계동 891-6
428,13154269,플랜티 첨단2지구점,35.20652821,126.85951128,광주광역시 북구 신용동 691 대성빌딩 1층 105호(신용동)
429,10681521,김정호깐풍기 본점,35.20897207,126.84081843,광주광역시 광산구 월계동 851-19 1층 (월계동)
430,13323833,피자마루 첨단점,35.21058313,126.84873435,"광주광역시 광산구 산월동 884-1 산월동,호반@상가3-2차 101호(1층)"
431,10017955,깐깐한족발 본점,35.21563806,126.84526231,광주 광산구 월계동 886-3 891-4
432,13806970,지코바첨단1호점,35.21522152,126.85042853,"광주광역시 광산구 월계로 223-20 1층111호(쌍암동,첨단도휘에드가2차)"
433,13780356,바코포차,35.219119,126.843682,광주광역시 광산구 첨단중앙로152번길 25 1층 바코포차
434,13767709,해녀촌,35.21662044938853,126.84859058480988,"광주광역시 광산구 임방울대로826번길 20 101,102호 (월계동, 수연빌딩)"
435,10017955,깐깐한족발 본점,35.21563806,126.84526231,광주 광산구 월계동 886-3 891-4
436,13899237,아구찜계 큰손,35.20694484,126.8601501,광주광역시 북구 첨단연신로107번길 45-17 건영빌딩1층101호(신용동)
437,13895181,제육민국,35.21883207,126.84112371,"광주광역시 광산구 첨단중앙로 153 상가동 1층 102호(월계동, 첨단단지대주APT)"
438,13559766,피굽남피자 광주8호첨단점,35.22169131447119,126.8516352416907,광주광역시 광산구 쌍암동 688-2 첨단대라수어썸시티 상가동 1층 126호(쌍암동)
439,10065213,아주커치킨 첨단호반점,35.20884685757785,126.84676663799343,광주광역시 광산구 산월동 885-3 (부영e그린아파트 상가)
440,13348259,국내산 1번고기,35.21694354,126.84976188,광주광역시 광산구 쌍암동 694-140 1층(쌍암동)
441,13004579,원 플러스 원 찌개&볶음 첨단점,35.21516597,126.85006746,광주광역시 광산구 월계로 223-20 1층 117호
442,13078281,페리카나치킨 첨단점,35.20863200303578,126.84373194780626,광주광역시 광산구 산월동 886-1 봉산초교 앞상가 107호 페리카나치킨 첨단점
443,13093683,엄마김밥 첨단점,35.21324938,126.84215154,광주광역시 광산구 월계동 766-2 1층(월계동)
444,13208843,금오회수산,35.22213784,126.8759261,광주광역시 북구 용두동 1045-1 107호
445,13800748,버터풀앤크리멀러스 첨단점,35.21424934,126.84642891,광주광역시 광산구 임방울대로800번길 71 아크레타 첨단5층 501-504호(월계동)
446,13787142,1004 아구찜,35.21394391,126.85181733,광주광역시 광산구 월계로 235-8 미르채리버파크 2층 214-224호(쌍암동)
447,10735575,난타5000 첨단금호점,35.22002402725568,126.8362798804684,"광주광역시 광산구 월계동 756-10 104동(월계동, 첨단이정주차빌딩)"
448,13842928,꿈떡꿈떡 첨단점,35.21238851,126.85015085,"광주광역시 광산구 첨단중앙로68번길 131 상가동1층108호(산월동,부영아파트)"
449,13208843,금오회수산,35.22213784,126.8759261,광주광역시 북구 용두동 1045-1 107호
450,13777172,성미초밥,35.21663794,126.84515119,광주광역시 광산구 첨단중앙로124번길 51 (월계동)
451,13895468,오로라 요거트 아이스크림 광주점,35.2102775,126.84242936,광주광역시 광산구 첨단중앙로47번길 8-14 1층 (월계동)
452,13845956,포샵 첨단점,35.21288827,126.83931846,광주광역시 광산구 첨단내촌로70번길 50-5 1층
453,13191656,도야족발보쌈 첨단점,35.21513813,126.84637334,광주광역시 광산구 월계동 885-1 1층 122호일부(110호)
454,13850548,봉명동내커피 광주첨단점,35.21286043,126.83581877,광주광역시 광산구 월계로 92 1층(월계동)
455,13810306,인생 김치찌개,35.22133196,126.85115054,광주광역시 광산구 첨단중앙로182번길 90 상가동 1층 127호 (쌍암동)
456,13131222,BHC 광주첨단1호점,35.21866532,126.83484649,광주광역시 광산구 월계동 759-1
457,13094697,수유리우동집 첨단점,35.2145826,126.84434575,광주광역시 광산구 월계동 890-6 1층 106호
458,13860302,신세계 중식당,35.20652828,126.86367758,광주광역시 북구 첨단연신로91번길 6 1층(신용동)
459,13805781,모도리보쌈족발,35.20872255,126.86803825,광주광역시 북구 연양로7번길 53 1층 (신용동)
460,13078200,만두여행&쫄면 떡볶이,35.2211931,126.85237266,광주광역시 광산구 쌍암동 688-4 1층 134호(쌍암동)
461,13165966,냉면덕후 첨단점,35.21522152,126.85042853,광주광역시 광산구 월계로 223-20 1층 117호
462,13165967,뼈대있는국밥 첨단점,35.21522152,126.85042853,광주광역시 광산구 월계로 223-20 1층 117호
463,13004583,나주할매 곰탕&뼈해장국 첨단점,35.21516597,126.85006746,광주광역시 광산구 월계로 223-20 1층 117호
464,13004581,1인한식당 첨단점,35.21516597,126.85006746,광주광역시 광산구 월계로 223-20 1층 117호
465,13777797,디르디르,35.22130418,126.85115054,광주광역시 광산구 첨단중앙로182번길 90 상가동 1층 109호(쌍암동)
466,12003201,한솥도시락 첨단월계점,35.2188010286357,126.83839119233544,광주광역시 광산구 월계동 758-8 상가동 1층 101호
467,13865379,꾸꾸삼겹 첨단점,35.20897209,126.84226275,광주광역시 광산구 산월로 45 1층 (월계동)
468,13448681,BBQ 첨단산월점,35.208565092976386,126.84433638967937,"광주광역시 광산구 산월동 886-1 상가동1층106호(산월동,부영사랑으로)"
469,13189766,벌크커피 첨단메가박스점,35.21988769,126.85220604,광주광역시 광산구 앰코로 21 109동103호(쌍암동 첨단대라수)
470,13557228,보울레시피 BOWL RECIPE 첨단점,35.22241514,126.84948399,광주광역시 북구 오룡동 1110-22 1층 106-a호(오룡동)
471,10775053,백족발 첨단직영점,35.21944319,126.8457344,광주광역시 광산구 쌍암동 667-7 1층(쌍암동)
472,13127508,백종원의 새마을식당 광주첨단점,35.21985977,126.84373456,광주광역시 광산구 쌍암동 661-6 1층 (쌍암동)
473,13744847,사우나떡볶이로제&국물 첨단중앙점,35.22116533,126.85251153,광주광역시 광산구 앰코로 35 폭스존 1층 112호(쌍암동)
474,10705867,수일통닭 첨단점,35.21344373,126.83781858,"광주광역시 광산구 월계동 770-2 (월계동,(1층))"
475,13348259,국내산 1번고기,35.21694354,126.84976188,광주광역시 광산구 쌍암동 694-140 1층(쌍암동)
476,13223660,한촌설렁탕 광주첨단점,35.22241514,126.84948399,광주광역시 북구 오룡동 1110-22 1층 104호 (오룡동)
477,13317585,청년감자탕 광주점,35.21288887,126.87520418,"광주광역시 북구 하서로 428 201호,202호,203호"
478,10866148,안심찹쌀로 탕쓱 잘튀기는집,35.20991636,126.83792977,광주광역시 광산구 첨단내촌로36번길 12 1층 (월계동)
479,13882200,불짬뽕볶음밥,35.20836144,126.86512185,광주광역시 북구 첨단연신로108번길 39-18 1층(신용동)
480,10668510,굽네치킨 광주첨단점,35.212938989738205,126.83596462097549,광주광역시 광산구 월계동 772-6 1층
481,13775403,김경엽다슬기 양산점,35.21416651,126.87520414,"광주광역시 북구 하서로 439 (용두동,(1,2층))"
482,13054094,쭈사장 첨단직영점,35.21605473,126.84828981,광주광역시 광산구 월계동 881-1 1층 108호 (월계동)
483,13767709,해녀촌,35.21662044938853,126.84859058480988,"광주광역시 광산구 임방울대로826번길 20 101,102호 (월계동, 수연빌딩)"
484,10669870,신락원 첨단점,35.2187096,126.8485095,광주광역시 광산구 쌍암동 682-4
485,10638191,신전떡볶이 첨단월계점,35.2149795,126.8436766,광주광역시 광산구 월계동 888-14
486,13458388,킹콩부대찌개 광주첨단월계점,35.213851,126.847819,광주광역시 광산구 월계동 893-9 1층 121호
487,13777496,영도씨0c 첨단점,35.21991531,126.84281798,광주광역시 광산구 첨단중앙로152번길 5-10
488,12024995,마미쿡 수제버거&치킨,35.2211931,126.85237266,광주광역시 광산구 쌍암동 688-4 1층 134호(쌍암동)
489,13801603,볼빨간아구찜 첨단점,35.21133287,126.83826304,광주광역시 광산구 첨단중앙로67번길 79 1층 (월계동)
490,13361341,사랑각 첨단점,35.21458263,126.84573452,"광주광역시 광산구 월계동 891-4 (월계동,(1층))"
491,10664739,호식이두마리치킨 첨단2호점,35.21822115,126.84834531,광주광역시 광산구 임방울대로825번길 9 광주첨단LH2단지아파트상가 1층 104호
492,13498185,상류치킨 첨단2지구점,35.20697264,126.86123334,광주광역시 북구 신용동 708 1층 110호(신용동)
493,13712379,홍콩다방 광주첨단점,35.21513821,126.85115069,"광주광역시 광산구 첨단강변로99번길 21 1층102호(쌍암동,윤진리안채)"
494,10626510,더참맛수육국밥,35.2069449,126.86337204,광주광역시 북구 신용동 727 1층(신용동)
495,13312258,달리는커피 첨단1호점,35.21057310925684,126.83818075246765,광주광역시 광산구 월계동 836-5 1층
496,13898114,와우당냉면&참숯목살갈비 첨단점,35.21119406,126.84220714,광주광역시 광산구 첨단중앙로67번길 7-4 1층(월계동)
497,13750845,새벽달 첨단점,35.21527705,126.84920642,"광주광역시 광산구 임방울대로826번길 47 더시너지첨단 1층 122,123호(쌍암동)"
498,13728026,참돈까스,35.214867449410704,126.85236137427385,"광주광역시 광산구 첨단강변로87번길 5 , 야스텍타워 112호(쌍암동)"
499,13120983,롱쓰부대찌개 광주첨단점,35.21269383,126.83829078,광주광역시 광산구 월계로118번길 20 1층(월계동)
500,13806970,지코바첨단1호점,35.21522152,126.85042853,"광주광역시 광산구 월계로 223-20 1층111호(쌍암동,첨단도휘에드가2차)"
501,13858155,타코야끼킹,35.21910597729612,126.84149653222424,"광주광역시 광산구 첨단중앙로 153 상가동 1층 102호(월계동, 첨단단지대주APT)"
502,13316269,임창정의 모서리족발 첨단점,35.21985977,126.84373456,광주광역시 광산구 쌍암동 661-6 1층(쌍암동)
503,13670715,카페달링 첨단양산직영점,35.20652823,126.86026121,광주광역시 북구 신용동 693 J-TOWER 1층 106호 (신용동)
504,13787142,1004 아구찜,35.21394391,126.85181733,광주광역시 광산구 월계로 235-8 미르채리버파크 2층 214-224호(쌍암동)
505,13302814,마왕족발 광주첨단점,35.21605473,126.84828981,광주광역시 광산구 월계동 881-1 1층 110호(월계동)
506,13263770,청년피자 첨단양산점,35.20969461,126.86470519,광주광역시 북구 신용동 746 1층 (신용동)
507,13479111,본도시락 광주첨단점,35.2211931,126.85237266,광주광역시 광산구 쌍암동 688-4 폭스존 1층 104호 (쌍암동)
508,13361341,사랑각 첨단점,35.21458263,126.84573452,"광주광역시 광산구 월계동 891-4 (월계동,(1층))"
509,13782078,갓잡은 육회&연어 광산점,35.20949971,126.83654102,광주광역시 광산구 첨단내촌로35번길 7-12 1층(월계동)
510,13430294,하림맥시칸치킨 첨단점,35.21522152,126.85042853,"광주광역시 광산구 월계로 223-20 1층 115호 (쌍암동, 첨단도휘에드가 2차)"
511,13895897,직화삼겹직구삼 첨단점,35.21633248,126.84898419,광주광역시 광산구 임방울대로826번길 25 1층 112호(쌍암동)
512,13388472,맛드림 김밥랜드 첨단점,35.22099849,126.84081813,광주광역시 광산구 월계동 758-4
513,13029823,피자파는집 첨단점,35.20866648,126.83670769,광주광역시 광산구 월계동 797-4 1층(월계동)
514,13917496,뉴크로커피,35.20652823,126.86062229,광주광역시 북구 첨단연신로107번길 45-22 토담빌딩 1층109호(신용동)
515,13394384,마선생 마약국밥 광주첨단점,35.21384304797752,126.84614466408027,"광주광역시 광산구 월계동 892-7 (월계동,(1층))"
516,13514402,치킨플러스 광주첨단월계점,35.2106385,126.83826306,광주광역시 광산구 월계동 836-4 1층(월계동)
517,10791884,해담,35.19139045,126.82482028,"광주광역시 광산구 장신로147번길 5-12 (수완동,(1층)108호)"
518,10646557,크리스피크림도넛 광주첨단점,35.21722116,126.84245697,"광주광역시 광산구 월계동 867-1 1층 113,114(일부)호 (월계동, 첨단센츄럴빌딩)"
519,10664739,호식이두마리치킨 첨단2호점,35.21822115,126.84834531,광주광역시 광산구 임방울대로825번길 9 광주첨단LH2단지아파트상가 1층 104호
520,13608254,첨단알찜,35.22241514,126.84948399,"광주광역시 북구 오룡동 1110-22 2층 221,222호(오룡동)"
521,13113618,크리스피크림도넛 광주첨단점,35.21722116,126.84245697,"광주광역시 광산구 월계동 867-1 1층 113,114(일부)호 (월계동, 첨단센츄럴빌딩)"
522,10888601,여수한방오리탕,35.2144571,126.8790766,광주광역시 북구 본촌동 3031
523,13914469,와플대학 광주첨단캠퍼스,35.213648,126.844043,"광주광역시 광산구 월계로 169 1층 105호, 와플대학"
524,13895181,제육민국,35.21883207,126.84112371,"광주광역시 광산구 첨단중앙로 153 상가동 1층 102호(월계동, 첨단단지대주APT)"
525,13914469,와플대학 광주첨단캠퍼스,35.213648,126.844043,"광주광역시 광산구 월계로 169 1층 105호, 와플대학"
526,13246339,탄탄면공방 광주첨단점,35.21530483,126.84923419,"광주광역시 광산구 임방울대로826번길 47 1층130,131호(쌍암동)"
527,13873251,읍천리382 첨단점,35.20894190571505,126.83924358436593,광주광역시 광산구 산월로 17 1층 (월계동)
528,13184498,커피에반하다 첨단점,35.21719342,126.84448457,"광주광역시 광산구 월계동 868-2 105,201호(월계동)"
529,13028213,김정호깐풍기 본점,35.20897207,126.84081843,광주광역시 광산구 월계동 851-19 1층 (월계동)
530,13052812,처갓집양념치킨 첨단점,35.21261048,126.83687424,광주광역시 광산구 월계동 813-9 1층
531,13895468,오로라 요거트 아이스크림 광주점,35.2102775,126.84242936,광주광역시 광산구 첨단중앙로47번길 8-14 1층 (월계동)
532,13573349,촌닭이두마리 본촌점,35.21883276,126.88228673,"광주광역시 북구 본촌동 3102 116동 1층 101호(본촌동,현대힐스테이트)"
533,13791814,화채의미 첨단점,35.20902762,126.84079065,광주광역시 광산구 산월로 33 1층(월계동)
534,13417229,착한족발 첨단쌍암점,35.21308272,126.84145716,광주광역시 광산구 첨단내촌로70번길 92 1층(월계동)
535,13739620,김수미의 엄마손맛 첨단점,35.21666567,126.84234588,광주광역시 광산구 첨단중앙로 126 1층 101호 (월계동)
536,13361341,사랑각 첨단점,35.21458263,126.84573452,"광주광역시 광산구 월계동 891-4 (월계동,(1층))"
537,13456206,파스타입니다 첨단점,35.207197870156335,126.86259373125336,광주광역시 북구 신용동 719 1층 107호(신용동)
538,10412527,네네치킨 첨단1호점,35.2086527628611,126.84354783259195,"광주광역시 광산구 산월동 886-1 산월동,부영사랑으로 상가동 (110호)"
539,13750845,새벽달 첨단점,35.21527705,126.84920642,"광주광역시 광산구 임방울대로826번길 47 더시너지첨단 1층 122,123호(쌍암동)"
540,13670256,삶오로지다 족발보쌈 본점,35.21047252,126.87764847,광주광역시 북구 양산동 849 1층
541,13726469,프랭크버거 광주첨단신용점,35.20730595,126.86242767,광주광역시 북구 첨단연신로91번길 20-14 만강빌딩1층(신용동)
542,13873251,읍천리382 첨단점,35.20894190571505,126.83924358436593,광주광역시 광산구 산월로 17 1층 (월계동)
543,13167933,비비큐치킨앤비어 첨단점,35.21430499,126.8520673,"광주광역시 광산구 쌍암동 694-142 2층 206,207호(쌍암동,야스텍타워)"
544,10902473,신천직화불닭발 첨단점,35.21271132978568,126.83825828846494,광주광역시 광산구 월계동 816-5
545,13400969,고기궁전 첨단양산점,35.2095558,126.86828821,광주광역시 북구 신용동 602-10 1층107호
546,13438349,피자알볼로 첨단1지구점,35.21812324961763,126.84851697107749,"광주광역시 광산구 쌍암동 683-2 상가동 101호(쌍암동,광주첨단 LH2단지)"
547,13834707,김삿갓통닭 첨단2지구점,35.21136106,126.8630664,"광주광역시 북구 첨단연신로133번길 8 113동 1층 105호(신용동,광주첨단2지구 호반베르디움 1단지)"
548,13204710,라임반찬 첨단점,35.2136383,126.84617895,광주광역시 광산구 월계동 892-6 1층(월계동)
549,13822941,홍쓰덮밥 광주신용점,35.20958357,126.86837153,광주광역시 북구 임방울대로1042번길 49 1층(신용동)
550,10503524,영양족발보쌈,35.20880583,126.86495519,광주광역시 북구 신용동 808번지 101호
551,13710724,순살만공격 첨단점,35.2113266531664,126.84975535727183,"광주광역시 광산구 첨단중앙로68번길 134 상가2동 1층 110호(산월동,첨단3-3차 호반리젠시빌)"
552,13075173,멕시카나치킨 첨단남부대점,35.20980524,126.83706874,광주광역시 광산구 월계동 804-3 1층
553,13443111,마라미녀 마라탕 첨단점,35.2138049,126.84348474,광주광역시 광산구 첨단중앙로 96 1층 118호(월계동)
554,13858155,타코야끼킹,35.21910597729612,126.84149653222424,"광주광역시 광산구 첨단중앙로 153 상가동 1층 102호(월계동, 첨단단지대주APT)"
555,13596289,백종원의 롤링파스타첨단점,35.21516585,126.8432625,"광주광역시 광산구 월계동 888-10 , 2층 206호(월계동)"
556,13391093,세련대게 광주수완점,35.19116807,126.81393237,광주광역시 광산구 장덕동 1481 화성타워 106호 (장덕동)
557,10668510,굽네치킨 광주첨단점,35.212938989738205,126.83596462097549,광주광역시 광산구 월계동 772-6 1층
558,13898114,와우당냉면&참숯목살갈비 첨단점,35.21119406,126.84220714,광주광역시 광산구 첨단중앙로67번길 7-4 1층(월계동)
559,10554957,BBQ 첨단1호점,35.220162321411415,126.83168088729555,"광주광역시 광산구 첨단중앙로181번길 88-16 (월계동,라인5차@상가 101호)"
560,13112048,카페달링 도시락편,35.20874979,126.83595775,광주광역시 광산구 월계동 779-2 1층(월계동)
561,10808618,툴스돈카츠,35.20791705,126.86539961,광주 북구 신용동 835 1층
562,13371073,혼마구로 참치,35.222323168120404,126.84965660928681,광주광역시 북구 첨단과기로208번길 43-10 1층 136호(오룡동)
563,13699645,요녀석 파스타 &필라프 첨단점,35.211345811564115,126.8456829964255,"광주광역시 광산구 첨단중앙로68번길 60 상가1동1층112호(산월동,첨단3-1차호반리젠시빌)"
564,13080286,청년연어 첨단점,35.21461045,126.84848428,광주광역시 광산구 월계동 893-3 1층 103호(월계동)
565,13907529,BHC 첨단3호점,35.21074974,126.84626235,"광주광역시 광산구 첨단중앙로68번길 60 상가1동 1층 104호(산월동, 첨단3-1차 호반리젠시빌)"
566,13861697,그집 곱도리탕 첨단점,35.21119406,126.84220714,광주광역시 광산구 첨단중앙로67번길 7-4 1층(월계동)
567,13719610,보배반점 첨단점,35.2160825,126.84828981,광주광역시 광산구 임방울대로826번길 30 1층115호(월계동)
568,13348264,꼬기부심,35.21694354,126.84976188,광주광역시 광산구 쌍암동 694-140 1층(쌍암동)
569,13789222,순살몬스터 첨단마을점,35.21172174,126.8399851,광주광역시 광산구 월계로130번길 37-8 1층(월계동)
570,10051678,계동치킨 첨단점,35.2156623,126.8352646,광주광역시 광산구 월계동 764-2
571,13812866,화채업자 첨단점,35.21091617,126.8334857,광주광역시 광산구 월계로34번길 21-16 1층 (월계동)
572,13315849,청담피자 광주1호첨단점,35.21860993,126.84470673,광주광역시 광산구 쌍암동 668-11 1동1층101호
573,13895181,제육민국,35.21883207,126.84112371,"광주광역시 광산구 첨단중앙로 153 상가동 1층 102호(월계동, 첨단단지대주APT)"
574,13427869,입큰아구찜&알곤이찜,35.22241514,126.84948399,광주광역시 북구 오룡동 1110-22 1층 115호(오룡동)
575,13440840,냉면일번지,35.2117217,126.83737422,광주광역시 광산구 첨단내촌로 56 1층(월계동)
576,13578190,아이러브피자 첨단점,35.20905536,126.83920746,광주광역시 광산구 월계동 843-4 1층(월계동)
577,13874581,곱도리탕전문점 대가 첨단점,35.20652823,126.86062229,광주광역시 북구 첨단연신로107번길 45-22 토담빌딩 1층 106-1호 (신용동)
578,13678693,바른초밥 첨단점,35.21419379,126.84634559,"광주광역시 광산구 월계동 892-8 아크레타 첨단1층 118,119,120호(월계동)"
579,13876125,1번지 참치,35.22249846,126.84951177,광주광역시 북구 첨단과기로208번길 43-10 1층 136호(오룡동)
580,13398686,피자스쿨 월계점,35.21808207,126.83606862,"광주광역시 광산구 월계동 759-3 상가동1층103호(월계동,첨단과학산업기지 라인3차아파트)"
581,13696618,신묘한 닭도리탕&곱도리탕 신창점,35.19714007,126.84045765,"광주광역시 광산구 신창로138번길 15-16 (신창동,(1층))"
582,13348264,꼬기부심,35.21694354,126.84976188,광주광역시 광산구 쌍암동 694-140 1층(쌍암동)
583,13861696,대박삼겹김치찜&초대박등갈비김치찜,35.21119406,126.84220714,광주광역시 광산구 첨단중앙로67번길 7-4 1층(월계동)
584,10734595,청담동마녀김밥,35.20730594,126.86178884,광주광역시 북구 신용동 712 1층 101호 (신용동)
585,13372146,김선영반찬,35.21689920770985,126.84017060879361,"광주광역시 광산구 쌍암동 687-5 상가동2동 102호(쌍암동,첨단대라수3차)"
586,10830535,앞다리집,35.20747259,126.86195548,광주광역시 북구 신용동 713
587,13628257,최씨부엌족발 전문점,35.20947267,126.87989829,광주광역시 북구 양산동 902 1층(양산동)
588,13242644,초유지,35.22111022,126.87842591,광주광역시 북구 용두동 1047-11 1층
589,13430042,응급실국물떡볶이 첨단중앙점,35.21666567,126.84240143,광주광역시 광산구 월계동 867-6 1층105호(월계동)
590,13899474,물회&회덮밥 8000원 첨단점,35.21119406,126.84220714,광주광역시 광산구 첨단중앙로67번길 7-4 1층(월계동)
591,13861696,대박삼겹김치찜&초대박등갈비김치찜,35.21119406,126.84220714,광주광역시 광산구 첨단중앙로67번길 7-4 1층(월계동)
592,13463841,정직한 보쌈 본점,35.20694484,126.86012233,"광주광역시 북구 신용동 702 신용동,106,107호"
593,13258078,서플라이 첨단점,35.2153326,126.84901199,"광주광역시 광산구 쌍암동 694-5 1~2층 113, 114, 207, 208, 209호(쌍암동)"
594,13528914,아이러브피자,35.22163704,126.82501396,광주광역시 광산구 비아동 87-2 1층(비아동)
595,13895468,오로라 요거트 아이스크림 광주점,35.2102775,126.84242936,광주광역시 광산구 첨단중앙로47번길 8-14 1층 (월계동)
596,13507926,샐러바웃 첨단점,35.2166379,126.84279028,광주광역시 광산구 월계동 874-12 1층(월계동)
597,13403430,BHC 첨단중앙점,35.21399936,126.84573453,광주광역시 광산구 월계동 891-6 (월계동)
598,13728813,돈돈파파,35.22130414,126.84848411,광주광역시 광산구 임방울대로825번길 73 1층(쌍암동)
599,13461078,장미분식 첨단직영점,35.21602687,126.84376244,광주광역시 광산구 월계동 875-7 1층(월계동)
600,13100452,걸작떡볶이치킨 첨단점,35.21352542978512,126.84346851254911,"광주광역시 광산구 쌍암동 694-59 110동 1층 113호 (쌍암동, 쌍암중흥에스클래스리버시티)"
601,13850548,봉명동내커피 광주첨단점,35.21286043,126.83581877,광주광역시 광산구 월계로 92 1층(월계동)
602,13574500,딥그레이,35.21663793,126.84431793,광주광역시 광산구 월계동 873-17 주남타운 1층(월계동)
603,13428294,우리할매떡볶이 광주첨단점,35.21133279,126.83390232,광주광역시 광산구 월계동 779-2 1층(월계동)
604,13167933,비비큐치킨앤비어 첨단점,35.21430499,126.8520673,"광주광역시 광산구 쌍암동 694-142 2층 206,207호(쌍암동,야스텍타워)"
605,13191656,도야족발보쌈 첨단점,35.21513813,126.84637334,광주광역시 광산구 월계동 885-1 1층 122호일부(110호)
606,13897886,베이크쇼디치,35.22249846,126.84951177,광주광역시 북구 첨단과기로208번길 43-10 마루힐 아이비씨 지식산업센터 1층 112-a호(오룡동)
607,13536956,행복뜰,35.22083188,126.84304016,광주광역시 광산구 쌍암동 663-9 (쌍암동)
608,13347359,쌍암칼국수,35.21638806,126.85067848,광주광역시 광산구 임방울대로826번길 29-31 128호(쌍암동)
609,13078712,조선짬뽕 첨단점,35.21694353,126.84901195,광주광역시 광산구 쌍암동 694-21 1층
610,10915896,통큰아구찜,35.21027536288128,126.84196201781457,광주광역시 광산구 월계동 896-14
611,13113621,굽네치킨 첨단2호점,35.20652821,126.85951128,광주광역시 북구 신용동 691
612,13113303,대가 참치,35.20652823,126.86065007,광주광역시 북구 신용동 694 101호
613,12018795,홍짜장 LC타워점,35.2138049,126.84345696,광주광역시 광산구 월계동 889-2 1층
614,13791808,왕링마라탕 첨단점,35.20902762,126.84079065,광주광역시 광산구 산월로 33 1층(월계동)
615,13352610,김가네 첨단점,35.21361053,126.84642893,"광주광역시 광산구 월계동 892-5 2호(월계동,(1층))"
616,13772797,심슨양곱창,35.21424934,126.84642891,"광주광역시 광산구 임방울대로800번길 71 아크레타 첨단1층 112,113호(월계동)"
617,13414085,인끼밥상,35.2182211,126.84562333,"광주광역시 광산구 쌍암동 669-4 (쌍암동,105.106호(1층))"
618,13865338,바로파스타 첨단점,35.21947091,126.84281799,광주광역시 광산구 첨단중앙로152번길 5-6 1층(쌍암동)
619,13140468,공차 첨단엘씨타워점,35.2138049,126.84348474,광주광역시 광산구 월계동 889-2
620,13727012,볶음밥 볶는 남자,35.20897209,126.84223497,광주광역시 광산구 산월로 45 1층(월계동)
621,13640544,PIZZA FULL 첨단본점,35.22094309,126.84990066,"광주광역시 광산구 쌍암동 687-5 상가1동1층107호(쌍암동,첨단대라수3차)"
622,13352639,혼밥대왕 첨단점,35.22013762,126.84970625,"광주광역시 광산구 임방울대로825번길 60-6 103동 101호(쌍암동,첨단중해마루힐)"
623,10503524,영양족발보쌈,35.20880583,126.86495519,광주광역시 북구 신용동 808번지 101호
624,13039342,냉면의신,35.20769435,126.83556893,"광주광역시 광산구 월계동 796-13 (월계동,(1층))"
625,13806970,지코바첨단1호점,35.21522152,126.85042853,"광주광역시 광산구 월계로 223-20 1층111호(쌍암동,첨단도휘에드가2차)"
626,13474238,쫄리면 비비시던가 쫄면,35.21441832248273,126.8426600646228,광주광역시 광산구 월계동 836-1 1층 (월계동)
627,13259667,바른치킨 첨단점,35.22024873,126.85017843,광주광역시 광산구 쌍암동 686-3 첨단중해마루힐 주차타워 1층 상가104호 (쌍암동)
628,13714036,아메리칸피자 첨단양산점,35.22116533,126.85251153,광주광역시 광산구 앰코로 35 폭스존 1층 105호(쌍암동)
629,13218278,후쿠오카 대창덮밥&라멘 첨단점,35.21513813,126.84637334,광주광역시 광산구 월계동 885-1 월계동주차빌딩 1층 122(일부)호 (월계동)
630,13670256,삶오로지다 족발보쌈 본점,35.21047252,126.87764847,광주광역시 북구 양산동 849 1층
631,13823775,파운데이 쌍암점,35.22033195,126.84429006,광주광역시 광산구 첨단중앙로152번길 31-16 A동 1층(쌍암동)
632,13024454,금성칡냉면 첨단점,35.21944314,126.84281799,광주광역시 광산구 쌍암동 659-8 1층
633,13068815,박가부대&치즈닭갈비 광주첨단점,35.22163736,126.84415115,광주광역시 광산구 쌍암동 664-1
634,13428294,우리할매떡볶이 광주첨단점,35.21133279,126.83390232,광주광역시 광산구 월계동 779-2 1층(월계동)
635,13438349,피자알볼로 첨단1지구점,35.21812324961763,126.84851697107749,"광주광역시 광산구 쌍암동 683-2 상가동 101호(쌍암동,광주첨단 LH2단지)"
636,13216053,오리엔탈게이트 첨단점,35.21133279,126.83390232,광주광역시 광산구 월계동 779-2 1층(월계동)
637,13739620,김수미의 엄마손맛 첨단점,35.21666567,126.84234588,광주광역시 광산구 첨단중앙로 126 1층 101호 (월계동)
638,10472085,배터지는생동까스 첨단점,35.2128791,126.8393209,광주광역시 광산구 월계동 820-16
639,13699645,요녀석 파스타 &필라프 첨단점,35.211345811564115,126.8456829964255,"광주광역시 광산구 첨단중앙로68번길 60 상가1동1층112호(산월동,첨단3-1차호반리젠시빌)"
640,13354522,티바두마리치킨 첨단점,35.21172174,126.84001288,광주광역시 광산구 월계동 832-3 1층(월계동)
641,13482687,전원왕족발&보쌈 양산점,35.21672177,126.87498188,광주광역시 북구 용두동 1089 용두2주공아파트 상가동 1층 103호
642,10780201,BHC 광주비아점,35.22055378,126.822292,광주광역시 광산구 비아로24번길 10-3 1층(비아동)
643,13408584,파스타17 첨단본점,35.215350690072846,126.84639211547105,광주광역시 광산구 월계동 885-1 월계동주차빌딩 1층 122(일부)호(월계동)
644,13903980,열평집밥 김치찌개 첨단롯데마트점,35.2152493,126.85042853,"광주광역시 광산구 월계로 223-20 1층층 103호(쌍암동,첨단도휘에드가 2차)"
645,13165966,냉면덕후 첨단점,35.21522152,126.85042853,광주광역시 광산구 월계로 223-20 1층 117호
646,10681855,바르다김선생 광주첨단지구점,35.21608241,126.84273475,"광주광역시 광산구 월계동 875-11 가동 101,102호 (월계동, 신영빌딩)"
647,13148811,첨단애진곰탕,35.21980425,126.84542886,광주광역시 광산구 쌍암동 666-7 1층
648,13009897,자매떡볶이 첨단점,35.21302718,126.84198489,광주광역시 광산구 월계동 827-1
649,13680746,수제돈가스 청연 첨단점,35.21230488,126.83218022,"광주광역시 광산구 월계동 763-6  (월계동,첨단 호반2차@ 상가동 112호(1층))"
650,10594397,토픽쌀피자 첨단점,35.21671937422007,126.83815279941513,광주광역시 광산구 월계로 117-32 상가1층 토픽쌀피자
651,13919179,신세계 양꼬치,35.2130827,126.84026282,"광주광역시 광산구 첨단내촌로70번길 72-2 (월계동,(1층))"
652,13865338,바로파스타 첨단점,35.21947091,126.84281799,광주광역시 광산구 첨단중앙로152번길 5-6 1층(쌍암동)
653,13861697,그집 곱도리탕 첨단점,35.21119406,126.84220714,광주광역시 광산구 첨단중앙로67번길 7-4 1층(월계동)
654,13514402,치킨플러스 광주첨단월계점,35.2106385,126.83826306,광주광역시 광산구 월계동 836-4 1층(월계동)
655,13019030,왕십리야채곱창,35.2101663,126.83615215,광주광역시 광산구 월계동 807-7 1층(월계동)
656,10675630,상무초밥 첨단직영점,35.21513811,126.8450679,광주광역시 광산구 첨단중앙로106번길 37 가동 1층(월계동)
657,13165967,뼈대있는국밥 첨단점,35.21522152,126.85042853,광주광역시 광산구 월계로 223-20 1층 117호
658,13009897,자매떡볶이 첨단점,35.21302718,126.84198489,광주광역시 광산구 월계동 827-1
659,13004583,나주할매 곰탕&뼈해장국 첨단점,35.21516597,126.85006746,광주광역시 광산구 월계로 223-20 1층 117호
660,13004581,1인한식당 첨단점,35.21516597,126.85006746,광주광역시 광산구 월계로 223-20 1층 117호
661,13290004,비스트로피자 광주첨단점,35.21680455,126.84279028,광주광역시 광산구 월계동 874-1 1층(월계동)
662,13080286,청년연어 첨단점,35.21461045,126.84848428,광주광역시 광산구 월계동 893-3 1층 103호(월계동)
663,13775403,김경엽다슬기 양산점,35.21416651,126.87520414,"광주광역시 북구 하서로 439 (용두동,(1,2층))"
664,13719610,보배반점 첨단점,35.2160825,126.84828981,광주광역시 광산구 임방울대로826번길 30 1층115호(월계동)
665,13329109,마라하오 첨단점,35.21288827,126.83931846,광주광역시 광산구 월계동 820-16 1층
666,13732713,햄많이주는부대찌개 첨단점,35.21316597,126.83687423,광주광역시 광산구 첨단내촌로70번길 9 1층(월계동)
667,13732715,김치찌개참잘하는집 첨단점,35.21316597,126.83687423,광주광역시 광산구 첨단내촌로70번길 9 1층(월계동)
668,13313552,덕장진땡이 본점,35.2203875,126.84426228,광주광역시 광산구 쌍암동 666-1 A동 1층(쌍암동)
669,13086936,아필코 본점,35.21663792,126.8437902,광주광역시 광산구 월계동 874-7 더124빌딩 4층(월계동)
670,13074022,아필코 본점,35.21663792,126.8437902,광주광역시 광산구 월계동 874-7 더124빌딩 4층(월계동)
671,13710724,순살만공격 첨단점,35.2113266531664,126.84975535727183,"광주광역시 광산구 첨단중앙로68번길 134 상가2동 1층 110호(산월동,첨단3-3차 호반리젠시빌)"
672,13719790,화궁방마라탕 본점,35.21424932,126.84526235,광주광역시 광산구 임방울대로800번길 72 대성트위스밸리 1층 113호(월계동)
673,13693432,반찬투정 앤 김밥,35.21202782,126.8731766,광주광역시 북구 임방울대로 1059 1층(용두동)
674,13808283,피자나라치킨공주 첨단점,35.21208278,126.83812415,광주광역시 광산구 월계로118번길 30-5 1층(월계동)
675,10727522,후라이드참잘하는집 첨단점,35.21274938,126.83851298,광주광역시 광산구 월계동 818-15 1층 (월계동)
676,13039341,고기가득 고궁왕비빔밥,35.20769435,126.83556893,"광주광역시 광산구 월계동 796-13 (월계동,(1층))"
677,13823775,파운데이 쌍암점,35.22033195,126.84429006,광주광역시 광산구 첨단중앙로152번길 31-16 A동 1층(쌍암동)
678,13245764,신진통닭 광주첨단점,35.22088754,126.84990066,"광주광역시 광산구 쌍암동 687-5 (쌍암동,첨단대라수3차)"
679,13578190,아이러브피자 첨단점,35.20905536,126.83920746,광주광역시 광산구 월계동 843-4 1층(월계동)
680,13905493,싸다아구찜&탕 첨단점,35.21536038,126.84970637,광주광역시 광산구 첨단강변로99번길 51 1층101호(쌍암동)
681,13670715,카페달링 첨단양산직영점,35.20652823,126.86026121,광주광역시 북구 신용동 693 J-TOWER 1층 106호 (신용동)
682,13358151,바다세상,35.21880434,126.84379014,광주광역시 광산구 쌍암동 658-5 1층(쌍암동)
683,13450219,금커피별빙수 & 과일 첨단점,35.21383275,126.84781769,광주광역시 광산구 월계동 893-9 1층 116호(월계동)
684,13678717,샐러드밥(첨단신용점),35.20652823,126.86065007,광주광역시 북구 신용동 694 토담빌딩 1층 106-2호(신용동)
685,13315849,청담피자 광주1호첨단점,35.21860993,126.84470673,광주광역시 광산구 쌍암동 668-11 1동1층101호
686,13808283,피자나라치킨공주 첨단점,35.21208278,126.83812415,광주광역시 광산구 월계로118번길 30-5 1층(월계동)
687,13099717,마피아떡볶이 광주첨단점,35.20730591,126.86012232,광주광역시 북구 신용동 696 1층 106호(신용동)
688,13245764,신진통닭 광주첨단점,35.22088754,126.84990066,"광주광역시 광산구 쌍암동 687-5 (쌍암동,첨단대라수3차)"
689,13315851,청담카츠 첨단점,35.21860993,126.84470673,광주광역시 광산구 쌍암동 668-11 1동1층101호
690,13712379,홍콩다방 광주첨단점,35.21513821,126.85115069,"광주광역시 광산구 첨단강변로99번길 21 1층102호(쌍암동,윤진리안채)"
691,13435699,족발창고 첨단점,35.21291455194878,126.8388974140791,광주광역시 광산구 월계동 819-16 1층(월계동)
692,10865667,온종일너롱,35.21427707,126.84337363,"광주광역시 광산구 월계동 889-7 1층 일부105호 (월계동, 컨벤션빌딩)"
693,13282763,쌈닭,35.21594358,126.84548451,광주광역시 광산구 월계동 877-8 (월계동)
694,13269871,마루요시 첨단점,35.21605469,126.84626221,광주광역시 광산구 월계동 878-8 1층(월계동)
695,13323570,요달의찜닭 광주쌍암점,35.22022083,126.84306795,광주광역시 광산구 쌍암동 662-5 1층(쌍암동)
696,13177275,막창도둑 첨단점,35.21599913,126.84548451,광주광역시 광산구 월계동 877-8 1층(월계동)
697,13850573,패스트롤 첨단점,35.22249846,126.84951177,광주광역시 북구 첨단과기로208번길 43-10 마루힐아이비씨지식산업센터1층103-a호(오룡동)
698,13572764,천사곱창첨단점,35.21605469,126.84626221,광주광역시 광산구 월계동 878-8 1층 (월계동)
699,13818466,청년김치찌개&김치찜 신가수완점,35.18930754,126.83593046,"광주광역시 광산구 신창로35번길 20 상가동1층109호(신가동,신창6차부영사랑으로)"
700,13177275,막창도둑 첨단점,35.21599913,126.84548451,광주광역시 광산구 월계동 877-8 1층(월계동)
701,12032652,동락,35.2167491,126.84901195,광주광역시 광산구 쌍암동 694-26 1층 (쌍암동)
702,13789618,여기카페 첨단점,35.21091617,126.8334857,광주광역시 광산구 월계로34번길 21-16 1층 (월계동)
703,13371073,혼마구로 참치,35.222323168120404,126.84965660928681,광주광역시 북구 첨단과기로208번길 43-10 1층 136호(오룡동)
704,13167933,비비큐치킨앤비어 첨단점,35.21430499,126.8520673,"광주광역시 광산구 쌍암동 694-142 2층 206,207호(쌍암동,야스텍타워)"
705,13315849,청담피자 광주1호첨단점,35.21860993,126.84470673,광주광역시 광산구 쌍암동 668-11 1동1층101호
706,13895897,직화삼겹직구삼 첨단점,35.21633248,126.84898419,광주광역시 광산구 임방울대로826번길 25 1층 112호(쌍암동)
707,13865337,바로덮밥 첨단점,35.21947091,126.84281799,광주광역시 광산구 첨단중앙로152번길 5-6 1층(쌍암동)
708,13678312,더리터 첨단점,35.21536039,126.85020633,광주광역시 광산구 쌍암동 694-56 1층 102호(쌍암동)
709,13348259,국내산 1번고기,35.21694354,126.84976188,광주광역시 광산구 쌍암동 694-140 1층(쌍암동)
710,13640544,PIZZA FULL 첨단본점,35.22094309,126.84990066,"광주광역시 광산구 쌍암동 687-5 상가1동1층107호(쌍암동,첨단대라수3차)"
711,13448681,BBQ 첨단산월점,35.208565092976386,126.84433638967937,"광주광역시 광산구 산월동 886-1 상가동1층106호(산월동,부영사랑으로)"
712,13646427,오로지아구찜 2호점,35.2095558,126.86828821,광주광역시 북구 신용동 602-10 1층(신용동)
713,13557228,보울레시피 BOWL RECIPE 첨단점,35.22241514,126.84948399,광주광역시 북구 오룡동 1110-22 1층 106-a호(오룡동)
714,13309268,첨단 한우돌곱창,35.21991531,126.8427902,광주광역시 광산구 쌍암동 662-4
715,13004579,원 플러스 원 찌개&볶음 첨단점,35.21516597,126.85006746,광주광역시 광산구 월계로 223-20 1층 117호
716,13559766,피굽남피자 광주8호첨단점,35.22169131447119,126.8516352416907,광주광역시 광산구 쌍암동 688-2 첨단대라수어썸시티 상가동 1층 126호(쌍암동)
717,13075173,멕시카나치킨 첨단남부대점,35.20980524,126.83706874,광주광역시 광산구 월계동 804-3 1층
718,13865337,바로덮밥 첨단점,35.21947091,126.84281799,광주광역시 광산구 첨단중앙로152번길 5-6 1층(쌍암동)
719,13277028,패대기 첨단점,35.21583249,126.84620667,"광주광역시 광산구 월계동 878-7 (월계동,(1층))"
720,13447442,불장난 파스타 첨단점,35.20836144,126.86512185,광주광역시 북구 첨단연신로108번길 39-18 1층(신용동)
721,10554957,BBQ 첨단1호점,35.220162321411415,126.83168088729555,"광주광역시 광산구 첨단중앙로181번길 88-16 (월계동,라인5차@상가 101호)"
722,13640544,PIZZA FULL 첨단본점,35.22094309,126.84990066,"광주광역시 광산구 쌍암동 687-5 상가1동1층107호(쌍암동,첨단대라수3차)"
723,10853709,원조할매닭발,35.21000041,126.88139815,광주광역시 북구 양산동 909
724,13187589,생닭잡는 남부통닭 본점,35.22022054,126.82565282,광주광역시 광산구 비아동 65-12 1층(비아동)
725,13075286,이백장돈가스 첨단점,35.21250605320084,126.83457664389313,"광주광역시 광산구 월계로 77 상가동1층103호(월계동,첨단모아미래도 아파트)"
726,13180622,카레나이스,35.21172174,126.83973512,광주광역시 광산구 월계동 832-1 1층 가운데(월계동)
727,13692940,성심카츠,35.20991637,126.83862416,광주광역시 광산구 첨단내촌로36번길 26 1층(월계동)
728,13788151,초밥대통령 광주양산점,35.21288887,126.87520418,광주광역시 북구 하서로 428 상록수타워 1층 104호(용두동)
729,13296456,알통 떡강정(LC타워점),35.2138049,126.84348474,"광주광역시 광산구 월계동 889-2 1층 101-2호 (월계통, 엘,씨타워)"
730,13253186,카페인중독 광주첨단점,35.22247069,126.84951177,광주광역시 북구 오룡동 1110-22 1층 111-a호(오룡동)
731,13806694,첨단회수산,35.21563806,126.84570672,"광주광역시 광산구 임방울대로800번길 42 (월계동,외1필지(1층))"
732,13692536,배떡 첨단1지구점,35.22163735,126.84351232,광주광역시 광산구 첨단중앙로182번길 20 1층(쌍암동)
733,13427869,입큰아구찜&알곤이찜,35.22241514,126.84948399,광주광역시 북구 오룡동 1110-22 1층 115호(오룡동)
734,13680472,하노이어이,35.21319375,126.83687423,광주광역시 광산구 월계동 771-13 (월계동)
735,13865379,꾸꾸삼겹 첨단점,35.20897209,126.84226275,광주광역시 광산구 산월로 45 1층 (월계동)
736,13208843,금오회수산,35.22213784,126.8759261,광주광역시 북구 용두동 1045-1 107호
737,13317585,청년감자탕 광주점,35.21288887,126.87520418,"광주광역시 북구 하서로 428 201호,202호,203호"
738,13895907,최고남제육명가 첨단점,35.21633248,126.84898419,광주광역시 광산구 임방울대로826번길 25 1층 112호(쌍암동)
739,13319314,투썸플레이스 광주첨단쌍암점,35.21633248,126.84898419,"광주광역시 광산구 쌍암동 694-27 1층 105,106,107호 (쌍암동)"
740,13841747,김가네(첨단병원점),35.22030419,126.84476224,광주광역시 광산구 첨단중앙로170번길 54 1층 (쌍암동)
741,13895181,제육민국,35.21883207,126.84112371,"광주광역시 광산구 첨단중앙로 153 상가동 1층 102호(월계동, 첨단단지대주APT)"
742,13767835,명인반찬,35.18761312,126.82623692,"광주광역시 광산구 수완로11번안길 42 지하1,1층(수완동)"
743,13744847,사우나떡볶이로제&국물 첨단중앙점,35.22116533,126.85251153,광주광역시 광산구 앰코로 35 폭스존 1층 112호(쌍암동)
744,13719610,보배반점 첨단점,35.2160825,126.84828981,광주광역시 광산구 임방울대로826번길 30 1층115호(월계동)
745,13882678,24시할매국밥,35.21158338,126.87017688,광주광역시 북구 임방울대로1042번길 14-10 제1층 제102호(용두동)
746,13329185,yolo마왕 광주첨단점,35.21605473,126.84828981,광주광역시 광산구 월계동 881-1 1층 110호(월계동)
747,13038695,토호지 11번가,35.21605473,126.84828981,광주광역시 광산구 월계동 881-1 1층101호
748,13302814,마왕족발 광주첨단점,35.21605473,126.84828981,광주광역시 광산구 월계동 881-1 1층 110호(월계동)
749,10727522,후라이드참잘하는집 첨단점,35.21274938,126.83851298,광주광역시 광산구 월계동 818-15 1층 (월계동)
750,13596289,백종원의 롤링파스타첨단점,35.21516585,126.8432625,"광주광역시 광산구 월계동 888-10 , 2층 206호(월계동)"
751,13317585,청년감자탕 광주점,35.21288887,126.87520418,"광주광역시 북구 하서로 428 201호,202호,203호"
752,13479706,오빠통닭 첨단점,35.20730592,126.86045562,광주광역시 북구 신용동 697 1층 101호 (신용동)
753,13884421,시나본 광주첨단점,35.22244295,126.85173379,광주광역시 북구 첨단과기로208번길 43-22 1층 R-128호(오룡동)
754,13703581,떡딱 첨단점,35.2188319,126.83126347,"광주광역시 광산구 첨단중앙로181번길 92 (월계동,성원@상가 105호)"
755,13534920,가마솥토종순대국,35.2202487,126.84848413,광주광역시 광산구 쌍암동 679-3 1층(쌍암동)
756,13779322,두마리찜닭 두찜 첨단1지구점,35.21877657,126.84381792,광주광역시 광산구 첨단중앙로152번길 30 1층(쌍암동)
757,13786867,용용선생 광주첨단점,35.21544368,126.84834538,"광주광역시 광산구 임방울대로826번길 42 더첨단 시너지타워2 1~2층 110,111호(월계동)"
758,13789615,이림마라탕,35.21091617,126.8334857,광주광역시 광산구 월계로34번길 21-16 1층 (월계동)
759,13842102,경성찹쌀꽈배기,35.21513808,126.84320695,광주광역시 광산구 첨단중앙로 110 1층 105호(월계동)
760,13430042,응급실국물떡볶이 첨단중앙점,35.21666567,126.84240143,광주광역시 광산구 월계동 867-6 1층105호(월계동)
761,13505972,효자반점,35.21980426,126.84573439,광주광역시 광산구 쌍암동 666-6 1층(쌍암동)
762,13645540,열정국밥,35.21091615,126.83231913,광주광역시 광산구 월계동 781-2 1층
763,13853586,킹스대게,35.2160825,126.84831759,광주광역시 광산구 임방울대로826번길 30 121호(월계동)
764,13221264,여수3대천왕 뚝배기강정 첨단점,35.21513813,126.84637334,광주광역시 광산구 월계동 885-1 월계동주차빌딩 1층 122(일부)호 (월계동)
765,10860822,꾸브라꼬숯불두마리치킨 첨단점,35.21438822,126.84673444,광주 광산구 월계동 892-15 1층
766,13714036,아메리칸피자 첨단양산점,35.22116533,126.85251153,광주광역시 광산구 앰코로 35 폭스존 1층 105호(쌍암동)
767,13750048,죽이요 첨단점,35.21133279,126.83387454,광주광역시 광산구 월계로34번길 37-19 1층(월계동)
768,13574149,난타5000첨단남부대점,35.20741674,126.84406818,"광주광역시 광산구 산월동 886-1 상가동 1층 113호(산월동,부영사랑으로아파트)"
769,10727522,후라이드참잘하는집 첨단점,35.21274938,126.83851298,광주광역시 광산구 월계동 818-15 1층 (월계동)
770,13381774,차돌풍 첨단점,35.21530477,126.84570673,광주광역시 광산구 월계동 887-5 1층(월계동)
771,13448681,BBQ 첨단산월점,35.208565092976386,126.84433638967937,"광주광역시 광산구 산월동 886-1 상가동1층106호(산월동,부영사랑으로)"
772,13463420,김민근의 물회세상,35.21880434,126.84379014,광주광역시 광산구 쌍암동 658-5 1층(쌍암동)
773,13408759,덮덮밥 첨단점,35.21377716,126.84573454,"광주광역시 광산구 월계동 891-7 월계동,(1층)"
774,13214527,엄마의주종목 김치찌개&제육볶음 첨단점,35.21513813,126.84637334,광주광역시 광산구 월계동 885-1 월계동주차빌딩 1층 122(일부)호 (월계동)
775,13817383,덕수파스타 광주첨단점,35.21133279,126.83387454,광주광역시 광산구 월계로34번길 37-19 1층(월계동)
776,10675630,상무초밥 첨단직영점,35.21513811,126.8450679,광주광역시 광산구 첨단중앙로106번길 37 가동 1층(월계동)
777,13244779,첨단돌솥감자탕(월계점),35.21513811,126.8450679,광주광역시 광산구 첨단중앙로106번길 37 1층(월계동)
778,10668510,굽네치킨 광주첨단점,35.212938989738205,126.83596462097549,광주광역시 광산구 월계동 772-6 1층
779,13398432,8000냥 마라반점 첨단점,35.21513813,126.84637334,광주광역시 광산구 월계동 885-1 월계동주차빌딩 1층 122(일부)호 (월계동)
780,13122271,흐엉 쌀국수,35.21997085,126.84231802,"광주광역시 광산구 쌍암동 655-3 1층 110,111호(쌍암동)"
781,13665256,벌크커피 첨단점,35.21888745,126.83120792,"광주광역시 광산구 월계동 755-4 상가동 102호(월계동, 성원아파트)"
782,10763885,아주커치킨 첨단3점,35.212281820152086,126.8339971052254,광주광역시 광산구 월계동 763-5 상가동 105호
783,13273356,빽다방 광주첨단로데오점,35.21499921,126.84365136,광주광역시 광산구 월계동 888-14 1층 104호(월계동)
784,10017452,또래오래 광주첨단비아점,35.22109770010371,126.83641816619988,"광주광역시 광산구 월계동 757-8 103호(월계동, 일신@상가 103호)"
785,13703560,웰덤치킨&버거 첨단점,35.2188319,126.83126347,"광주광역시 광산구 첨단중앙로181번길 92 (월계동,성원@상가 105호)"
786,13454849,신포우리만두 첨단점,35.22292943009585,126.85699992423802,광주광역시 광산구 쌍암동 694-35 키넥스9시네마 1층 131호 (쌍암동)
787,10859823,고봉민김밥인광주첨단월계점,35.21497144,126.84367914,"광주광역시 광산구 첨단중앙로106번길 11 1층 101호(월계동, 다움빌딩)"
788,13214522,육개장참잘하는집 첨단점,35.21513813,126.84637334,광주광역시 광산구 월계동 885-1 월계동주차빌딩 1층 122(일부)호 (월계동)
789,13466795,샐러브,35.20897209,126.84226275,광주광역시 광산구 월계동 899-8 1층(월계동)
790,13696618,신묘한 닭도리탕&곱도리탕 신창점,35.19714007,126.84045765,"광주광역시 광산구 신창로138번길 15-16 (신창동,(1층))"
791,13747599,엘리펀트피자 광주첨단점,35.21088845,126.83704094,광주광역시 광산구 첨단내촌로 45-4 1층(월계동)
792,13316269,임창정의 모서리족발 첨단점,35.21985977,126.84373456,광주광역시 광산구 쌍암동 661-6 1층(쌍암동)
793,13315849,청담피자 광주1호첨단점,35.21860993,126.84470673,광주광역시 광산구 쌍암동 668-11 1동1층101호
794,13895181,제육민국,35.21883207,126.84112371,"광주광역시 광산구 첨단중앙로 153 상가동 1층 102호(월계동, 첨단단지대주APT)"
795,13858155,타코야끼킹,35.21910597729612,126.84149653222424,"광주광역시 광산구 첨단중앙로 153 상가동 1층 102호(월계동, 첨단단지대주APT)"
796,12042447,써브웨이 광주첨단점,35.21491588,126.84342916,광주광역시 광산구 월계동 888-10 1층 101-1호(월계동)
797,12026821,극한순두부찌개첨단점,35.20936088,126.8390408,광주광역시 광산구 월계동 845-6 1층
798,13823775,파운데이 쌍암점,35.22033195,126.84429006,광주광역시 광산구 첨단중앙로152번길 31-16 A동 1층(쌍암동)
799,13428555,유담떡갈비&도시락,35.18947419,126.83595824,"광주광역시 광산구 신가동 1034 상가동1층109호(신가동,신창6차부영사랑으로)"
800,13772797,심슨양곱창,35.21424934,126.84642891,"광주광역시 광산구 임방울대로800번길 71 아크레타 첨단1층 112,113호(월계동)"
801,13612987,꼬소미꼬마김밥,35.22065878675182,126.8340433200044,"광주광역시 광산구 월계동 756-6 상가동2층201호(월계동,첨단라인5차아파트)"
802,13563476,3대천왕마라탕&수제꿔바로우 첨단점,35.21513813,126.84637334,광주광역시 광산구 월계동 885-1 월계동주차빌딩 1층 122(일부)호 (월계동)
803,13555582,달쥬 과일전문점,35.21513813,126.84637334,광주광역시 광산구 월계동 885-1 월계동주차빌딩 1층 127호(월계동)
804,13051481,돼지아빠,35.20769435,126.83556893,"광주광역시 광산구 월계동 796-13 (월계동,(1층))"
805,13120983,롱쓰부대찌개 광주첨단점,35.21269383,126.83829078,광주광역시 광산구 월계로118번길 20 1층(월계동)
806,13241648,돈마니 감자탕&등갈비,35.22044313,126.84903964,광주광역시 광산구 쌍암동 686-1 (쌍암동)
807,13900604,평상시,35.21511036,126.84637334,"광주광역시 광산구 첨단중앙로106번길 65-3 (월계동,117,118호(1층))"
808,13822679,조선황소알곱창,35.21511036,126.84637334,광주광역시 광산구 첨단중앙로106번길 65-3 월계동주차빌딩 1층 122(일부)호 (월계동)
809,13881418,진심커피 광주테크노파크점,35.23080331,126.86323256,광주광역시 북구 첨단벤처로108번길 39 1층 (월출동)
810,13127508,백종원의 새마을식당 광주첨단점,35.21985977,126.84373456,광주광역시 광산구 쌍암동 661-6 1층 (쌍암동)
811,12032652,동락,35.2167491,126.84901195,광주광역시 광산구 쌍암동 694-26 1층 (쌍암동)
812,13345438,미친곱떡 첨단점,35.21533261,126.8496786,광주광역시 광산구 쌍암동 694-114 1동 1층 104호(쌍암동)
813,13823775,파운데이 쌍암점,35.22033195,126.84429006,광주광역시 광산구 첨단중앙로152번길 31-16 A동 1층(쌍암동)
814,13032976,수상한 김쉐프,35.21597143,126.84976191,광주광역시 광산구 쌍암동 667-9 1층(쌍암동)
815,13302814,마왕족발 광주첨단점,35.21605473,126.84828981,광주광역시 광산구 월계동 881-1 1층 110호(월계동)
816,13822679,조선황소알곱창,35.21511036,126.84637334,광주광역시 광산구 첨단중앙로106번길 65-3 월계동주차빌딩 1층 122(일부)호 (월계동)
817,13874993,웅파이 첨단점,35.21327716,126.84231819,광주광역시 광산구 월계로 154 1층(월계동)
818,13086171,일계양득 첨단점,35.20897207,126.84126283,광주광역시 광산구 월계동 851-16 1층(월계동)
819,13850548,봉명동내커피 광주첨단점,35.21286043,126.83581877,광주광역시 광산구 월계로 92 1층(월계동)
820,13286931,나능이 능이버섯백숙 첨단점,35.21663791,126.84337357,광주광역시 광산구 월계동 874-9 1층
821,10668316,몽땅족발,35.21327713,126.84042947,광주광역시 광산구 월계동 768-8 1층 (월계동)
822,13699645,요녀석 파스타 &필라프 첨단점,35.211345811564115,126.8456829964255,"광주광역시 광산구 첨단중앙로68번길 60 상가1동1층112호(산월동,첨단3-1차호반리젠시빌)"
823,10594565,CBC김밥나라 첨단2지구점,35.20872247,126.86314979,"광주광역시 북구 신용동 684 신용동, 220동 106호"
824,13191656,도야족발보쌈 첨단점,35.21513813,126.84637334,광주광역시 광산구 월계동 885-1 1층 122호일부(110호)
825,13046300,돼지면 찌개리,35.20903698005198,126.83969650825367,"광주광역시 광산구 월계동 849-7 (월계동,(1층))"
826,13770770,삼삼숯불갈비,35.20897209,126.84223497,광주광역시 광산구 산월로 45 (월계동)
827,13524050,한식주점 훈민정음 첨단점,35.21458264,126.8462067,광주광역시 광산구 월계동 892-1 1층(월계동)
828,13361341,사랑각 첨단점,35.21458263,126.84573452,"광주광역시 광산구 월계동 891-4 (월계동,(1층))"
829,13808283,피자나라치킨공주 첨단점,35.21208278,126.83812415,광주광역시 광산구 월계로118번길 30-5 1층(월계동)
830,10916587,설빙 광주첨단점,35.2146145,126.8433419,"광주광역시 광산구 첨단중앙로 104 2층 204호(월계동, 에이스타워)"
831,10674367,버거킹 광주월계점,35.2146145,126.8433419,"광주광역시 광산구 월계동 889-1 1~1층 102,201-2호 (월계동, 에이스빌빌딩)"
832,13507926,샐러바웃 첨단점,35.2166379,126.84279028,광주광역시 광산구 월계동 874-12 1층(월계동)
833,13248830,청년쭈꾸미 본점,35.1853356,126.82607033,광주광역시 광산구 신가동 1078 1층(신가동)
834,13873251,읍천리382 첨단점,35.20894190571505,126.83924358436593,광주광역시 광산구 산월로 17 1층 (월계동)
835,13812306,1kg 탕수육,35.21272162,126.83967955,광주광역시 광산구 월계로130번길 19 1층
836,13690548,월드컵밥,35.20994411,126.83687431,광주광역시 광산구 월계동 804-1 1층(월계동)
837,13507926,샐러바웃 첨단점,35.2166379,126.84279028,광주광역시 광산구 월계동 874-12 1층(월계동)
838,10767277,매운맛 땡길 때 밥장인 첨단점,35.2159578,126.8503396,광주광역시 광산구 쌍암동 694-42
839,13895181,제육민국,35.21883207,126.84112371,"광주광역시 광산구 첨단중앙로 153 상가동 1층 102호(월계동, 첨단단지대주APT)"
840,12026821,극한순두부찌개첨단점,35.20936088,126.8390408,광주광역시 광산구 월계동 845-6 1층
841,10756476,예향정 첨단점,35.220193952095876,126.84387482831032,광주광역시 광산구 쌍암동 661-4 1층 예향정
842,13094697,수유리우동집 첨단점,35.2145826,126.84434575,광주광역시 광산구 월계동 890-6 1층 106호
843,12037481,첨단공원국밥,35.22133184,126.84401228,광주광역시 광산구 쌍암동 664-2
844,13813046,아리랑백반,35.21272162,126.83967955,광주광역시 광산구 월계로130번길 19 1층(월계동)
845,13046300,돼지면 찌개리,35.20903698005198,126.83969650825367,"광주광역시 광산구 월계동 849-7 (월계동,(1층))"
846,13214522,육개장참잘하는집 첨단점,35.21513813,126.84637334,광주광역시 광산구 월계동 885-1 월계동주차빌딩 1층 122(일부)호 (월계동)
847,13858191,무드 Mood,35.21463817,126.84542899,광주광역시 광산구 첨단중앙로106번길 42 1층(월계동)
848,13526288,떡참 떡볶이참잘하는집 광주첨단점,35.212916,126.83681868,광주광역시 광산구 월계동 813-2 (월계동)
849,13670716,달링 볶음밥 첨단양산직영점,35.20652823,126.86026121,광주광역시 북구 신용동 693 J-TOWER 1층 106호 (신용동)
850,13040575,해마루회수산,35.22213784,126.8759261,광주광역시 북구 용두동 1045-1 1층(용두동)
851,13918442,압력솥 사골김치찜 1392 첨단점,35.21308272,126.84145716,광주광역시 광산구 첨단내촌로70번길 92 1층(월계동)
852,13291416,라라브레드 양산점,35.21847163,126.87875928,광주광역시 북구 하서로 498 1~2층(본촌동)
853,10905919,롯데리아 롯데마트첨단점,35.2165361,126.8519008,광주광역시 광산구 쌍암동 694-3
854,12032652,동락,35.2167491,126.84901195,광주광역시 광산구 쌍암동 694-26 1층 (쌍암동)
855,13108361,바른카페 더시너지점,35.2153326,126.84901199,광주광역시 광산구 쌍암동 694-5 1층 108호(쌍암동)
856,13290852,어반레시피 피제리아,35.2153326,126.84901199,"광주광역시 광산구 쌍암동 694-5 1층126호,127호"
857,13249672,아우어베이커리  광주첨단점,35.2153326,126.84901199,"광주광역시 광산구 쌍암동 694-5 1.2층103,104,203호"
858,13361341,사랑각 첨단점,35.21458263,126.84573452,"광주광역시 광산구 월계동 891-4 (월계동,(1층))"
859,13615368,제육대가 (첨단점),35.20672267,126.86123335,광주광역시 북구 신용동 709 (주)첨단금송 1층 104호(신용동)
860,13332043,1인 한독대 국물 김치찜,35.20897207,126.84126283,"광주광역시 광산구 월계동 851-16 (월계동,1층)"
861,13484218,바름카츠 첨단점,35.21536039,126.85020633,광주광역시 광산구 쌍암동 694-56 1층 104호(쌍암동)
862,13829680,도토리편백집 광주첨단점,35.21530483,126.84923419,"광주광역시 광산구 임방울대로826번길 47 1층 117호,118호,119호(쌍암동)"
863,13700360,월계닭갈비,35.21527705,126.84920642,"광주광역시 광산구 임방울대로826번길 47 1층120,121호(쌍암동)"
864,13895181,제육민국,35.21883207,126.84112371,"광주광역시 광산구 첨단중앙로 153 상가동 1층 102호(월계동, 첨단단지대주APT)"
865,13477317,백곰표 대왕냉면과 불고기 첨단점,35.21513813,126.84637334,광주광역시 광산구 월계동 885-1 월계동주차빌딩 1층 122(일부)호 (월계동)
866,13526913,테그42 광주첨단점,35.21624918,126.85037296,광주광역시 광산구 쌍암동 694-118 1층 101(일부)호(쌍암동)
867,13348264,꼬기부심,35.21694354,126.84976188,광주광역시 광산구 쌍암동 694-140 1층(쌍암동)
868,13813046,아리랑백반,35.21272162,126.83967955,광주광역시 광산구 월계로130번길 19 1층(월계동)
869,13780356,바코포차,35.219119,126.843682,광주광역시 광산구 첨단중앙로152번길 25 1층 바코포차
870,13851454,니조시장,35.21458264,126.84648445,광주광역시 광산구 첨단중앙로106번길 60 2층 (월계동)
871,13722364,낙곱새집 본점,35.1853356,126.82604255,광주광역시 광산구 수완로9번길 35 1층(신가동)
872,13348264,꼬기부심,35.21694354,126.84976188,광주광역시 광산구 쌍암동 694-140 1층(쌍암동)
873,13860417,식사준비 광주첨단쌍암점,35.21994307,126.84229025,광주광역시 광산구 첨단중앙로 164 미래빌딩 1층 103-2호(쌍암동)
874,12026816,땡초돼지김치찌개첨단점,35.20936088,126.8390408,광주광역시 광산구 월계동 845-6 1층
875,13113303,대가 참치,35.20652823,126.86065007,광주광역시 북구 신용동 694 101호
876,13685051,오리궁뎅이 첨단점,35.21352326694386,126.84511097009559,광주광역시 광산구 월계동 891-5 대성트위스밸리 1층 114호(월계동)
877,13782078,갓잡은 육회&연어 광산점,35.20949971,126.83654102,광주광역시 광산구 첨단내촌로35번길 7-12 1층(월계동)
878,10856673,자리봉국밥,35.18991818,126.81226588,광주광역시 광산구 장신로20번길 10 1층(장덕동)
879,13718844,죠스떡볶이 롯데마트광주첨단점,35.21644364,126.85217835,광주광역시 광산구 첨단강변로99번길 22 1층(쌍암동)
880,13908938,항아리 김치찜,35.20897208,126.84129061,광주광역시 광산구 산월로 35-1
881,13905493,싸다아구찜&탕 첨단점,35.21536038,126.84970637,광주광역시 광산구 첨단강변로99번길 51 1층101호(쌍암동)
882,10859268,두마리찜닭 두찜 첨단2지구점,35.206551,126.8594921,광주광역시 북구 신용동 691 (대성빌딩 1층 102호 (신용동))
883,13865337,바로덮밥 첨단점,35.21947091,126.84281799,광주광역시 광산구 첨단중앙로152번길 5-6 1층(쌍암동)
884,13361341,사랑각 첨단점,35.21458263,126.84573452,"광주광역시 광산구 월계동 891-4 (월계동,(1층))"
885,13462761,쫄리면 비비시던가 비빔밥,35.21387039967335,126.84221849519979,광주광역시 광산구 월계동 836-1 1층 (월계동)
886,13678312,더리터 첨단점,35.21536039,126.85020633,광주광역시 광산구 쌍암동 694-56 1층 102호(쌍암동)
887,13920698,킹스타피자 첨단점,35.2122496,126.84837323,"광주광역시 광산구 첨단중앙로68번길 99 상가동 1층 103호(산월동,호반리젠시빌)"
888,10808618,툴스돈카츠,35.20791705,126.86539961,광주 북구 신용동 835 1층
889,13744847,사우나떡볶이로제&국물 첨단중앙점,35.22116533,126.85251153,광주광역시 광산구 앰코로 35 폭스존 1층 112호(쌍암동)
890,13137828,미스터초밥 첨단점,35.2153326,126.84901199,"광주광역시 광산구 쌍암동 694-5 1층 128,129호(쌍암동)"
891,13572653,괴짜김치찌개,35.19869603,126.87526008,광주광역시 북구 양산신촌길 8-2 1층 (양산동)
892,13323570,요달의찜닭 광주쌍암점,35.22022083,126.84306795,광주광역시 광산구 쌍암동 662-5 1층(쌍암동)
893,12024995,마미쿡 수제버거&치킨,35.2211931,126.85237266,광주광역시 광산구 쌍암동 688-4 1층 134호(쌍암동)
894,13139235,짬뽕대마왕,35.21016629,126.83554109,광주광역시 광산구 월계동 808-6 1층(월계동)
895,13915125,슬로우캘리 광주첨단점,35.21538817,126.85020633,광주광역시 광산구 월계로 223-22 1층 105(일부)호(쌍암동)
896,13290004,비스트로피자 광주첨단점,35.21680455,126.84279028,광주광역시 광산구 월계동 874-1 1층(월계동)
897,13719790,화궁방마라탕 본점,35.21424932,126.84526235,광주광역시 광산구 임방울대로800번길 72 대성트위스밸리 1층 113호(월계동)
898,13248830,청년쭈꾸미 본점,35.1853356,126.82607033,광주광역시 광산구 신가동 1078 1층(신가동)
899,13526288,떡참 떡볶이참잘하는집 광주첨단점,35.212916,126.83681868,광주광역시 광산구 월계동 813-2 (월계동)
900,13329109,마라하오 첨단점,35.21288827,126.83931846,광주광역시 광산구 월계동 820-16 1층
901,13428493,동산리할매낙지,35.21536039,126.85020633,광주광역시 광산구 쌍암동 694-56 1층 101호 (쌍암동)
902,13246339,탄탄면공방 광주첨단점,35.21530483,126.84923419,"광주광역시 광산구 임방울대로826번길 47 1층130,131호(쌍암동)"
903,13059034,취미정,35.22160965,126.84820635,광주광역시 광산구 쌍암동 677-11
904,13873251,읍천리382 첨단점,35.20894190571505,126.83924358436593,광주광역시 광산구 산월로 17 1층 (월계동)
905,10626850,옛날짜장,35.2188947,126.8532111,광주광역시 북구 오룡동 1115-4
906,13040575,해마루회수산,35.22213784,126.8759261,광주광역시 북구 용두동 1045-1 1층(용두동)
907,13895468,오로라 요거트 아이스크림 광주점,35.2102775,126.84242936,광주광역시 광산구 첨단중앙로47번길 8-14 1층 (월계동)
908,13321540,아마스빈 광주첨단LC타워점,35.21402711,126.84406801,광주광역시 광산구 월계동 890-3 1층(월계동)
909,13899237,아구찜계 큰손,35.20694484,126.8601501,광주광역시 북구 첨단연신로107번길 45-17 건영빌딩1층101호(신용동)
910,13873251,읍천리382 첨단점,35.20894190571505,126.83924358436593,광주광역시 광산구 산월로 17 1층 (월계동)
911,10830602,김밥나라,35.2148882,126.84909533,"광주광역시 광산구 쌍암동 694-116 1층 101호(쌍암동, 에드가303)"
912,13895181,제육민국,35.21883207,126.84112371,"광주광역시 광산구 첨단중앙로 153 상가동 1층 102호(월계동, 첨단단지대주APT)"
913,13858155,타코야끼킹,35.21910597729612,126.84149653222424,"광주광역시 광산구 첨단중앙로 153 상가동 1층 102호(월계동, 첨단단지대주APT)"
914,13799031,김밥나라(쌍암점),35.217709989443215,126.84212070664387,"광주광역시 광산구 임방울대로826번길 55 1층 103호(쌍암동, 한양에드가 303동)"
915,13009897,자매떡볶이 첨단점,35.21302718,126.84198489,광주광역시 광산구 월계동 827-1
916,13191656,도야족발보쌈 첨단점,35.21513813,126.84637334,광주광역시 광산구 월계동 885-1 1층 122호일부(110호)
917,13692940,성심카츠,35.20991637,126.83862416,광주광역시 광산구 첨단내촌로36번길 26 1층(월계동)
918,13407106,위대한수산,35.19994513,126.82995851,광주광역시 광산구 수완동 1134 1층(수완동)
919,13453674,삼거리 시장국수&냉면 첨단점,35.21488826,126.85220616,광주광역시 광산구 쌍암동 694-91 1층 (쌍암동)
920,13408584,파스타17 첨단본점,35.215350690072846,126.84639211547105,광주광역시 광산구 월계동 885-1 월계동주차빌딩 1층 122(일부)호(월계동)
921,13430042,응급실국물떡볶이 첨단중앙점,35.21666567,126.84240143,광주광역시 광산구 월계동 867-6 1층105호(월계동)
922,13787142,1004 아구찜,35.21394391,126.85181733,광주광역시 광산구 월계로 235-8 미르채리버파크 2층 214-224호(쌍암동)
923,10704146,양자강,35.209059008402676,126.83519233622225,광주광역시 광산구 월계동 792-5
924,13004579,원 플러스 원 찌개&볶음 첨단점,35.21516597,126.85006746,광주광역시 광산구 월계로 223-20 1층 117호
925,13821540,맘스터치 첨단1호점,35.21383267,126.84348474,"광주광역시 광산구 첨단중앙로 96 1층 104호(월계동,엘씨타워)"
926,13702592,가희플레이트,35.22130418,126.85115054,광주광역시 광산구 첨단중앙로182번길 90 상가동 1층 105호(쌍암동)
927,13352639,혼밥대왕 첨단점,35.22013762,126.84970625,"광주광역시 광산구 임방울대로825번길 60-6 103동 101호(쌍암동,첨단중해마루힐)"
928,13574149,난타5000첨단남부대점,35.20741674,126.84406818,"광주광역시 광산구 산월동 886-1 상가동 1층 113호(산월동,부영사랑으로아파트)"
929,13774921,베지풀 스테이크 샐러드&부리또,35.221199023388955,126.8508394677052,광주광역시 광산구 첨단중앙로182번길 90 상가동 1층 110호(쌍암동)
930,13143390,유치짬뽕&칡냉면,35.2142771,126.84556788,광주광역시 광산구 월계동 891-5 1층 111호
931,13400969,고기궁전 첨단양산점,35.2095558,126.86828821,광주광역시 북구 신용동 602-10 1층107호
932,13299175,크라운호프 첨단2지구점,35.20694488,126.86242768,광주광역시 북구 신용동 724 1층(신용동)
933,13903980,열평집밥 김치찌개 첨단롯데마트점,35.2152493,126.85042853,"광주광역시 광산구 월계로 223-20 1층층 103호(쌍암동,첨단도휘에드가 2차)"
934,13825109,도야짬뽕 첨단2지구점,35.20691708,126.86070561,"광주광역시 북구 첨단연신로107번길 45-21 (신용동,101,102,103,104호)"
935,13165967,뼈대있는국밥 첨단점,35.21522152,126.85042853,광주광역시 광산구 월계로 223-20 1층 117호
936,13165966,냉면덕후 첨단점,35.21522152,126.85042853,광주광역시 광산구 월계로 223-20 1층 117호
937,13004583,나주할매 곰탕&뼈해장국 첨단점,35.21516597,126.85006746,광주광역시 광산구 월계로 223-20 1층 117호
938,13004581,1인한식당 첨단점,35.21516597,126.85006746,광주광역시 광산구 월계로 223-20 1층 117호
939,13290004,비스트로피자 광주첨단점,35.21680455,126.84279028,광주광역시 광산구 월계동 874-1 1층(월계동)
940,12018032,신야,35.21458267,126.84848428,광주광역시 광산구 임방울대로826번길 60-1 1층102호(월계동)
941,13807169,교반 육회비빔밥&냉면 첨단점,35.20897209,126.84223497,광주광역시 광산구 산월로 45 1층 (월계동)
942,13186549,수 샐러드,35.22241514,126.84948399,광주광역시 북구 오룡동 1110-22 1층 124호
943,13850548,봉명동내커피 광주첨단점,35.21286043,126.83581877,광주광역시 광산구 월계로 92 1층(월계동)
944,13310544,감성낙곱새 (북구광산점),35.19227943923591,126.83886497775578,광주광역시 광산구 신창동 1227-3 (신창동)
945,13670256,삶오로지다 족발보쌈 본점,35.21047252,126.87764847,광주광역시 북구 양산동 849 1층
946,13270402,아프리카 커피&초콜렛 광주점,35.21522152,126.85042853,"광주광역시 광산구 월계로 223-20 2층 201호 (쌍암동, 첨단도휘에드가2차)"
947,13848301,쌍암팥죽,35.21394389,126.85059522,"광주광역시 광산구 월계로 223-8 110동 108호(쌍암동, 중흥S클래스 리버시티 주상복합 아파트)"
948,10840116,하루엔소쿠 프리미엄돈까스 첨단점,35.21363826,126.84406802,광주광역시 광산구 월계로 169 신양메티칼센터104호
949,13238114,1등참치 광주 첨단점,35.20672267,126.86123335,광주광역시 북구 신용동 709 1층 103호 (신용동)
950,13517702,젠틀커리,35.20991637,126.83865193,광주광역시 광산구 월계동 844-2 1층(월계동)
951,13295862,봉구네카레 첨단점,35.20991637,126.83865193,광주광역시 광산구 월계동 844-2 1층(월계동)
952,13458742,대구 3대천왕 매운갈비찜,35.20991637,126.83865193,광주광역시 광산구 월계동 844-2 1층(월계동)
953,10819106,봉구스밥버거 첨단점,35.2138049,126.84348474,광주광역시 광산구 월계동 889-2
954,13294565,봉구네덮밥 첨단점,35.20991637,126.83865193,광주광역시 광산구 월계동 844-2 1층(월계동)
955,13037672,소문난김치찜&족발,35.21305488,126.83731864,광주광역시 광산구 월계동 814-3 (월계동)
956,13603480,신똑순아구찜,35.21166686,126.87950938,"광주광역시 북구 양산동 705 (양산동,(1층))"
957,13564878,벌크커피 첨단LC타워점,35.2138049,126.84348474,광주광역시 광산구 월계동 889-2 1층 124호(월계동)
958,13035727,옛날아우내순대&국밥,35.21086137,126.87778733,광주광역시 북구 양산동 733-3 1층
959,13460006,뚱삼촌 찹쌀꽈배기&닭꼬치,35.2138049,126.84348474,"광주광역시 광산구 월계동 889-2 124(일부)호(월계동,LC타워)"
960,13421351,국수나무첨단점,35.2138049,126.84348474,"광주광역시 광산구 월계동 889-2 1층 124호(월계동,LC타워)"
961,10810044,머글소고기해장국,35.21916543,126.84515112,광주광역시 광산구 쌍암동 667-10 1층(쌍암동)
962,10819106,봉구스밥버거 첨단점,35.2138049,126.84348474,광주광역시 광산구 월계동 889-2
963,10461125,최석규 족발보쌈 전문점 (본점),35.21127738,126.84198493,광주광역시 광산구 월계동 895-1 1층
964,13182657,배스킨라빈스 광주월계점,35.2138049,126.84348474,광주광역시 광산구 월계동 889-2 (110호)
965,13150909,이삭토스트 광주첨단점,35.21383267,126.84348474,"광주광역시 광산구 첨단중앙로 96 1층 129호 (월계동, LC타워)"
966,13295863,봉구네파스타 첨단점,35.20991637,126.83865193,광주광역시 광산구 월계동 844-2 1층(월계동)
967,13703026,전설의돼지찌개,35.19869603,126.87526008,광주광역시 북구 양산신촌길 8-2 1층 (양산동)
968,13073060,유달리 쌍암점,35.21430499,126.8520673,광주광역시 광산구 쌍암동 694-142 야스텍타워 1층 103호
969,13458742,대구 3대천왕 매운갈비찜,35.20991637,126.83865193,광주광역시 광산구 월계동 844-2 1층(월계동)
970,13137828,미스터초밥 첨단점,35.2153326,126.84901199,"광주광역시 광산구 쌍암동 694-5 1층 128,129호(쌍암동)"
971,13810306,인생 김치찌개,35.22133196,126.85115054,광주광역시 광산구 첨단중앙로182번길 90 상가동 1층 127호 (쌍암동)
972,13443111,마라미녀 마라탕 첨단점,35.2138049,126.84348474,광주광역시 광산구 첨단중앙로 96 1층 118호(월계동)
973,13453070,정담 김치찌개,35.21488826,126.85220616,광주광역시 광산구 쌍암동 694-91 1층 (쌍암동)
974,13355722,세종커피,35.2171934,126.84329023,광주광역시 광산구 월계동 867-3 1층(월계동)
975,13150222,족발이땡기는날 양산점,35.21139145164912,126.88065928643437,광주광역시 북구 양산동 721 1층
976,12035567,엄가네시골집뼈해장국,35.21976445092885,126.84648168850617,광주광역시 광산구 쌍암동 673-8 1층 (쌍암동)
977,13906182,스타크커피,35.22249846,126.84951177,"광주광역시 북구 첨단과기로208번길 43-10 , 마루힐 IBC지식산업센터 1층 103-b호 (오룡동)"
978,10758246,봉구스밥버거 첨단점,35.2138049,126.84348474,광주광역시 광산구 월계동 889-2
979,10006793,열라왕짬뽕,35.20827,126.8359696,광주광역시 광산구 월계동 796-7
980,13737125,김가네 계절포차,35.20691707,126.8601501,광주광역시 북구 첨단연신로107번길 45-17 건영빌딩1층101호(신용동)
981,13850548,봉명동내커피 광주첨단점,35.21286043,126.83581877,광주광역시 광산구 월계로 92 1층(월계동)
982,13473609,치교치밥&치킨 광주첨단점,35.21205507,126.84195714,광주광역시 광산구 월계로150번길 27 1층(월계동)
983,13443111,마라미녀 마라탕 첨단점,35.2138049,126.84348474,광주광역시 광산구 첨단중앙로 96 1층 118호(월계동)
984,13259879,돈오락쪽갈비 첨단2지구점,35.20730591,126.86012232,광주광역시 북구 신용동 696 1층 102호 (신용동)
985,13862763,돼지가 김치찜 했어 첨단점,35.20694484,126.85976125,광주광역시 북구 첨단연신로107번길 45-11 1층102호(신용동)
986,13421151,속초코다리회냉면&고기,35.21644358,126.84901196,"광주광역시 광산구 쌍암동 694-27 1층108,109,110호(쌍암동)"
987,13899238,양많이 탕탕탕,35.20694484,126.8601501,광주광역시 북구 첨단연신로107번길 45-17 건영빌딩1층101호(신용동)
988,13768341,모모야 첨단점,35.21527705,126.84920642,"광주광역시 광산구 임방울대로826번길 47 , 1층 115,116호(쌍암동)"
989,13447442,불장난 파스타 첨단점,35.20836144,126.86512185,광주광역시 북구 첨단연신로108번길 39-18 1층(신용동)
990,13325354,도야 1인보쌈,35.21513813,126.84637334,광주광역시 광산구 월계동 885-1 1층 122호일부(110호)
991,13428493,동산리할매낙지,35.21536039,126.85020633,광주광역시 광산구 쌍암동 694-56 1층 101호 (쌍암동)
992,13462761,쫄리면 비비시던가 비빔밥,35.21387039967335,126.84221849519979,광주광역시 광산구 월계동 836-1 1층 (월계동)
993,13813144,일로아구찜,35.21436048,126.84845651,광주광역시 광산구 임방울대로826번길 70 1층(월계동)
994,13813144,일로아구찜,35.21436048,126.84845651,광주광역시 광산구 임방울대로826번길 70 1층(월계동)
995,13484415,프랭크버거 광주첨단병원점,35.2203042,126.84540107,광주광역시 광산구 쌍암동 666-4 1층(쌍암동)
996,13918442,압력솥 사골김치찜 1392 첨단점,35.21308272,126.84145716,광주광역시 광산구 첨단내촌로70번길 92 1층(월계동)
997,13645538,냉면쟁이고기꾼첨단점,35.21091615,126.83231913,광주광역시 광산구 월계동 781-2 1층
998,13714036,아메리칸피자 첨단양산점,35.22116533,126.85251153,광주광역시 광산구 앰코로 35 폭스존 1층 105호(쌍암동)
999,13728026,참돈까스,35.214867449410704,126.85236137427385,"광주광역시 광산구 첨단강변로87번길 5 , 야스텍타워 112호(쌍암동)"
1000,13915590,혼밥대장 한식전문점 첨단점,35.21377716,126.84573454,광주광역시 광산구 임방울대로800번길 82 1층 (월계동)
1001,13915590,혼밥대장 한식전문점 첨단점,35.21377716,126.84573454,광주광역시 광산구 임방울대로800번길 82 1층 (월계동)
1002,13750845,새벽달 첨단점,35.21527705,126.84920642,"광주광역시 광산구 임방울대로826번길 47 더시너지첨단 1층 122,123호(쌍암동)"
1003,13829770,앙떡 로제떡볶이&돈까스 광주첨단점,35.21091623,126.83706871,광주광역시 광산구 첨단내촌로 45-4 1층(월계동)
1004,13882521,상무칡냉면1978 첨단점,35.21363827,126.84434578,"광주광역시 광산구 월계로 173 (월계동,2층203호)"
1005,13259879,돈오락쪽갈비 첨단2지구점,35.20730591,126.86012232,광주광역시 북구 신용동 696 1층 102호 (신용동)
1006,13310544,감성낙곱새 (북구광산점),35.19227943923591,126.83886497775578,광주광역시 광산구 신창동 1227-3 (신창동)
1007,13842928,꿈떡꿈떡 첨단점,35.21238851,126.85015085,"광주광역시 광산구 첨단중앙로68번길 131 상가동1층108호(산월동,부영아파트)"
1008,13712379,홍콩다방 광주첨단점,35.21513821,126.85115069,"광주광역시 광산구 첨단강변로99번길 21 1층102호(쌍암동,윤진리안채)"
1009,13453674,삼거리 시장국수&냉면 첨단점,35.21488826,126.85220616,광주광역시 광산구 쌍암동 694-91 1층 (쌍암동)
1010,13845956,포샵 첨단점,35.21288827,126.83931846,광주광역시 광산구 첨단내촌로70번길 50-5 1층
1011,13392826,채선당 첨단점,35.21869332,126.84851195,광주광역시 광산구 쌍암동 682-4 (1층)
1012,13743990,서해수산활어직판장 신용점,35.20730591,126.85978901,"광주광역시 북구 첨단연신로107번길 41 제2동1층105호,106호,107호,108호"
1013,13430042,응급실국물떡볶이 첨단중앙점,35.21666567,126.84240143,광주광역시 광산구 월계동 867-6 1층105호(월계동)
1014,13710711,정담김치찌개 첨단점,35.21488826,126.85234504,광주광역시 광산구 첨단강변로87번길 6 1층 108호
1015,13868410,어랏커피 첨단점,35.21641589,126.85387264,"광주광역시 광산구 첨단강변로 100 401동 1층 113호(쌍암동, 힐스테이트 리버파크)"
1016,10675630,상무초밥 첨단직영점,35.21513811,126.8450679,광주광역시 광산구 첨단중앙로106번길 37 가동 1층(월계동)
1017,13574149,난타5000첨단남부대점,35.20741674,126.84406818,"광주광역시 광산구 산월동 886-1 상가동 1층 113호(산월동,부영사랑으로아파트)"
1018,13853381,인생냉면 첨단점,35.22133196,126.85115054,광주광역시 광산구 첨단중앙로182번길 90 상가동 1층 127호 (쌍암동)
1019,13099717,마피아떡볶이 광주첨단점,35.20730591,126.86012232,광주광역시 북구 신용동 696 1층 106호(신용동)
1020,13124712,뚜레쥬르 광주월계점,35.2136383,126.84617895,광주광역시 광산구 월계동 892-6
1021,13744847,사우나떡볶이로제&국물 첨단중앙점,35.22116533,126.85251153,광주광역시 광산구 앰코로 35 폭스존 1층 112호(쌍암동)
1022,13484462,더리터 커피 첨단2지구점,35.20730597,126.86359423,광주광역시 북구 신용동 722 1층(신용동)
1023,13019035,발대발 신화불닭,35.2101663,126.83615215,광주광역시 광산구 월계동 807-7 1층(월계동)
1024,13038740,전라도이야기,35.21663797,126.84673438,광주광역시 광산구 월계동 872-5 1층
1025,13037672,소문난김치찜&족발,35.21305488,126.83731864,광주광역시 광산구 월계동 814-3 (월계동)
1026,13640544,PIZZA FULL 첨단본점,35.22094309,126.84990066,"광주광역시 광산구 쌍암동 687-5 상가1동1층107호(쌍암동,첨단대라수3차)"
1027,13873251,읍천리382 첨단점,35.20894190571505,126.83924358436593,광주광역시 광산구 산월로 17 1층 (월계동)
1028,10035620,원할머니보쌈족발 광주첨단점,35.22152643200226,126.84409080031607,광주광역시 광산구 쌍암동 664-1 (쌍암동 664-1)
1029,10859268,두마리찜닭 두찜 첨단2지구점,35.206551,126.8594921,광주광역시 북구 신용동 691 (대성빌딩 1층 102호 (신용동))
1030,10540314,이가네석쇠불고기&냉면,35.20975738873187,126.83742509094093,광주광역시 광산구 월계동 839-12
1031,13352610,김가네 첨단점,35.21361053,126.84642893,"광주광역시 광산구 월계동 892-5 2호(월계동,(1층))"
1032,13830326,채선당 도시락&샐러드 광주첨단점,35.21361053,126.84642893,광주광역시 광산구 월계로 191 1층(월계동)
1033,10825214,명랑핫도그 광주첨단2호점,35.2137498,126.8470593,광주광역시 광산구 월계동 892-17
1034,13103501,현대옥 첨단점,35.21908213,126.84656767,광주광역시 광산구 쌍암동 673-10 1층(쌍암동)
1035,13029694,레스토랑 스테이크펍,35.18053043,126.81693237,광주광역시 광산구 신가동 1288
1036,13177275,막창도둑 첨단점,35.21599913,126.84548451,광주광역시 광산구 월계동 877-8 1층(월계동)
1037,13801603,볼빨간아구찜 첨단점,35.21133287,126.83826304,광주광역시 광산구 첨단중앙로67번길 79 1층 (월계동)
1038,13335267,홍대마약떡볶이 첨단양산점,35.2101663,126.83615215,광주광역시 광산구 월계동 807-7 1층(월계동)
1039,13223660,한촌설렁탕 광주첨단점,35.22241514,126.84948399,광주광역시 북구 오룡동 1110-22 1층 104호 (오룡동)
1040,10472085,배터지는생동까스 첨단점,35.2128791,126.8393209,광주광역시 광산구 월계동 820-16
1041,13899628,이화수전통육개장 광주첨단점,35.21994319,126.84906742,광주광역시 광산구 임방울대로825번길 44 1층(쌍암동)
1042,10858032,돌섬아구찜,35.21130509,126.83787419,광주광역시 광산구 월계동 835-3
1043,13139376,에그드랍 광주첨단점,35.21822111,126.84623438,광주광역시 광산구 쌍암동 670-4 1층(쌍암동)
1044,13874581,곱도리탕전문점 대가 첨단점,35.20652823,126.86062229,광주광역시 북구 첨단연신로107번길 45-22 토담빌딩 1층 106-1호 (신용동)
1045,13019036,"발대발 닭도리,찜닭",35.2101663,126.83615215,광주광역시 광산구 월계동 807-7 1층(월계동)
1046,13315851,청담카츠 첨단점,35.21860993,126.84470673,광주광역시 광산구 쌍암동 668-11 1동1층101호
1047,13774473,춘리마라탕 남부대점,35.209320291927455,126.83937347986159,광주광역시 광산구 산월로 9 1층 (월계동)
1048,13453640,제육명가 첨단점,35.21488826,126.85220616,광주광역시 광산구 쌍암동 694-91 1층 (쌍암동)
1049,13899921,카페허니,35.20694484,126.8601501,광주광역시 북구 첨단연신로107번길 45-17 건영빌딩 1층 102호(신용동)
1050,10612636,아이커버거&치킨 첨단점,35.21241603,126.83540216,광주광역시 광산구 첨단내촌로 69-20 (월계동)
1051,13100452,걸작떡볶이치킨 첨단점,35.21352542978512,126.84346851254911,"광주광역시 광산구 쌍암동 694-59 110동 1층 113호 (쌍암동, 쌍암중흥에스클래스리버시티)"
1052,13315851,청담카츠 첨단점,35.21860993,126.84470673,광주광역시 광산구 쌍암동 668-11 1동1층101호
1053,13807169,교반 육회비빔밥&냉면 첨단점,35.20897209,126.84223497,광주광역시 광산구 산월로 45 1층 (월계동)
1054,10545130,생생돈까스 첨단점,35.20661156,126.86095559,광주광역시 북구 신용동 710 1층 101호(신용동)
1055,13782078,갓잡은 육회&연어 광산점,35.20949971,126.83654102,광주광역시 광산구 첨단내촌로35번길 7-12 1층(월계동)
1056,13655029,바른국밥 첨단점,35.2117217,126.83737422,광주광역시 광산구 첨단내촌로 56 1층(월계동)
1057,13039641,남산돈까스,35.20769435,126.83556893,"광주광역시 광산구 월계동 796-13 (월계동,(1층))"
1058,13556639,메가커피 첨단쌍암점,35.21536043,126.8524839,"광주광역시 광산구 쌍암동 694-88 1층103호(일부),104호(쌍암동)"
1059,13897882,조선매운국물갈비찜 첨단점,35.20694484,126.85976125,광주광역시 북구 첨단연신로107번길 45-11 1층102호(신용동)
1060,13348259,국내산 1번고기,35.21694354,126.84976188,광주광역시 광산구 쌍암동 694-140 1층(쌍암동)
1061,13093683,엄마김밥 첨단점,35.21324938,126.84215154,광주광역시 광산구 월계동 766-2 1층(월계동)
1062,13349524,싸움의고수 첨단점,35.22241514,126.84948399,광주광역시 북구 오룡동 1110-22 1층 106-b호
1063,13349524,싸움의고수 첨단점,35.22241514,126.84948399,광주광역시 북구 오룡동 1110-22 1층 106-b호
1064,13349524,싸움의고수 첨단점,35.22241514,126.84948399,광주광역시 북구 오룡동 1110-22 1층 106-b호
1065,13436929,도미노피자 광주첨단점,35.21411052,126.84965085,"광주광역시 광산구 쌍암동 694-69 미르채프라자 1층 105,106(일부)호(쌍암동)"
1066,13323570,요달의찜닭 광주쌍암점,35.22022083,126.84306795,광주광역시 광산구 쌍암동 662-5 1층(쌍암동)
1067,13348264,꼬기부심,35.21694354,126.84976188,광주광역시 광산구 쌍암동 694-140 1층(쌍암동)
1068,13218760,감성커피 광주첨단점,35.21430497,126.85128959,"광주광역시 광산구 쌍암동 694-58 1,2(일부)층(쌍암동)"
1069,13586039,쌈밥의정석 본점,35.1853356,126.82607033,광주광역시 광산구 신가동 1078 1층(신가동)
1070,13808140,착한가격 굿 족발&보쌈,35.20727814,126.86012232,광주광역시 북구 첨단연신로107번길 37 1층 108호(신용동)
1071,13860417,식사준비 광주첨단쌍암점,35.21994307,126.84229025,광주광역시 광산구 첨단중앙로 164 미래빌딩 1층 103-2호(쌍암동)
1072,13820773,가배 풍성두툼한 사시미&초밥,35.21427754,126.87167668,광주광역시 북구 임방울대로1041번길 20 1층(용두동)
1073,13680746,수제돈가스 청연 첨단점,35.21230488,126.83218022,"광주광역시 광산구 월계동 763-6  (월계동,첨단 호반2차@ 상가동 112호(1층))"
1074,13414085,인끼밥상,35.2182211,126.84562333,"광주광역시 광산구 쌍암동 669-4 (쌍암동,105.106호(1층))"
1075,13197744,반월추어탕 ,35.21305495,126.84167936,광주광역시 광산구 월계동 826-2
1076,13807169,교반 육회비빔밥&냉면 첨단점,35.20897209,126.84223497,광주광역시 광산구 산월로 45 1층 (월계동)
1077,13277028,패대기 첨단점,35.21583249,126.84620667,"광주광역시 광산구 월계동 878-7 (월계동,(1층))"
1078,13440840,냉면일번지,35.2117217,126.83737422,광주광역시 광산구 첨단내촌로 56 1층(월계동)
1079,13046300,돼지면 찌개리,35.20903698005198,126.83969650825367,"광주광역시 광산구 월계동 849-7 (월계동,(1층))"
1080,13774921,베지풀 스테이크 샐러드&부리또,35.221199023388955,126.8508394677052,광주광역시 광산구 첨단중앙로182번길 90 상가동 1층 110호(쌍암동)
1081,13774921,베지풀 스테이크 샐러드&부리또,35.221199023388955,126.8508394677052,광주광역시 광산구 첨단중앙로182번길 90 상가동 1층 110호(쌍암동)
1082,13068815,박가부대&치즈닭갈비 광주첨단점,35.22163736,126.84415115,광주광역시 광산구 쌍암동 664-1
1083,13348259,국내산 1번고기,35.21694354,126.84976188,광주광역시 광산구 쌍암동 694-140 1층(쌍암동)
1084,13384957,가배상회,35.21516585,126.8432625,광주광역시 광산구 월계동 888-10 1층104호(월계동)
1085,13351036,춘희네쑥개떡,35.213000542302176,126.846106155788,광주광역시 광산구 월계로 203 117호(월계동)
1086,10852639,수오돌이,35.21241606,126.83720755,광주광역시 광산구 월계동 813-6 1층(월계동)
1087,13376496,오리궁뎅이 양산점,35.21055583,126.87703741,광주광역시 북구 양산동 813 (양산동)
1088,13899474,물회&회덮밥 8000원 첨단점,35.21119406,126.84220714,광주광역시 광산구 첨단중앙로67번길 7-4 1층(월계동)
1089,13877411,제주세호해장국 첨단점,35.21366612,126.84934533,광주광역시 광산구 월계로 217 1층 101호(쌍암동)
1090,13807169,교반 육회비빔밥&냉면 첨단점,35.20897209,126.84223497,광주광역시 광산구 산월로 45 1층 (월계동)
1091,13873251,읍천리382 첨단점,35.20894190571505,126.83924358436593,광주광역시 광산구 산월로 17 1층 (월계동)
1092,13196594,맛갈찬감자탕&오리탕 ,35.21277721,126.8419849,광주광역시 광산구 월계동 827-11
1093,13269871,마루요시 첨단점,35.21605469,126.84626221,광주광역시 광산구 월계동 878-8 1층(월계동)
1094,13312258,달리는커피 첨단1호점,35.21057310925684,126.83818075246765,광주광역시 광산구 월계동 836-5 1층
1095,12002943,이바돔감자탕(첨단2지구점),35.20677818,126.85928907,광주광역시 북구 신용동 690 2층 202호
1096,13850573,패스트롤 첨단점,35.22249846,126.84951177,광주광역시 북구 첨단과기로208번길 43-10 마루힐아이비씨지식산업센터1층103-a호(오룡동)
1097,13362883,단미드카페,35.22247069,126.84951177,광주광역시 북구 오룡동 1110-22 1층(오룡동)
1098,13895468,오로라 요거트 아이스크림 광주점,35.2102775,126.84242936,광주광역시 광산구 첨단중앙로47번길 8-14 1층 (월계동)
1099,13458388,킹콩부대찌개 광주첨단월계점,35.213851,126.847819,광주광역시 광산구 월계동 893-9 1층 121호
1100,13103983,양평해장국 첨단점,35.2211931,126.85237266,광주광역시 광산구 쌍암동 688-4 1층 134호(쌍암동)
1101,13484415,프랭크버거 광주첨단병원점,35.2203042,126.84540107,광주광역시 광산구 쌍암동 666-4 1층(쌍암동)
1102,13754683,팔도만찬 첨단점,35.21366612,126.84934533,광주광역시 광산구 월계로 217 쌍암동 첨단프라자 1층 120호(쌍암동)
1103,10671639,7번가피자 첨단1지구점,35.2136348,126.8493751,"광주광역시 광산구 쌍암동 694-63 107호 (쌍암동, 첨단프라자)"
1104,13024454,금성칡냉면 첨단점,35.21944314,126.84281799,광주광역시 광산구 쌍암동 659-8 1층
1105,12038477,현옥국밥,35.22135961,126.84373453,광주광역시 광산구 쌍암동 654-7 1층
1106,13678717,샐러드밥(첨단신용점),35.20652823,126.86065007,광주광역시 북구 신용동 694 토담빌딩 1층 106-2호(신용동)
1107,13865379,꾸꾸삼겹 첨단점,35.20897209,126.84226275,광주광역시 광산구 산월로 45 1층 (월계동)
1108,13877973,아웃백 광주첨단점,35.21511036,126.84637334,광주광역시 광산구 첨단중앙로106번길 65-3 월계동주차빌딩1층 122(일부)호(월계동)
1109,13450219,금커피별빙수 & 과일 첨단점,35.21383275,126.84781769,광주광역시 광산구 월계동 893-9 1층 116호(월계동)
1110,13315849,청담피자 광주1호첨단점,35.21860993,126.84470673,광주광역시 광산구 쌍암동 668-11 1동1층101호
1111,13120983,롱쓰부대찌개 광주첨단점,35.21269383,126.83829078,광주광역시 광산구 월계로118번길 20 1층(월계동)
1112,13253186,카페인중독 광주첨단점,35.22247069,126.84951177,광주광역시 북구 오룡동 1110-22 1층 111-a호(오룡동)
1113,13209196,새마을수산 활어직판장,35.21327708,126.83742973,광주광역시 광산구 월계동 771-9 1층(월계동)
1114,13714036,아메리칸피자 첨단양산점,35.22116533,126.85251153,광주광역시 광산구 앰코로 35 폭스존 1층 105호(쌍암동)
1115,13103983,양평해장국 첨단점,35.2211931,126.85237266,광주광역시 광산구 쌍암동 688-4 1층 134호(쌍암동)
1116,10778314,보향미보쌈전문점,35.2166602,126.8445154,"광주광역시 광산구 월계동 873-16 (월계동,(1층))"
1117,13292535,조개까는자리 회 수산,35.21293224192996,126.83727061034051,광주광역시 광산구 월계동 771-12 (월계동)
1118,13830326,채선당 도시락&샐러드 광주첨단점,35.21361053,126.84642893,광주광역시 광산구 월계로 191 1층(월계동)
1119,13318794,프롬김치 첨단본점,35.21394389,126.85059522,"광주광역시 광산구 쌍암동 694-59 110동 1층 101호(쌍암동,중흥s클래스 리버시티 주상복합 아파트)"
1120,13139376,에그드랍 광주첨단점,35.21822111,126.84623438,광주광역시 광산구 쌍암동 670-4 1층(쌍암동)
1121,13652284,속풀이한우곰탕,35.21158338,126.87017688,광주광역시 북구 용두동 311-50 제1층 제102호(용두동)
1122,10889922,동명카츠 첨단점,35.21333262,126.83684645,광주광역시 광산구 월계동 771-4 1층
1123,13810742,에그폭탄덮밥,35.22133196,126.85115054,광주광역시 광산구 첨단중앙로182번길 90 상가동 1층 127호 (쌍암동)
1124,10767277,매운맛 땡길 때 밥장인 첨단점,35.2159578,126.8503396,광주광역시 광산구 쌍암동 694-42
1125,13791062,집밥을 부탁해,35.19714007,126.84045765,"광주광역시 광산구 신창로138번길 15-16 (신창동,(1층))"
1126,13813046,아리랑백반,35.21272162,126.83967955,광주광역시 광산구 월계로130번길 19 1층(월계동)
1127,13362573,애월항,35.214401,126.849074,광주광역시 광산구 쌍암동 694-60 2층애월항
1128,13844733,신선우동,35.20991637,126.83867971,광주광역시 광산구 첨단내촌로36번길 26 1층(월계동)
1129,13772797,심슨양곱창,35.21424934,126.84642891,"광주광역시 광산구 임방울대로800번길 71 아크레타 첨단1층 112,113호(월계동)"
1130,13078712,조선짬뽕 첨단점,35.21694353,126.84901195,광주광역시 광산구 쌍암동 694-21 1층
1131,13858155,타코야끼킹,35.21910597729612,126.84149653222424,"광주광역시 광산구 첨단중앙로 153 상가동 1층 102호(월계동, 첨단단지대주APT)"
1132,13430042,응급실국물떡볶이 첨단중앙점,35.21666567,126.84240143,광주광역시 광산구 월계동 867-6 1층105호(월계동)
1133,13086936,아필코 본점,35.21663792,126.8437902,광주광역시 광산구 월계동 874-7 더124빌딩 4층(월계동)
1134,13057684,내가반한닭갈비 본점,35.1853356,126.82607033,광주광역시 광산구 신가동 1078 1층(신가동)
1135,13915590,혼밥대장 한식전문점 첨단점,35.21377716,126.84573454,광주광역시 광산구 임방울대로800번길 82 1층 (월계동)
1136,13189995,서울깍두기 첨단점 설렁탕전문점,35.2153326,126.84901199,"광주광역시 광산구 쌍암동 694-5 1층 101,102(일부)호(쌍암동)"
1137,13710711,정담김치찌개 첨단점,35.21488826,126.85234504,광주광역시 광산구 첨단강변로87번길 6 1층 108호
1138,10540314,이가네석쇠불고기&냉면,35.20975738873187,126.83742509094093,광주광역시 광산구 월계동 839-12
1139,13292535,조개까는자리 회 수산,35.21293224192996,126.83727061034051,광주광역시 광산구 월계동 771-12 (월계동)
1140,13329109,마라하오 첨단점,35.21288827,126.83931846,광주광역시 광산구 월계동 820-16 1층
1141,13429101,삼대가족국밥,35.21630465,126.84573448,"광주광역시 광산구 월계동 877-5 (월계동,(1층))"
1142,13747599,엘리펀트피자 광주첨단점,35.21088845,126.83704094,광주광역시 광산구 첨단내촌로 45-4 1층(월계동)
1143,13037672,소문난김치찜&족발,35.21305488,126.83731864,광주광역시 광산구 월계동 814-3 (월계동)
1144,13315849,청담피자 광주1호첨단점,35.21860993,126.84470673,광주광역시 광산구 쌍암동 668-11 1동1층101호
1145,13872098,노랑분식 광주본점,35.21913768,126.84623436,광주광역시 광산구 임방울대로801번길 26 1층(쌍암동)
1146,13823775,파운데이 쌍암점,35.22033195,126.84429006,광주광역시 광산구 첨단중앙로152번길 31-16 A동 1층(쌍암동)
1147,13555582,달쥬 과일전문점,35.21513813,126.84637334,광주광역시 광산구 월계동 885-1 월계동주차빌딩 1층 127호(월계동)
1148,13100452,걸작떡볶이치킨 첨단점,35.21352542978512,126.84346851254911,"광주광역시 광산구 쌍암동 694-59 110동 1층 113호 (쌍암동, 쌍암중흥에스클래스리버시티)"
1149,10035620,원할머니보쌈족발 광주첨단점,35.22152643200226,126.84409080031607,광주광역시 광산구 쌍암동 664-1 (쌍암동 664-1)
1150,13822536,호주에서온스시 신용직영점,35.21108344,126.87064907,"광주광역시 북구 임방울대로1042번길 14 , 1층 (용두동)"
1151,13419216,LUZPOL Dessert & Coffee,35.20652821,126.85951128,광주광역시 북구 신용동 691 대성빌딩 1층 111호 (신용동)
1152,13540824,배떡 로제떡볶이 첨단2지구점,35.20730594,126.86178884,광주광역시 북구 신용동 712 1층 105호(신용동)
1153,13074022,아필코 본점,35.21663792,126.8437902,광주광역시 광산구 월계동 874-7 더124빌딩 4층(월계동)
1154,13696411,려포마라탕,35.20730596,126.86267765,"광주광역시 북구 첨단연신로107번길 15 (신용동, 용천타워1층 102호)"
1155,13789615,이림마라탕,35.21091617,126.8334857,광주광역시 광산구 월계로34번길 21-16 1층 (월계동)
1156,10035620,원할머니보쌈족발 광주첨단점,35.22152643200226,126.84409080031607,광주광역시 광산구 쌍암동 664-1 (쌍암동 664-1)
1157,13882895,대창낙곱새,35.21094394,126.83354125,광주광역시 광산구 월계로34번길 21-16 1층 (월계동)
1158,13828748,팽현숙 최양락의 그 밥에 이 반찬 첨단점,35.21517624862601,126.85275635385915,광주광역시 광산구 월계로 217 쌍암동 첨단프라자 1층 117호(쌍암동)
1159,13713145,큰손김치찜&찌개,35.20694486,126.86131667,광주광역시 북구 첨단연신로91번길 32-10 1층 109호(신용동)
1160,10503524,영양족발보쌈,35.20880583,126.86495519,광주광역시 북구 신용동 808번지 101호
1161,10036958,만석군족발,35.2155359699793,126.84227634146582,광주광역시 광산구 첨단내촌로35번길 26-2 1층(월계동)
1162,13874581,곱도리탕전문점 대가 첨단점,35.20652823,126.86062229,광주광역시 북구 첨단연신로107번길 45-22 토담빌딩 1층 106-1호 (신용동)
1163,13713145,큰손김치찜&찌개,35.20694486,126.86131667,광주광역시 북구 첨단연신로91번길 32-10 1층 109호(신용동)
1164,13471997,레커버거,35.20652821,126.85951128,광주광역시 북구 신용동 691 대성빌딩 1층 111호 (신용동)
1165,13683710,닭발공작소,35.2042509,126.87151028,광주광역시 북구 양산동 288-15 호반아파트 상가동 2층 201호 (양산동)
1166,13897886,베이크쇼디치,35.22249846,126.84951177,광주광역시 북구 첨단과기로208번길 43-10 마루힐 아이비씨 지식산업센터 1층 112-a호(오룡동)
1167,13900804,히요리덮밥,35.19333466,126.82412585,광주광역시 광산구 임방울대로 372 1층(수완동)
1168,13899628,이화수전통육개장 광주첨단점,35.21994319,126.84906742,광주광역시 광산구 임방울대로825번길 44 1층(쌍암동)
1169,10612636,아이커버거&치킨 첨단점,35.21241603,126.83540216,광주광역시 광산구 첨단내촌로 69-20 (월계동)
1170,13874631,아미에,35.21102792,126.87201006,"광주광역시 북구 임방울대로1042번길 17 상가동 1층 106호(용두동, 첨단 용두 산이고운)"
1171,13019030,왕십리야채곱창,35.2101663,126.83615215,광주광역시 광산구 월계동 807-7 1층(월계동)
1172,13758906,바른보쌈1990 첨단점,35.20650044,126.85948351,광주광역시 북구 첨단연신로91번길 44 대성빌딩 1층 109호 (신용동)
1173,13120983,롱쓰부대찌개 광주첨단점,35.21269383,126.83829078,광주광역시 광산구 월계로118번길 20 1층(월계동)
1174,10675630,상무초밥 첨단직영점,35.21513811,126.8450679,광주광역시 광산구 첨단중앙로106번길 37 가동 1층(월계동)
1175,13828182,이태리수라간,35.21991531,126.84281798,광주광역시 광산구 첨단중앙로152번길 5-10 1층(쌍암동)
1176,13825109,도야짬뽕 첨단2지구점,35.20691708,126.86070561,"광주광역시 북구 첨단연신로107번길 45-21 (신용동,101,102,103,104호)"
1177,10612636,아이커버거&치킨 첨단점,35.21241603,126.83540216,광주광역시 광산구 첨단내촌로 69-20 (월계동)
1178,13440840,냉면일번지,35.2117217,126.83737422,광주광역시 광산구 첨단내촌로 56 1층(월계동)
1179,13362698,한끼한죽 첨단점,35.21346519495023,126.84530108224976,광주 광산구 월계동 816-5
1180,13801603,볼빨간아구찜 첨단점,35.21133287,126.83826304,광주광역시 광산구 첨단중앙로67번길 79 1층 (월계동)
1181,13132236,에그드랍 광주첨단점,35.21822111,126.84623438,광주광역시 광산구 쌍암동 670-4 1층(쌍암동)
1182,13858959,달달 베이크,35.21227726,126.84165161,광주광역시 광산구 월계로150번길 22 1층
1183,13680746,수제돈가스 청연 첨단점,35.21230488,126.83218022,"광주광역시 광산구 월계동 763-6  (월계동,첨단 호반2차@ 상가동 112호(1층))"
1184,13770770,삼삼숯불갈비,35.20897209,126.84223497,광주광역시 광산구 산월로 45 (월계동)
1185,10830602,김밥나라,35.2148882,126.84909533,"광주광역시 광산구 쌍암동 694-116 1층 101호(쌍암동, 에드가303)"
1186,13758574,덮밥집,35.19333466,126.82412585,광주광역시 광산구 임방울대로 372 1층(수완동)
1187,13761624,신화닭발,35.19672343,126.83934664,"광주광역시 광산구 신창로138번길 8-5 신창동,(1층)"
1188,10735575,난타5000 첨단금호점,35.22002402725568,126.8362798804684,"광주광역시 광산구 월계동 756-10 104동(월계동, 첨단이정주차빌딩)"
1189,13917173,고기택배가는남자 고택남 첨단점,35.21147171,126.83662429,광주광역시 광산구 첨단내촌로 53-8 (월계동)
1190,13891504,레커N1리터커피,35.20650044,126.85948351,광주광역시 북구 첨단연신로91번길 44 대성빌딩 1층 111호 (신용동)
1191,13798337,샬어름냉면 광주첨단점,35.21269383,126.83829078,광주광역시 광산구 월계로118번길 20 1층(월계동)
1192,13317585,청년감자탕 광주점,35.21288887,126.87520418,"광주광역시 북구 하서로 428 201호,202호,203호"
1193,13482687,전원왕족발&보쌈 양산점,35.21672177,126.87498188,광주광역시 북구 용두동 1089 용두2주공아파트 상가동 1층 103호
1194,13275396,디저트39 광주첨단점,35.21516585,126.8432625,광주광역시 광산구 월계동 888-10 1층 108호(월계동)
1195,13241290,학교앞분식,35.2127493,126.83401338,"광주광역시 광산구 월계동 763-5 상가동1층108호(월계동,첨단모아미래도아파트)"
1196,12019554,송정금호축산,35.21519378,126.85248391,"광주광역시 광산구 첨단강변로 95 쌍암동1,2층"
1197,10637770,명동보쌈국수 첨단점,35.21411046,126.84581786,광주광역시 광산구 월계동 891-6
1198,10866148,안심찹쌀로 탕쓱 잘튀기는집,35.20991636,126.83792977,광주광역시 광산구 첨단내촌로36번길 12 1층 (월계동)
1199,13154269,플랜티 첨단2지구점,35.20652821,126.85951128,광주광역시 북구 신용동 691 대성빌딩 1층 105호(신용동)
1200,13880139,밥이랑찬이랑,35.20952765,126.84631793,"광주광역시 광산구 산월로 81 1층107호(산월동,부영그린타운)"
1201,13075786,남부아구찜,35.22099849,126.8408459,광주광역시 광산구 첨단중앙로181번길 5 1층 (월계동)
1202,13805788,급식실,35.20872255,126.86803825,광주광역시 북구 연양로7번길 53 1층 (신용동)
1203,13669256,행파,35.20730596,126.86267765,광주광역시 북구 신용동 719 (신용동1층104호)
1204,13782078,갓잡은 육회&연어 광산점,35.20949971,126.83654102,광주광역시 광산구 첨단내촌로35번길 7-12 1층(월계동)
1205,13317585,청년감자탕 광주점,35.21288887,126.87520418,"광주광역시 북구 하서로 428 201호,202호,203호"
1206,13348260,대패혁명,35.21694354,126.84976188,광주광역시 광산구 쌍암동 694-140 1층(쌍암동)
1207,13574149,난타5000첨단남부대점,35.20741674,126.84406818,"광주광역시 광산구 산월동 886-1 상가동 1층 113호(산월동,부영사랑으로아파트)"
1208,13810742,에그폭탄덮밥,35.22133196,126.85115054,광주광역시 광산구 첨단중앙로182번길 90 상가동 1층 127호 (쌍암동)
1209,13744847,사우나떡볶이로제&국물 첨단중앙점,35.22116533,126.85251153,광주광역시 광산구 앰코로 35 폭스존 1층 112호(쌍암동)
1210,13799031,김밥나라(쌍암점),35.217709989443215,126.84212070664387,"광주광역시 광산구 임방울대로826번길 55 1층 103호(쌍암동, 한양에드가 303동)"
1211,13799031,김밥나라(쌍암점),35.217709989443215,126.84212070664387,"광주광역시 광산구 임방울대로826번길 55 1층 103호(쌍암동, 한양에드가 303동)"
1212,13780356,바코포차,35.219119,126.843682,광주광역시 광산구 첨단중앙로152번길 25 1층 바코포차
1213,10852639,수오돌이,35.21241606,126.83720755,광주광역시 광산구 월계동 813-6 1층(월계동)
1214,13762263,순돌이 회수산 첨단점,35.21513811,126.8450679,광주광역시 광산구 첨단중앙로106번길 37 나동 1층(월계동)
1215,13895181,제육민국,35.21883207,126.84112371,"광주광역시 광산구 첨단중앙로 153 상가동 1층 102호(월계동, 첨단단지대주APT)"
1216,13789615,이림마라탕,35.21091617,126.8334857,광주광역시 광산구 월계로34번길 21-16 1층 (월계동)
1217,13860302,신세계 중식당,35.20652828,126.86367758,광주광역시 북구 첨단연신로91번길 6 1층(신용동)
1218,13022593,또오래꼬마김밥,35.21097178,126.83745757,광주광역시 광산구 월계동 838-1 1층
1219,13371566,연어데이,35.21338823,126.84056834,광주광역시 광산구 월계로 138 1층(월계동)
1220,13302814,마왕족발 광주첨단점,35.21605473,126.84828981,광주광역시 광산구 월계동 881-1 1층 110호(월계동)
1221,13652077,왕손피자 광산점,35.18966848,126.82845889,광주광역시 광산구 수완동 1458 1층(수완동)
1222,13645173,큰수저 김치찜2호점,35.2095558,126.86828821,"광주광역시 북구 신용동 602-10 (신용동,1층103호)"
1223,13692536,배떡 첨단1지구점,35.22163735,126.84351232,광주광역시 광산구 첨단중앙로182번길 20 1층(쌍암동)
1224,13315849,청담피자 광주1호첨단점,35.21860993,126.84470673,광주광역시 광산구 쌍암동 668-11 1동1층101호
1225,13872098,노랑분식 광주본점,35.21913768,126.84623436,광주광역시 광산구 임방울대로801번길 26 1층(쌍암동)
1226,10813110,엔제리너스 광주첨단점,35.21910984,126.84231804,"광주광역시 광산구 쌍암동 656-4 (쌍암동,(1,2층))"
1227,13208551,쉐프뉴욕 첨단점,35.20730598,126.86403864,"광주광역시 북구 신용동 735 (신용동, 7층 701호)"
1228,10775053,백족발 첨단직영점,35.21944319,126.8457344,광주광역시 광산구 쌍암동 667-7 1층(쌍암동)
1229,13352639,혼밥대왕 첨단점,35.22013762,126.84970625,"광주광역시 광산구 임방울대로825번길 60-6 103동 101호(쌍암동,첨단중해마루힐)"
1230,13118381,오늘의반찬,35.21500129658001,126.84416823228638,광주광역시 광산구 월계동 763-2 107호 (월계동)
1231,10812041,정가네왕순대,35.21158283,126.83759643,광주광역시 광산구 월계동 812-7
1232,13286931,나능이 능이버섯백숙 첨단점,35.21663791,126.84337357,광주광역시 광산구 월계동 874-9 1층
1233,13779322,두마리찜닭 두찜 첨단1지구점,35.21877657,126.84381792,광주광역시 광산구 첨단중앙로152번길 30 1층(쌍암동)
1234,13895181,제육민국,35.21883207,126.84112371,"광주광역시 광산구 첨단중앙로 153 상가동 1층 102호(월계동, 첨단단지대주APT)"
1235,13186549,수 샐러드,35.22241514,126.84948399,광주광역시 북구 오룡동 1110-22 1층 124호
1236,13453073,정담모밀 첨단점,35.21488826,126.85220616,광주광역시 광산구 쌍암동 694-91 1층 (쌍암동)
1237,13428294,우리할매떡볶이 광주첨단점,35.21133279,126.83390232,광주광역시 광산구 월계동 779-2 1층(월계동)
1238,13365261,양철식당 광주직영점,35.21433276,126.85203952,"광주광역시 광산구 쌍암동 694-142 1층108,109,110,111호(쌍암동)"
1239,13628257,최씨부엌족발 전문점,35.20947267,126.87989829,광주광역시 북구 양산동 902 1층(양산동)
1240,13427869,입큰아구찜&알곤이찜,35.22241514,126.84948399,광주광역시 북구 오룡동 1110-22 1층 115호(오룡동)
1241,10734595,청담동마녀김밥,35.20730594,126.86178884,광주광역시 북구 신용동 712 1층 101호 (신용동)
1242,13186549,수 샐러드,35.22241514,126.84948399,광주광역시 북구 오룡동 1110-22 1층 124호
1243,13315851,청담카츠 첨단점,35.21860993,126.84470673,광주광역시 광산구 쌍암동 668-11 1동1층101호
1244,13861697,그집 곱도리탕 첨단점,35.21119406,126.84220714,광주광역시 광산구 첨단중앙로67번길 7-4 1층(월계동)
1245,13791814,화채의미 첨단점,35.20902762,126.84079065,광주광역시 광산구 산월로 33 1층(월계동)
1246,13103501,현대옥 첨단점,35.21908213,126.84656767,광주광역시 광산구 쌍암동 673-10 1층(쌍암동)
1247,13775403,김경엽다슬기 양산점,35.21416651,126.87520414,"광주광역시 북구 하서로 439 (용두동,(1,2층))"
1248,13170860,찡찡꼬마김밥,35.22241514,126.84948399,광주광역시 북구 오룡동 1110-22 1층 121호(오룡동)
1249,13877973,아웃백 광주첨단점,35.21511036,126.84637334,광주광역시 광산구 첨단중앙로106번길 65-3 월계동주차빌딩1층 122(일부)호(월계동)
1250,13829770,앙떡 로제떡볶이&돈까스 광주첨단점,35.21091623,126.83706871,광주광역시 광산구 첨단내촌로 45-4 1층(월계동)
1251,13840785,하랑은 도시락 신용점,35.20897248,126.86526071,광주광역시 북구 첨단연신로108번길 59-17 1층 101호(신용동)
1252,13861696,대박삼겹김치찜&초대박등갈비김치찜,35.21119406,126.84220714,광주광역시 광산구 첨단중앙로67번길 7-4 1층(월계동)
1253,13652284,속풀이한우곰탕,35.21158338,126.87017688,광주광역시 북구 용두동 311-50 제1층 제102호(용두동)
1254,13078712,조선짬뽕 첨단점,35.21694353,126.84901195,광주광역시 광산구 쌍암동 694-21 1층
1255,10017955,깐깐한족발 본점,35.21563806,126.84526231,광주 광산구 월계동 886-3 891-4
1256,13861696,대박삼겹김치찜&초대박등갈비김치찜,35.21119406,126.84220714,광주광역시 광산구 첨단중앙로67번길 7-4 1층(월계동)
1257,13057685,내가반한찜닭 본점,35.1853356,126.82607033,광주광역시 광산구 신가동 1078 1층(신가동)
1258,13508358,정담모밀 첨단점,35.21488826,126.85220616,광주광역시 광산구 쌍암동 694-91 1층 (쌍암동)
1259,13150222,족발이땡기는날 양산점,35.21139145164912,126.88065928643437,광주광역시 북구 양산동 721 1층
1260,13259879,돈오락쪽갈비 첨단2지구점,35.20730591,126.86012232,광주광역시 북구 신용동 696 1층 102호 (신용동)
1261,13054094,쭈사장 첨단직영점,35.21605473,126.84828981,광주광역시 광산구 월계동 881-1 1층 108호 (월계동)
1262,13572764,천사곱창첨단점,35.21605469,126.84626221,광주광역시 광산구 월계동 878-8 1층 (월계동)
1263,10858032,돌섬아구찜,35.21130509,126.83787419,광주광역시 광산구 월계동 835-3
1264,13335267,홍대마약떡볶이 첨단양산점,35.2101663,126.83615215,광주광역시 광산구 월계동 807-7 1층(월계동)
1265,13861697,그집 곱도리탕 첨단점,35.21119406,126.84220714,광주광역시 광산구 첨단중앙로67번길 7-4 1층(월계동)
1266,13812866,화채업자 첨단점,35.21091617,126.8334857,광주광역시 광산구 월계로34번길 21-16 1층 (월계동)
1267,13779322,두마리찜닭 두찜 첨단1지구점,35.21877657,126.84381792,광주광역시 광산구 첨단중앙로152번길 30 1층(쌍암동)
1268,10539901,신화불닭,35.19672343,126.83937442,"광주광역시 광산구 신창동 1132-16 신창동,(1층)"
1269,13319506,호랑이 한식,35.21513813,126.84637334,광주광역시 광산구 월계동 885-1 월계동주차빌딩 1층 112일부호(월계동)
1270,13608254,첨단알찜,35.22241514,126.84948399,"광주광역시 북구 오룡동 1110-22 2층 221,222호(오룡동)"
1271,13435388,닥엔돈스 돼지쪽갈비 첨단2지구점,35.20730593,126.86109445,광주광역시 북구 신용동 705 1층 105호(신용동)
1272,10625225,원조할매닭발,35.2098803,126.8374548,광주광역시 광산구 첨단내촌로 36 (월계동)
1273,13578190,아이러브피자 첨단점,35.20905536,126.83920746,광주광역시 광산구 월계동 843-4 1층(월계동)
1274,13508358,정담모밀 첨단점,35.21488826,126.85220616,광주광역시 광산구 쌍암동 694-91 1층 (쌍암동)
1275,13882521,상무칡냉면1978 첨단점,35.21363827,126.84434578,"광주광역시 광산구 월계로 173 (월계동,2층203호)"
1276,13813046,아리랑백반,35.21272162,126.83967955,광주광역시 광산구 월계로130번길 19 1층(월계동)
1277,13858155,타코야끼킹,35.21910597729612,126.84149653222424,"광주광역시 광산구 첨단중앙로 153 상가동 1층 102호(월계동, 첨단단지대주APT)"
1278,13810306,인생 김치찌개,35.22133196,126.85115054,광주광역시 광산구 첨단중앙로182번길 90 상가동 1층 127호 (쌍암동)
1279,13286931,나능이 능이버섯백숙 첨단점,35.21663791,126.84337357,광주광역시 광산구 월계동 874-9 1층
1280,13371073,혼마구로 참치,35.222323168120404,126.84965660928681,광주광역시 북구 첨단과기로208번길 43-10 1층 136호(오룡동)
1281,13699645,요녀석 파스타 &필라프 첨단점,35.211345811564115,126.8456829964255,"광주광역시 광산구 첨단중앙로68번길 60 상가1동1층112호(산월동,첨단3-1차호반리젠시빌)"
1282,13394384,마선생 마약국밥 광주첨단점,35.21384304797752,126.84614466408027,"광주광역시 광산구 월계동 892-7 (월계동,(1층))"
1283,13323570,요달의찜닭 광주쌍암점,35.22022083,126.84306795,광주광역시 광산구 쌍암동 662-5 1층(쌍암동)
1284,13850548,봉명동내커피 광주첨단점,35.21286043,126.83581877,광주광역시 광산구 월계로 92 1층(월계동)
1285,13029823,피자파는집 첨단점,35.20866648,126.83670769,광주광역시 광산구 월계동 797-4 1층(월계동)
1286,10812041,정가네왕순대,35.21158283,126.83759643,광주광역시 광산구 월계동 812-7
1287,13113285,더반,35.22030419,126.84506777,광주광역시 광산구 쌍암동 666-3 1층 103호
1288,13710711,정담김치찌개 첨단점,35.21488826,126.85234504,광주광역시 광산구 첨단강변로87번길 6 1층 108호
1289,13895897,직화삼겹직구삼 첨단점,35.21633248,126.84898419,광주광역시 광산구 임방울대로826번길 25 1층 112호(쌍암동)
1290,13281119,벌크커피 월계점,35.21252713,126.83529105,광주광역시 광산구 월계동 772-1 1층(월계동)
1291,13873251,읍천리382 첨단점,35.20894190571505,126.83924358436593,광주광역시 광산구 산월로 17 1층 (월계동)
1292,10556140,늘푸른바다,35.21158287,126.839874,광주광역시 광산구 월계동 832-13
1293,13696618,신묘한 닭도리탕&곱도리탕 신창점,35.19714007,126.84045765,"광주광역시 광산구 신창로138번길 15-16 (신창동,(1층))"
1294,13823775,파운데이 쌍암점,35.22033195,126.84429006,광주광역시 광산구 첨단중앙로152번길 31-16 A동 1층(쌍암동)
1295,13371566,연어데이,35.21338823,126.84056834,광주광역시 광산구 월계로 138 1층(월계동)
1296,13459186,초밥생각,35.20908383,126.88025938,광주광역시 북구 양산동 1028 1층(양산동)
1297,13680746,수제돈가스 청연 첨단점,35.21230488,126.83218022,"광주광역시 광산구 월계동 763-6  (월계동,첨단 호반2차@ 상가동 112호(1층))"
1298,13876125,1번지 참치,35.22249846,126.84951177,광주광역시 북구 첨단과기로208번길 43-10 1층 136호(오룡동)
1299,13842928,꿈떡꿈떡 첨단점,35.21238851,126.85015085,"광주광역시 광산구 첨단중앙로68번길 131 상가동1층108호(산월동,부영아파트)"
1300,13219567,한끼삼계탕&냉면,35.2117217,126.83737422,광주광역시 광산구 첨단내촌로 56 1층(월계동)
1301,10612636,아이커버거&치킨 첨단점,35.21241603,126.83540216,광주광역시 광산구 첨단내촌로 69-20 (월계동)
1302,13019036,"발대발 닭도리,찜닭",35.2101663,126.83615215,광주광역시 광산구 월계동 807-7 1층(월계동)
1303,13744847,사우나떡볶이로제&국물 첨단중앙점,35.22116533,126.85251153,광주광역시 광산구 앰코로 35 폭스존 1층 112호(쌍암동)
1304,13093683,엄마김밥 첨단점,35.21324938,126.84215154,광주광역시 광산구 월계동 766-2 1층(월계동)
1305,13541492,수제타코야끼 야꼬타끼,35.20730595,126.86203881,광주광역시 북구 신용동 713 1층104호(신용동)
1306,13453073,정담모밀 첨단점,35.21488826,126.85220616,광주광역시 광산구 쌍암동 694-91 1층 (쌍암동)
1307,13246339,탄탄면공방 광주첨단점,35.21530483,126.84923419,"광주광역시 광산구 임방울대로826번길 47 1층130,131호(쌍암동)"
1308,13208843,금오회수산,35.22213784,126.8759261,광주광역시 북구 용두동 1045-1 107호
1309,13670256,삶오로지다 족발보쌈 본점,35.21047252,126.87764847,광주광역시 북구 양산동 849 1층
1310,10769918,미스터피자 첨단수완점,35.2193623,126.842203,광주광역시 광산구 쌍암동 656-4
1311,13732954,OBPC 원바이트피자클럽,35.21424934,126.84642891,"광주광역시 광산구 임방울대로800번길 71 아크레타첨단4층401,402(월계동)"
1312,13529377,뉴크로피자,35.20652823,126.86062229,광주광역시 북구 첨단연신로107번길 45-22 토담빌딩 1층109호(신용동)
1313,13464134,호호잇 베이크샵,35.215530329349896,126.84971411487716,광주광역시 광산구 쌍암동 694-114 1층 105호(쌍암동)
1314,13290004,비스트로피자 광주첨단점,35.21680455,126.84279028,광주광역시 광산구 월계동 874-1 1층(월계동)
1315,13772797,심슨양곱창,35.21424934,126.84642891,"광주광역시 광산구 임방울대로800번길 71 아크레타 첨단1층 112,113호(월계동)"
1316,13080286,청년연어 첨단점,35.21461045,126.84848428,광주광역시 광산구 월계동 893-3 1층 103호(월계동)
1317,13905493,싸다아구찜&탕 첨단점,35.21536038,126.84970637,광주광역시 광산구 첨단강변로99번길 51 1층101호(쌍암동)
1318,13873251,읍천리382 첨단점,35.20894190571505,126.83924358436593,광주광역시 광산구 산월로 17 1층 (월계동)
1319,13865337,바로덮밥 첨단점,35.21947091,126.84281799,광주광역시 광산구 첨단중앙로152번길 5-6 1층(쌍암동)
1320,13732114,파더스 베이글 첨단점,35.21497144,126.84406799,광주광역시 광산구 첨단중앙로106번길 15 1.2층(월계동)
1321,13726469,프랭크버거 광주첨단신용점,35.20730595,126.86242767,광주광역시 북구 첨단연신로91번길 20-14 만강빌딩1층(신용동)
1322,10775053,백족발 첨단직영점,35.21944319,126.8457344,광주광역시 광산구 쌍암동 667-7 1층(쌍암동)
1323,10830602,김밥나라,35.2148882,126.84909533,"광주광역시 광산구 쌍암동 694-116 1층 101호(쌍암동, 에드가303)"
1324,13914469,와플대학 광주첨단캠퍼스,35.213648,126.844043,"광주광역시 광산구 월계로 169 1층 105호, 와플대학"
1325,13348264,꼬기부심,35.21694354,126.84976188,광주광역시 광산구 쌍암동 694-140 1층(쌍암동)
1326,13801603,볼빨간아구찜 첨단점,35.21133287,126.83826304,광주광역시 광산구 첨단중앙로67번길 79 1층 (월계동)
1327,12032652,동락,35.2167491,126.84901195,광주광역시 광산구 쌍암동 694-26 1층 (쌍암동)
1328,13671600,하이커피 첨단점,35.21497146,126.84481792,광주광역시 광산구 월계동 887-3 1층(월계동)
1329,10481457,금영순대왕족발 본점,35.218115,126.8363071,광주광역시 광산구 월계동 759-3
1330,13115534,돈 곱창전골,35.21094394,126.83351347,광주광역시 광산구 월계동 780-14 1층
1331,13808283,피자나라치킨공주 첨단점,35.21208278,126.83812415,광주광역시 광산구 월계로118번길 30-5 1층(월계동)
1332,13841369,위키드 라운지,35.21547146,126.84837315,"광주광역시 광산구 임방울대로826번길 42 더첨단 시너지타워2 4층 301,302호(월계동)"
1333,13559766,피굽남피자 광주8호첨단점,35.22169131447119,126.8516352416907,광주광역시 광산구 쌍암동 688-2 첨단대라수어썸시티 상가동 1층 126호(쌍암동)
1334,13612987,꼬소미꼬마김밥,35.22065878675182,126.8340433200044,"광주광역시 광산구 월계동 756-6 상가동2층201호(월계동,첨단라인5차아파트)"
1335,13817383,덕수파스타 광주첨단점,35.21133279,126.83387454,광주광역시 광산구 월계로34번길 37-19 1층(월계동)
1336,13093683,엄마김밥 첨단점,35.21324938,126.84215154,광주광역시 광산구 월계동 766-2 1층(월계동)
1337,13453070,정담 김치찌개,35.21488826,126.85220616,광주광역시 광산구 쌍암동 694-91 1층 (쌍암동)
1338,13505972,효자반점,35.21980426,126.84573439,광주광역시 광산구 쌍암동 666-6 1층(쌍암동)
1339,13840350,얌타코,35.214208392428624,126.87745456896558,광주광역시 북구 용두택지로 38 1층(용두동)
1340,13241375,안녕 나의하루,35.21129365941357,126.8476560925161,"광주광역시 광산구 산월동 884-1 1층 (산월동,호반3차상가 116호)"
1341,13669821,구이랑찌개랑,35.20652828,126.8636498,광주광역시 북구 신용동 732 첨단씨티빌딩  1층(신용동)
1342,13316269,임창정의 모서리족발 첨단점,35.21985977,126.84373456,광주광역시 광산구 쌍암동 661-6 1층(쌍암동)
1343,13290004,비스트로피자 광주첨단점,35.21680455,126.84279028,광주광역시 광산구 월계동 874-1 1층(월계동)
1344,13453070,정담 김치찌개,35.21488826,126.85220616,광주광역시 광산구 쌍암동 694-91 1층 (쌍암동)
1345,13895897,직화삼겹직구삼 첨단점,35.21633248,126.84898419,광주광역시 광산구 임방울대로826번길 25 1층 112호(쌍암동)
1346,13020738,육개장 명가 & 갈비탕,35.20902753,126.8359022,광주광역시 광산구 월계동 799-3 1층
1347,13850548,봉명동내커피 광주첨단점,35.21286043,126.83581877,광주광역시 광산구 월계로 92 1층(월계동)
1348,13898114,와우당냉면&참숯목살갈비 첨단점,35.21119406,126.84220714,광주광역시 광산구 첨단중앙로67번길 7-4 1층(월계동)
1349,13789618,여기카페 첨단점,35.21091617,126.8334857,광주광역시 광산구 월계로34번길 21-16 1층 (월계동)
1350,13714036,아메리칸피자 첨단양산점,35.22116533,126.85251153,광주광역시 광산구 앰코로 35 폭스존 1층 105호(쌍암동)
1351,10810044,머글소고기해장국,35.21916543,126.84515112,광주광역시 광산구 쌍암동 667-10 1층(쌍암동)
1352,13917496,뉴크로커피,35.20652823,126.86062229,광주광역시 북구 첨단연신로107번길 45-22 토담빌딩 1층109호(신용동)
1353,13453674,삼거리 시장국수&냉면 첨단점,35.21488826,126.85220616,광주광역시 광산구 쌍암동 694-91 1층 (쌍암동)
1354,13309695,영산강 오리탕 첨단점,35.20697265,126.86192772,광주광역시 북구 신용동 715 첨단 창우빌딩 1층 103호(신용동)
1355,13009897,자매떡볶이 첨단점,35.21302718,126.84198489,광주광역시 광산구 월계동 827-1
1356,13861697,그집 곱도리탕 첨단점,35.21119406,126.84220714,광주광역시 광산구 첨단중앙로67번길 7-4 1층(월계동)
1357,13898114,와우당냉면&참숯목살갈비 첨단점,35.21119406,126.84220714,광주광역시 광산구 첨단중앙로67번길 7-4 1층(월계동)
1358,13536956,행복뜰,35.22083188,126.84304016,광주광역시 광산구 쌍암동 663-9 (쌍암동)
1359,13895181,제육민국,35.21883207,126.84112371,"광주광역시 광산구 첨단중앙로 153 상가동 1층 102호(월계동, 첨단단지대주APT)"
1360,13714036,아메리칸피자 첨단양산점,35.22116533,126.85251153,광주광역시 광산구 앰코로 35 폭스존 1층 105호(쌍암동)
1361,13019031,옹고집 본가감자탕,35.2101663,126.83615215,광주광역시 광산구 월계동 807-7 1층(월계동)
1362,13830326,채선당 도시락&샐러드 광주첨단점,35.21361053,126.84642893,광주광역시 광산구 월계로 191 1층(월계동)
1363,13802356,요거팡 요거트아이스크림 양산점,35.20816719,126.87537095,"광주광역시 북구 연양로67번길 18 , 2동 1층(양산동)"
1364,13744847,사우나떡볶이로제&국물 첨단중앙점,35.22116533,126.85251153,광주광역시 광산구 앰코로 35 폭스존 1층 112호(쌍암동)
1365,12032652,동락,35.2167491,126.84901195,광주광역시 광산구 쌍암동 694-26 1층 (쌍암동)
1366,10808618,툴스돈카츠,35.20791705,126.86539961,광주 북구 신용동 835 1층
1367,13861696,대박삼겹김치찜&초대박등갈비김치찜,35.21119406,126.84220714,광주광역시 광산구 첨단중앙로67번길 7-4 1층(월계동)
1368,13712379,홍콩다방 광주첨단점,35.21513821,126.85115069,"광주광역시 광산구 첨단강변로99번길 21 1층102호(쌍암동,윤진리안채)"
1369,13829614,더벤티 첨단점,35.21427712,126.84645669,광주광역시 광산구 임방울대로800번길 71 아크레타 첨단 1층 101호(월계동)
1370,13853381,인생냉면 첨단점,35.22133196,126.85115054,광주광역시 광산구 첨단중앙로182번길 90 상가동 1층 127호 (쌍암동)
1371,13137828,미스터초밥 첨단점,35.2153326,126.84901199,"광주광역시 광산구 쌍암동 694-5 1층 128,129호(쌍암동)"
1372,13265904,청석골냉면,35.21097179,126.8378742,광주광역시 광산구 월계동 837-1 (월계동)
1373,13150844,대한수산,35.21394432,126.87620406,광주광역시 북구 용두동 285
1374,10864864,진솔찜닭도리탕,35.21136061,126.83648542,광주광역시 광산구 월계동 811-11
1375,10864836,진솔찜닭닭도리탕,35.21136061,126.83648542,광주광역시 광산구 월계동 811-11
1376,13407106,위대한수산,35.19994513,126.82995851,광주광역시 광산구 수완동 1134 1층(수완동)
1377,13143390,유치짬뽕&칡냉면,35.2142771,126.84556788,광주광역시 광산구 월계동 891-5 1층 111호
1378,13223660,한촌설렁탕 광주첨단점,35.22241514,126.84948399,광주광역시 북구 오룡동 1110-22 1층 104호 (오룡동)
1379,13026209,하솜면가 육전메밀,35.21347215,126.87559302,광주광역시 북구 용두동 282-7 1층
1380,13417000,이것이 국밥이다 수완점,35.19105726,126.83090309,"광주광역시 광산구 수완동 1397 (수완동,(1층))"
1381,13315849,청담피자 광주1호첨단점,35.21860993,126.84470673,광주광역시 광산구 쌍암동 668-11 1동1층101호
1382,13484218,바름카츠 첨단점,35.21536039,126.85020633,광주광역시 광산구 쌍암동 694-56 1층 104호(쌍암동)
1383,13417229,착한족발 첨단쌍암점,35.21308272,126.84145716,광주광역시 광산구 첨단내촌로70번길 92 1층(월계동)
1384,13348264,꼬기부심,35.21694354,126.84976188,광주광역시 광산구 쌍암동 694-140 1층(쌍암동)
1385,13304676,명인면옥 첨단점,35.21430523,126.86620494,광주광역시 북구 임방울대로 991 1층(신용동)
1386,13151663,첨단강원도 코다리찜,35.2192765,126.8430402,광주광역시 광산구 쌍암동 659-4 1층(쌍암동)
1387,13156773,형제송정떡갈비 수완점,35.19261275,126.8374858,"광주광역시 광산구 신창동 1224-2 1층(신창동,153빌딩)"
1388,13917496,뉴크로커피,35.20652823,126.86062229,광주광역시 북구 첨단연신로107번길 45-22 토담빌딩 1층109호(신용동)
1389,13874581,곱도리탕전문점 대가 첨단점,35.20652823,126.86062229,광주광역시 북구 첨단연신로107번길 45-22 토담빌딩 1층 106-1호 (신용동)
1390,13678693,바른초밥 첨단점,35.21419379,126.84634559,"광주광역시 광산구 월계동 892-8 아크레타 첨단1층 118,119,120호(월계동)"
1391,13789618,여기카페 첨단점,35.21091617,126.8334857,광주광역시 광산구 월계로34번길 21-16 1층 (월계동)
1392,13009897,자매떡볶이 첨단점,35.21302718,126.84198489,광주광역시 광산구 월계동 827-1
1393,13899474,물회&회덮밥 8000원 첨단점,35.21119406,126.84220714,광주광역시 광산구 첨단중앙로67번길 7-4 1층(월계동)
1394,13265904,청석골냉면,35.21097179,126.8378742,광주광역시 광산구 월계동 837-1 (월계동)
1395,13246339,탄탄면공방 광주첨단점,35.21530483,126.84923419,"광주광역시 광산구 임방울대로826번길 47 1층130,131호(쌍암동)"
1396,10017955,깐깐한족발 본점,35.21563806,126.84526231,광주 광산구 월계동 886-3 891-4
1397,13075877,신쭈꾸미,35.2069449,126.86337204,광주광역시 북구 신용동 727 1층(신용동)
1398,13456206,파스타입니다 첨단점,35.207197870156335,126.86259373125336,광주광역시 북구 신용동 719 1층 107호(신용동)
1399,13767709,해녀촌,35.21662044938853,126.84859058480988,"광주광역시 광산구 임방울대로826번길 20 101,102호 (월계동, 수연빌딩)"
1400,13670256,삶오로지다 족발보쌈 본점,35.21047252,126.87764847,광주광역시 북구 양산동 849 1층
1401,13609926,청자다방 첨단2지구점,35.20694484,126.86012233,광주광역시 북구 신용동 702 1층 109호(신용동)
1402,13678693,바른초밥 첨단점,35.21419379,126.84634559,"광주광역시 광산구 월계동 892-8 아크레타 첨단1층 118,119,120호(월계동)"
1403,13640544,PIZZA FULL 첨단본점,35.22094309,126.84990066,"광주광역시 광산구 쌍암동 687-5 상가1동1층107호(쌍암동,첨단대라수3차)"
1404,13140468,공차 첨단엘씨타워점,35.2138049,126.84348474,광주광역시 광산구 월계동 889-2
1405,13529377,뉴크로피자,35.20652823,126.86062229,광주광역시 북구 첨단연신로107번길 45-22 토담빌딩 1층109호(신용동)
1406,13006376,카페달링 첨단점,35.20874979,126.83595775,광주광역시 광산구 월계동 779-2 1층(월계동)
1407,13850548,봉명동내커피 광주첨단점,35.21286043,126.83581877,광주광역시 광산구 월계로 92 1층(월계동)
1408,13645540,열정국밥,35.21091615,126.83231913,광주광역시 광산구 월계동 781-2 1층
1409,13563496,불 닭발의신 첨단점,35.21136061,126.83648542,"광주광역시 광산구 월계동 811-11 (월계동,(1층))"
1410,13075286,이백장돈가스 첨단점,35.21250605320084,126.83457664389313,"광주광역시 광산구 월계로 77 상가동1층103호(월계동,첨단모아미래도 아파트)"
1411,13918442,압력솥 사골김치찜 1392 첨단점,35.21308272,126.84145716,광주광역시 광산구 첨단내촌로70번길 92 1층(월계동)
1412,13810306,인생 김치찌개,35.22133196,126.85115054,광주광역시 광산구 첨단중앙로182번길 90 상가동 1층 127호 (쌍암동)
1413,13426540,시아루 떡이야기,35.2103886,126.84242936,광주광역시 광산구 월계동 897-1 1층(월계동)
1414,13865337,바로덮밥 첨단점,35.21947091,126.84281799,광주광역시 광산구 첨단중앙로152번길 5-6 1층(쌍암동)
1415,13323570,요달의찜닭 광주쌍암점,35.22022083,126.84306795,광주광역시 광산구 쌍암동 662-5 1층(쌍암동)
1416,13463841,정직한 보쌈 본점,35.20694484,126.86012233,"광주광역시 북구 신용동 702 신용동,106,107호"
1417,13417229,착한족발 첨단쌍암점,35.21308272,126.84145716,광주광역시 광산구 첨단내촌로70번길 92 1층(월계동)
1418,13458742,대구 3대천왕 매운갈비찜,35.20991637,126.83865193,광주광역시 광산구 월계동 844-2 1층(월계동)
1419,13302814,마왕족발 광주첨단점,35.21605473,126.84828981,광주광역시 광산구 월계동 881-1 1층 110호(월계동)
1420,13787142,1004 아구찜,35.21394391,126.85181733,광주광역시 광산구 월계로 235-8 미르채리버파크 2층 214-224호(쌍암동)
1421,10675630,상무초밥 첨단직영점,35.21513811,126.8450679,광주광역시 광산구 첨단중앙로106번길 37 가동 1층(월계동)
1422,13528914,아이러브피자,35.22163704,126.82501396,광주광역시 광산구 비아동 87-2 1층(비아동)
1423,13574149,난타5000첨단남부대점,35.20741674,126.84406818,"광주광역시 광산구 산월동 886-1 상가동 1층 113호(산월동,부영사랑으로아파트)"
1424,13578190,아이러브피자 첨단점,35.20905536,126.83920746,광주광역시 광산구 월계동 843-4 1층(월계동)
1425,13362573,애월항,35.214401,126.849074,광주광역시 광산구 쌍암동 694-60 2층애월항
1426,13269871,마루요시 첨단점,35.21605469,126.84626221,광주광역시 광산구 월계동 878-8 1층(월계동)
1427,13640308,커피쿡 광주첨단아크레타점,35.21419379,126.84634559,광주광역시 광산구 월계동 892-8 아크레타 첨단 1층 114호 (월계동)
1428,13865417,댄싱컵 광주첨단2지구점,35.20730595,126.86242767,광주광역시 북구 첨단연신로91번길 20-14 1층(신용동)
1429,13779322,두마리찜닭 두찜 첨단1지구점,35.21877657,126.84381792,광주광역시 광산구 첨단중앙로152번길 30 1층(쌍암동)
1430,13149648,판다마라탕,35.20902753,126.8359022,광주광역시 광산구 월계동 799-3 1층
1431,13699645,요녀석 파스타 &필라프 첨단점,35.211345811564115,126.8456829964255,"광주광역시 광산구 첨단중앙로68번길 60 상가1동1층112호(산월동,첨단3-1차호반리젠시빌)"
1432,13861696,대박삼겹김치찜&초대박등갈비김치찜,35.21119406,126.84220714,광주광역시 광산구 첨단중앙로67번길 7-4 1층(월계동)
1433,13214525,마공방&수제꿔바로우 첨단점,35.21513813,126.84637334,광주광역시 광산구 월계동 885-1 월계동주차빌딩 1층 122(일부)호 (월계동)
1434,13727012,볶음밥 볶는 남자,35.20897209,126.84223497,광주광역시 광산구 산월로 45 1층(월계동)
1435,13269871,마루요시 첨단점,35.21605469,126.84626221,광주광역시 광산구 월계동 878-8 1층(월계동)
1436,10594397,토픽쌀피자 첨단점,35.21671937422007,126.83815279941513,광주광역시 광산구 월계로 117-32 상가1층 토픽쌀피자
1437,13469767,코랑커피,35.20694485,126.86070561,"광주광역시 북구 신용동 704 (신용동,1층106호)"
1438,13302814,마왕족발 광주첨단점,35.21605473,126.84828981,광주광역시 광산구 월계동 881-1 1층 110호(월계동)
1439,13424663,꽃섬,35.21394382,126.84634559,"광주광역시 광산구 월계동 892-7 (월계동,, 1층)"
1440,10675630,상무초밥 첨단직영점,35.21513811,126.8450679,광주광역시 광산구 첨단중앙로106번길 37 가동 1층(월계동)
1441,13323833,피자마루 첨단점,35.21058313,126.84873435,"광주광역시 광산구 산월동 884-1 산월동,호반@상가3-2차 101호(1층)"
1442,13822941,홍쓰덮밥 광주신용점,35.20958357,126.86837153,광주광역시 북구 임방울대로1042번길 49 1층(신용동)
1443,13758906,바른보쌈1990 첨단점,35.20650044,126.85948351,광주광역시 북구 첨단연신로91번길 44 대성빌딩 1층 109호 (신용동)
1444,13365957,도담베이커리카페,35.20738892,126.84137398,"광주광역시 광산구 월계동 864-1 남부대학교 103동 지하1층,지상1층"
1445,13873251,읍천리382 첨단점,35.20894190571505,126.83924358436593,광주광역시 광산구 산월로 17 1층 (월계동)
1446,13762263,순돌이 회수산 첨단점,35.21513811,126.8450679,광주광역시 광산구 첨단중앙로106번길 37 나동 1층(월계동)
1447,13875435,찐한찜닭 첨단점,35.20650044,126.85948351,광주광역시 북구 첨단연신로91번길 44 대성빌딩 1층 109호 (신용동)
1448,13149648,판다마라탕,35.20902753,126.8359022,광주광역시 광산구 월계동 799-3 1층
1449,13909504,새울상회  곱창볶음,35.21086136,126.87762068,"광주광역시 북구 양산로 27 , 1층(양산동)"
1450,13127896,설빙 광주첨단2지구점,35.20652827,126.86251101,"광주광역시 북구 첨단연신로91번길 20-4 (신용동, 지상2층, 202호)"
1451,13800748,버터풀앤크리멀러스 첨단점,35.21424934,126.84642891,광주광역시 광산구 임방울대로800번길 71 아크레타 첨단5층 501-504호(월계동)
1452,13791818,소프트젤라또,35.20902762,126.84079065,광주광역시 광산구 산월로 33 1층(월계동)
1453,10872180,마왕돼지김치찌개,35.21016633,126.83826307,광주광역시 광산구 월계동 836-7
1454,13473609,치교치밥&치킨 광주첨단점,35.21205507,126.84195714,광주광역시 광산구 월계로150번길 27 1층(월계동)
1455,13907737,콩하우스 첨단점,35.20730594,126.86176106,광주광역시 북구 첨단연신로107번길 21 일취빌딩 1층 107호 (신용동)
1456,13714036,아메리칸피자 첨단양산점,35.22116533,126.85251153,광주광역시 광산구 앰코로 35 폭스존 1층 105호(쌍암동)
1457,13156361,우술재 백숙,35.21033296,126.83706873,광주광역시 광산구 첨단내촌로 39 (월계동)
1458,13874581,곱도리탕전문점 대가 첨단점,35.20652823,126.86062229,광주광역시 북구 첨단연신로107번길 45-22 토담빌딩 1층 106-1호 (신용동)
1459,13787142,1004 아구찜,35.21394391,126.85181733,광주광역시 광산구 월계로 235-8 미르채리버파크 2층 214-224호(쌍암동)
1460,13895468,오로라 요거트 아이스크림 광주점,35.2102775,126.84242936,광주광역시 광산구 첨단중앙로47번길 8-14 1층 (월계동)
1461,13850548,봉명동내커피 광주첨단점,35.21286043,126.83581877,광주광역시 광산구 월계로 92 1층(월계동)
1462,13191656,도야족발보쌈 첨단점,35.21513813,126.84637334,광주광역시 광산구 월계동 885-1 1층 122호일부(110호)
1463,13812866,화채업자 첨단점,35.21091617,126.8334857,광주광역시 광산구 월계로34번길 21-16 1층 (월계동)
1464,13882895,대창낙곱새,35.21094394,126.83354125,광주광역시 광산구 월계로34번길 21-16 1층 (월계동)
1465,13893007,무공돈까스 첨단지구점,35.22244295,126.85173379,광주광역시 북구 첨단과기로208번길 43-22 와이어스파크(지식산업센터) 2층 R-228호(오룡동)
1466,13918442,압력솥 사골김치찜 1392 첨단점,35.21308272,126.84145716,광주광역시 광산구 첨단내촌로70번길 92 1층(월계동)
1467,13383424,요켈 샐러드,35.21158338,126.87017688,광주광역시 북구 용두동 311-50 1층 (용두동)
1468,13524050,한식주점 훈민정음 첨단점,35.21458264,126.8462067,광주광역시 광산구 월계동 892-1 1층(월계동)
1469,13873251,읍천리382 첨단점,35.20894190571505,126.83924358436593,광주광역시 광산구 산월로 17 1층 (월계동)
1470,13810742,에그폭탄덮밥,35.22133196,126.85115054,광주광역시 광산구 첨단중앙로182번길 90 상가동 1층 127호 (쌍암동)
1471,13840350,얌타코,35.214208392428624,126.87745456896558,광주광역시 북구 용두택지로 38 1층(용두동)
1472,13180622,카레나이스,35.21172174,126.83973512,광주광역시 광산구 월계동 832-1 1층 가운데(월계동)
1473,13791814,화채의미 첨단점,35.20902762,126.84079065,광주광역시 광산구 산월로 33 1층(월계동)
1474,13808283,피자나라치킨공주 첨단점,35.21208278,126.83812415,광주광역시 광산구 월계로118번길 30-5 1층(월계동)
1475,13705241,닭치고낙곱새 광주첨단점,35.207907919817,126.86512661940537,"광주광역시 북구 첨단연신로108번길 31-16 , 1층(신용동)"
1476,13692940,성심카츠,35.20991637,126.83862416,광주광역시 광산구 첨단내촌로36번길 26 1층(월계동)
1477,13777172,성미초밥,35.21663794,126.84515119,광주광역시 광산구 첨단중앙로124번길 51 (월계동)
1478,12027052,도마카이 스시&참치 전문점,35.21916544,126.84578996,광주광역시 광산구 쌍암동 667-8
1479,13574571,띠띠와플,35.209524,126.839433,광주광역시 광산구 월계동 846-5 띠띠와플
1480,13690548,월드컵밥,35.20994411,126.83687431,광주광역시 광산구 월계동 804-1 1층(월계동)
1481,13832029,김선장 회센터,35.20730591,126.85978901,"광주광역시 북구 첨단연신로107번길 41 제2동1층105호,106호,107호,108호"
1482,13908938,항아리 김치찜,35.20897208,126.84129061,광주광역시 광산구 산월로 35-1
1483,13463841,정직한 보쌈 본점,35.20694484,126.86012233,"광주광역시 북구 신용동 702 신용동,106,107호"
1484,13283440,사랑방수제도시락,35.2093609,126.84009626,광주광역시 광산구 월계동 850-20 1층 (월계동)
1485,13032900,해담 첨단점,35.21852667,126.84842863,광주광역시 광산구 쌍암동 682-4 1층
1486,13086171,일계양득 첨단점,35.20897207,126.84126283,광주광역시 광산구 월계동 851-16 1층(월계동)
1487,13895468,오로라 요거트 아이스크림 광주점,35.2102775,126.84242936,광주광역시 광산구 첨단중앙로47번길 8-14 1층 (월계동)
1488,13408584,파스타17 첨단본점,35.215350690072846,126.84639211547105,광주광역시 광산구 월계동 885-1 월계동주차빌딩 1층 122(일부)호(월계동)
1489,13484415,프랭크버거 광주첨단병원점,35.2203042,126.84540107,광주광역시 광산구 쌍암동 666-4 1층(쌍암동)
1490,13447442,불장난 파스타 첨단점,35.20836144,126.86512185,광주광역시 북구 첨단연신로108번길 39-18 1층(신용동)
1491,13861697,그집 곱도리탕 첨단점,35.21119406,126.84220714,광주광역시 광산구 첨단중앙로67번길 7-4 1층(월계동)
1492,13371073,혼마구로 참치,35.222323168120404,126.84965660928681,광주광역시 북구 첨단과기로208번길 43-10 1층 136호(오룡동)
1493,13791808,왕링마라탕 첨단점,35.20902762,126.84079065,광주광역시 광산구 산월로 33 1층(월계동)
1494,10775053,백족발 첨단직영점,35.21944319,126.8457344,광주광역시 광산구 쌍암동 667-7 1층(쌍암동)
1495,13408759,덮덮밥 첨단점,35.21377716,126.84573454,"광주광역시 광산구 월계동 891-7 월계동,(1층)"
1496,13791814,화채의미 첨단점,35.20902762,126.84079065,광주광역시 광산구 산월로 33 1층(월계동)
1497,13528914,아이러브피자,35.22163704,126.82501396,광주광역시 광산구 비아동 87-2 1층(비아동)
1498,13836198,만선당 아구찜보리굴비 첨단점,35.21663796,126.8464844,"광주광역시 광산구 첨단중앙로124번길 77 , 1층(월계동)"
1499,13640544,PIZZA FULL 첨단본점,35.22094309,126.84990066,"광주광역시 광산구 쌍암동 687-5 상가1동1층107호(쌍암동,첨단대라수3차)"
1500,13911414,챙길 밥 첨단신도시점,35.21091623,126.83706871,광주광역시 광산구 첨단내촌로 45-4 1층(월계동)
1501,13640544,PIZZA FULL 첨단본점,35.22094309,126.84990066,"광주광역시 광산구 쌍암동 687-5 상가1동1층107호(쌍암동,첨단대라수3차)"
1502,13873251,읍천리382 첨단점,35.20894190571505,126.83924358436593,광주광역시 광산구 산월로 17 1층 (월계동)
1503,13800748,버터풀앤크리멀러스 첨단점,35.21424934,126.84642891,광주광역시 광산구 임방울대로800번길 71 아크레타 첨단5층 501-504호(월계동)
1504,13347518,봉구스밥버거 남부대점,35.20897205,126.84004072,광주광역시 광산구 월계동 851-24 1층 (월계동)
1505,13680472,하노이어이,35.21319375,126.83687423,광주광역시 광산구 월계동 771-13 (월계동)
1506,13142272,한솥도시락 남부대점,35.20899982,126.83970742,광주광역시 광산구 월계동 849-6 1층
1507,13438349,피자알볼로 첨단1지구점,35.21812324961763,126.84851697107749,"광주광역시 광산구 쌍암동 683-2 상가동 101호(쌍암동,광주첨단 LH2단지)"
1508,13596289,백종원의 롤링파스타첨단점,35.21516585,126.8432625,"광주광역시 광산구 월계동 888-10 , 2층 206호(월계동)"
1509,13690548,월드컵밥,35.20994411,126.83687431,광주광역시 광산구 월계동 804-1 1층(월계동)
1510,13315849,청담피자 광주1호첨단점,35.21860993,126.84470673,광주광역시 광산구 쌍암동 668-11 1동1층101호
1511,13915590,혼밥대장 한식전문점 첨단점,35.21377716,126.84573454,광주광역시 광산구 임방울대로800번길 82 1층 (월계동)
1512,13302814,마왕족발 광주첨단점,35.21605473,126.84828981,광주광역시 광산구 월계동 881-1 1층 110호(월계동)
1513,13873251,읍천리382 첨단점,35.20894190571505,126.83924358436593,광주광역시 광산구 산월로 17 1층 (월계동)
1514,13574149,난타5000첨단남부대점,35.20741674,126.84406818,"광주광역시 광산구 산월동 886-1 상가동 1층 113호(산월동,부영사랑으로아파트)"
1515,13914469,와플대학 광주첨단캠퍼스,35.213648,126.844043,"광주광역시 광산구 월계로 169 1층 105호, 와플대학"
1516,13805781,모도리보쌈족발,35.20872255,126.86803825,광주광역시 북구 연양로7번길 53 1층 (신용동)
1517,13323570,요달의찜닭 광주쌍암점,35.22022083,126.84306795,광주광역시 광산구 쌍암동 662-5 1층(쌍암동)
1518,13361341,사랑각 첨단점,35.21458263,126.84573452,"광주광역시 광산구 월계동 891-4 (월계동,(1층))"
1519,13818466,청년김치찌개&김치찜 신가수완점,35.18930754,126.83593046,"광주광역시 광산구 신창로35번길 20 상가동1층109호(신가동,신창6차부영사랑으로)"
1520,13427869,입큰아구찜&알곤이찜,35.22241514,126.84948399,광주광역시 북구 오룡동 1110-22 1층 115호(오룡동)
1521,13850573,패스트롤 첨단점,35.22249846,126.84951177,광주광역시 북구 첨단과기로208번길 43-10 마루힐아이비씨지식산업센터1층103-a호(오룡동)
1522,13471581,할리스 첨단점,35.21434282673664,126.84613155294744,"광주광역시 광산구 월계동 867-1 1층 111호 (월계동, 첨단센츄럴빌딩)"
1523,13524050,한식주점 훈민정음 첨단점,35.21458264,126.8462067,광주광역시 광산구 월계동 892-1 1층(월계동)
1524,13645540,열정국밥,35.21091615,126.83231913,광주광역시 광산구 월계동 781-2 1층
1525,13239353,착한가격 굿 족발&보쌈,35.19480689,126.83418048,"광주광역시 광산구 신창동 1268 1층 상가동 104호(신창동,신창지구도시공사아파트)"
1526,12031761,수진초밥,35.20983351,126.86623282,광주광역시 북구 신용동 762 1층(신용동)
1527,13043776,보자기즉석왕족발,35.22110929,126.82348633,광주광역시 광산구 비아동 706-3 1층 (비아동)
1528,13680746,수제돈가스 청연 첨단점,35.21230488,126.83218022,"광주광역시 광산구 월계동 763-6  (월계동,첨단 호반2차@ 상가동 112호(1층))"
1529,13747599,엘리펀트피자 광주첨단점,35.21088845,126.83704094,광주광역시 광산구 첨단내촌로 45-4 1층(월계동)
1530,13578190,아이러브피자 첨단점,35.20905536,126.83920746,광주광역시 광산구 월계동 843-4 1층(월계동)
1531,13574149,난타5000첨단남부대점,35.20741674,126.84406818,"광주광역시 광산구 산월동 886-1 상가동 1층 113호(산월동,부영사랑으로아파트)"
1532,13640544,PIZZA FULL 첨단본점,35.22094309,126.84990066,"광주광역시 광산구 쌍암동 687-5 상가1동1층107호(쌍암동,첨단대라수3차)"
1533,13459186,초밥생각,35.20908383,126.88025938,광주광역시 북구 양산동 1028 1층(양산동)
1534,13360146,참치연구소 참치&연어,35.211643,126.836221,광주광역시 광산구 월계동 775-8 1층(월계동)
1535,13260603,이삭토스트 광주남부대학점,35.20783331,126.84098511,"광주광역시 광산구 월계동 864-1 110동 지하1층 (월계동,남부대학교)"
1536,13557228,보울레시피 BOWL RECIPE 첨단점,35.22241514,126.84948399,광주광역시 북구 오룡동 1110-22 1층 106-a호(오룡동)
1537,12027052,도마카이 스시&참치 전문점,35.21916544,126.84578996,광주광역시 광산구 쌍암동 667-8
1538,13670256,삶오로지다 족발보쌈 본점,35.21047252,126.87764847,광주광역시 북구 양산동 849 1층
1539,13917087,명품육회,35.20875033,126.86803825,광주광역시 북구 연양로7번길 53 1층 (신용동)
1540,13453073,정담모밀 첨단점,35.21488826,126.85220616,광주광역시 광산구 쌍암동 694-91 1층 (쌍암동)
1541,13608254,첨단알찜,35.22241514,126.84948399,"광주광역시 북구 오룡동 1110-22 2층 221,222호(오룡동)"
1542,13640544,PIZZA FULL 첨단본점,35.22094309,126.84990066,"광주광역시 광산구 쌍암동 687-5 상가1동1층107호(쌍암동,첨단대라수3차)"
1543,13137201,미스사이공 첨단점,35.22160957,126.84351232,광주광역시 광산구 쌍암동 654-18 1층
1544,13355269,또아식빵 첨단점,35.215027,126.84434574,광주광역시 광산구 월계동 888-7 1층(월계동)
1545,13552674,199인생아구찜,35.2182211,126.84562333,"광주광역시 광산구 쌍암동 669-4 (쌍암동,105.106호(1층))"
1546,13876125,1번지 참치,35.22249846,126.84951177,광주광역시 북구 첨단과기로208번길 43-10 1층 136호(오룡동)
1547,13122271,흐엉 쌀국수,35.21997085,126.84231802,"광주광역시 광산구 쌍암동 655-3 1층 110,111호(쌍암동)"
1548,13292535,조개까는자리 회 수산,35.21293224192996,126.83727061034051,광주광역시 광산구 월계동 771-12 (월계동)
1549,10675630,상무초밥 첨단직영점,35.21513811,126.8450679,광주광역시 광산구 첨단중앙로106번길 37 가동 1층(월계동)
1550,13042725,스파게티스토리,35.20747227,126.84256831,"광주광역시 광산구 첨단중앙로 23 110동 지하1층(월계동,남부대학교)"
1551,13678693,바른초밥 첨단점,35.21419379,126.84634559,"광주광역시 광산구 월계동 892-8 아크레타 첨단1층 118,119,120호(월계동)"
1552,13313552,덕장진땡이 본점,35.2203875,126.84426228,광주광역시 광산구 쌍암동 666-1 A동 1층(쌍암동)
1553,13609926,청자다방 첨단2지구점,35.20694484,126.86012233,광주광역시 북구 신용동 702 1층 109호(신용동)
1554,13858155,타코야끼킹,35.21910597729612,126.84149653222424,"광주광역시 광산구 첨단중앙로 153 상가동 1층 102호(월계동, 첨단단지대주APT)"
1555,10815900,아구랑 탕이랑,35.20897248,126.86509406,광주 북구 신용동 792 1층(신용동)
1556,13376559,유달리 첨단대라수점,35.22133196,126.85115054,광주광역시 광산구 쌍암동 688-2 1층113호(쌍암동)
1557,13808140,착한가격 굿 족발&보쌈,35.20727814,126.86012232,광주광역시 북구 첨단연신로107번길 37 1층 108호(신용동)
1558,13559766,피굽남피자 광주8호첨단점,35.22169131447119,126.8516352416907,광주광역시 광산구 쌍암동 688-2 첨단대라수어썸시티 상가동 1층 126호(쌍암동)
1559,13430294,하림맥시칸치킨 첨단점,35.21522152,126.85042853,"광주광역시 광산구 월계로 223-20 1층 115호 (쌍암동, 첨단도휘에드가 2차)"
1560,13361341,사랑각 첨단점,35.21458263,126.84573452,"광주광역시 광산구 월계동 891-4 (월계동,(1층))"
1561,10675630,상무초밥 첨단직영점,35.21513811,126.8450679,광주광역시 광산구 첨단중앙로106번길 37 가동 1층(월계동)
1562,12024995,마미쿡 수제버거&치킨,35.2211931,126.85237266,광주광역시 광산구 쌍암동 688-4 1층 134호(쌍암동)
1563,13017298,동명카츠 신용점(첨단2지구점),35.20872247,126.86314979,광주광역시 북구 신용동 684 217동 105호
1564,13246339,탄탄면공방 광주첨단점,35.21530483,126.84923419,"광주광역시 광산구 임방울대로826번길 47 1층130,131호(쌍암동)"
1565,10675630,상무초밥 첨단직영점,35.21513811,126.8450679,광주광역시 광산구 첨단중앙로106번길 37 가동 1층(월계동)
1566,13895897,직화삼겹직구삼 첨단점,35.21633248,126.84898419,광주광역시 광산구 임방울대로826번길 25 1층 112호(쌍암동)
1567,13127896,설빙 광주첨단2지구점,35.20652827,126.86251101,"광주광역시 북구 첨단연신로91번길 20-4 (신용동, 지상2층, 202호)"
1568,13453073,정담모밀 첨단점,35.21488826,126.85220616,광주광역시 광산구 쌍암동 694-91 1층 (쌍암동)
1569,13408759,덮덮밥 첨단점,35.21377716,126.84573454,"광주광역시 광산구 월계동 891-7 월계동,(1층)"
1570,13893007,무공돈까스 첨단지구점,35.22244295,126.85173379,광주광역시 북구 첨단과기로208번길 43-22 와이어스파크(지식산업센터) 2층 R-228호(오룡동)
1571,13862763,돼지가 김치찜 했어 첨단점,35.20694484,126.85976125,광주광역시 북구 첨단연신로107번길 45-11 1층102호(신용동)
1572,13905493,싸다아구찜&탕 첨단점,35.21536038,126.84970637,광주광역시 광산구 첨단강변로99번길 51 1층101호(쌍암동)
1573,10830535,앞다리집,35.20747259,126.86195548,광주광역시 북구 신용동 713
1574,13558894,다수니와플 양산첨단점,35.20463993,126.88281482,광주광역시 북구 일곡동 753-97 1층
1575,13747599,엘리펀트피자 광주첨단점,35.21088845,126.83704094,광주광역시 광산구 첨단내촌로 45-4 1층(월계동)
1576,12026821,극한순두부찌개첨단점,35.20936088,126.8390408,광주광역시 광산구 월계동 845-6 1층
1577,13150222,족발이땡기는날 양산점,35.21139145164912,126.88065928643437,광주광역시 북구 양산동 721 1층
1578,13788151,초밥대통령 광주양산점,35.21288887,126.87520418,광주광역시 북구 하서로 428 상록수타워 1층 104호(용두동)
1579,13463841,정직한 보쌈 본점,35.20694484,126.86012233,"광주광역시 북구 신용동 702 신용동,106,107호"
1580,13408584,파스타17 첨단본점,35.215350690072846,126.84639211547105,광주광역시 광산구 월계동 885-1 월계동주차빌딩 1층 122(일부)호(월계동)
1581,13524050,한식주점 훈민정음 첨단점,35.21458264,126.8462067,광주광역시 광산구 월계동 892-1 1층(월계동)
1582,13678693,바른초밥 첨단점,35.21419379,126.84634559,"광주광역시 광산구 월계동 892-8 아크레타 첨단1층 118,119,120호(월계동)"
1583,13680746,수제돈가스 청연 첨단점,35.21230488,126.83218022,"광주광역시 광산구 월계동 763-6  (월계동,첨단 호반2차@ 상가동 112호(1층))"
1584,13075286,이백장돈가스 첨단점,35.21250605320084,126.83457664389313,"광주광역시 광산구 월계로 77 상가동1층103호(월계동,첨단모아미래도 아파트)"
1585,13363720,하루엔소쿠 첨단신용점,35.20730595,126.86203881,광주광역시 북구 신용동 713 103호
1586,13484218,바름카츠 첨단점,35.21536039,126.85020633,광주광역시 광산구 쌍암동 694-56 1층 104호(쌍암동)
1587,13302814,마왕족발 광주첨단점,35.21605473,126.84828981,광주광역시 광산구 월계동 881-1 1층 110호(월계동)
1588,13371073,혼마구로 참치,35.222323168120404,126.84965660928681,광주광역시 북구 첨단과기로208번길 43-10 1층 136호(오룡동)
1589,10503524,영양족발보쌈,35.20880583,126.86495519,광주광역시 북구 신용동 808번지 101호
1590,10545130,생생돈까스 첨단점,35.20661156,126.86095559,광주광역시 북구 신용동 710 1층 101호(신용동)
1591,13578190,아이러브피자 첨단점,35.20905536,126.83920746,광주광역시 광산구 월계동 843-4 1층(월계동)
1592,13315849,청담피자 광주1호첨단점,35.21860993,126.84470673,광주광역시 광산구 쌍암동 668-11 1동1층101호
1593,13646427,오로지아구찜 2호점,35.2095558,126.86828821,광주광역시 북구 신용동 602-10 1층(신용동)
1594,13002624,청자다방 쌍암점,35.22083189,126.84373454,광주광역시 광산구 쌍암동 663-6 1층
1595,13840788,하랑은 초밥&덮밥&모밀 신용점,35.20897248,126.86526071,광주광역시 북구 첨단연신로108번길 59-17 1층 101호(신용동)
1596,12006347,맘스케익 광주1호점,35.2140295,126.8773976,광주광역시 북구 용두동 1083 1층(용두동)
1597,10808618,툴스돈카츠,35.20791705,126.86539961,광주 북구 신용동 835 1층
1598,10859268,두마리찜닭 두찜 첨단2지구점,35.206551,126.8594921,광주광역시 북구 신용동 691 (대성빌딩 1층 102호 (신용동))
1599,13574149,난타5000첨단남부대점,35.20741674,126.84406818,"광주광역시 광산구 산월동 886-1 상가동 1층 113호(산월동,부영사랑으로아파트)"
1600,13747599,엘리펀트피자 광주첨단점,35.21088845,126.83704094,광주광역시 광산구 첨단내촌로 45-4 1층(월계동)
1601,13290004,비스트로피자 광주첨단점,35.21680455,126.84279028,광주광역시 광산구 월계동 874-1 1층(월계동)
1602,13596289,백종원의 롤링파스타첨단점,35.21516585,126.8432625,"광주광역시 광산구 월계동 888-10 , 2층 206호(월계동)"
1603,10851967,이삼례할머니 해물찜동태탕,35.20613916,126.84704017,"광주광역시 광산구 산월동 774 (산월동, (1층))"
1604,10852639,수오돌이,35.21241606,126.83720755,광주광역시 광산구 월계동 813-6 1층(월계동)
1605,13137828,미스터초밥 첨단점,35.2153326,126.84901199,"광주광역시 광산구 쌍암동 694-5 1층 128,129호(쌍암동)"
1606,13714036,아메리칸피자 첨단양산점,35.22116533,126.85251153,광주광역시 광산구 앰코로 35 폭스존 1층 105호(쌍암동)
1607,13696618,신묘한 닭도리탕&곱도리탕 신창점,35.19714007,126.84045765,"광주광역시 광산구 신창로138번길 15-16 (신창동,(1층))"
1608,13762463,본촌국밥,35.220286,126.880179,광주광역시 북구 본촌마을길 81 1층
1609,13427869,입큰아구찜&알곤이찜,35.22241514,126.84948399,광주광역시 북구 오룡동 1110-22 1층 115호(오룡동)
1610,13019035,발대발 신화불닭,35.2101663,126.83615215,광주광역시 광산구 월계동 807-7 1층(월계동)
1611,13192698,보글보글 찌개전문,35.19808498,126.87439906,광주광역시 북구 양산동 660-10 1층(양산동)
1612,13917496,뉴크로커피,35.20652823,126.86062229,광주광역시 북구 첨단연신로107번길 45-22 토담빌딩 1층109호(신용동)
1613,13874581,곱도리탕전문점 대가 첨단점,35.20652823,126.86062229,광주광역시 북구 첨단연신로107번길 45-22 토담빌딩 1층 106-1호 (신용동)
1614,13807180,불밤포차,35.20730592,126.86045562,광주광역시 북구 첨단연신로107번길 35 1층 105호(신용동)
1615,13529377,뉴크로피자,35.20652823,126.86062229,광주광역시 북구 첨단연신로107번길 45-22 토담빌딩 1층109호(신용동)
1616,13080286,청년연어 첨단점,35.21461045,126.84848428,광주광역시 광산구 월계동 893-3 1층 103호(월계동)
1617,13312258,달리는커피 첨단1호점,35.21057310925684,126.83818075246765,광주광역시 광산구 월계동 836-5 1층
1618,13526913,테그42 광주첨단점,35.21624918,126.85037296,광주광역시 광산구 쌍암동 694-118 1층 101(일부)호(쌍암동)
1619,13714036,아메리칸피자 첨단양산점,35.22116533,126.85251153,광주광역시 광산구 앰코로 35 폭스존 1층 105호(쌍암동)
1620,13191656,도야족발보쌈 첨단점,35.21513813,126.84637334,광주광역시 광산구 월계동 885-1 1층 122호일부(110호)
1621,13323570,요달의찜닭 광주쌍암점,35.22022083,126.84306795,광주광역시 광산구 쌍암동 662-5 1층(쌍암동)
1622,13713145,큰손김치찜&찌개,35.20694486,126.86131667,광주광역시 북구 첨단연신로91번길 32-10 1층 109호(신용동)
1623,13907737,콩하우스 첨단점,35.20730594,126.86176106,광주광역시 북구 첨단연신로107번길 21 일취빌딩 1층 107호 (신용동)
1624,13358151,바다세상,35.21880434,126.84379014,광주광역시 광산구 쌍암동 658-5 1층(쌍암동)
1625,13466795,샐러브,35.20897209,126.84226275,광주광역시 광산구 월계동 899-8 1층(월계동)
1626,13787142,1004 아구찜,35.21394391,126.85181733,광주광역시 광산구 월계로 235-8 미르채리버파크 2층 214-224호(쌍암동)
1627,13895468,오로라 요거트 아이스크림 광주점,35.2102775,126.84242936,광주광역시 광산구 첨단중앙로47번길 8-14 1층 (월계동)
1628,13459186,초밥생각,35.20908383,126.88025938,광주광역시 북구 양산동 1028 1층(양산동)
1629,13801603,볼빨간아구찜 첨단점,35.21133287,126.83826304,광주광역시 광산구 첨단중앙로67번길 79 1층 (월계동)
1630,13572764,천사곱창첨단점,35.21605469,126.84626221,광주광역시 광산구 월계동 878-8 1층 (월계동)
1631,10200767,금영순대왕족발 양산본점,35.21002809,126.87550978,광주광역시 북구 양산동 802 1층 (양산동)
1632,13371073,혼마구로 참치,35.222323168120404,126.84965660928681,광주광역시 북구 첨단과기로208번길 43-10 1층 136호(오룡동)
1633,10675630,상무초밥 첨단직영점,35.21513811,126.8450679,광주광역시 광산구 첨단중앙로106번길 37 가동 1층(월계동)
1634,10612636,아이커버거&치킨 첨단점,35.21241603,126.83540216,광주광역시 광산구 첨단내촌로 69-20 (월계동)
1635,13383424,요켈 샐러드,35.21158338,126.87017688,광주광역시 북구 용두동 311-50 1층 (용두동)
1636,13291416,라라브레드 양산점,35.21847163,126.87875928,광주광역시 북구 하서로 498 1~2층(본촌동)
1637,13263770,청년피자 첨단양산점,35.20969461,126.86470519,광주광역시 북구 신용동 746 1층 (신용동)
1638,13247741,이디야커피 첨단신용점,35.21138884,126.8630664,"광주광역시 북구 신용동 675 (신용동, 호반베르디움 113동 104호 1층)"
1639,13063947,데빌스,35.20463975,126.87217687,광주광역시 북구 양산동 284-10
1640,13820773,가배 풍성두툼한 사시미&초밥,35.21427754,126.87167668,광주광역시 북구 임방울대로1041번길 20 1층(용두동)
1641,10848917,고흥 수산,35.2064336,126.8706675,광주광역시 북구 연제동 478-39
1642,13463420,김민근의 물회세상,35.21880434,126.84379014,광주광역시 광산구 쌍암동 658-5 1층(쌍암동)
1643,13557228,보울레시피 BOWL RECIPE 첨단점,35.22241514,126.84948399,광주광역시 북구 오룡동 1110-22 1층 106-a호(오룡동)
1644,13897886,베이크쇼디치,35.22249846,126.84951177,광주광역시 북구 첨단과기로208번길 43-10 마루힐 아이비씨 지식산업센터 1층 112-a호(오룡동)
1645,10902473,신천직화불닭발 첨단점,35.21271132978568,126.83825828846494,광주광역시 광산구 월계동 816-5
1646,13808140,착한가격 굿 족발&보쌈,35.20727814,126.86012232,광주광역시 북구 첨단연신로107번길 37 1층 108호(신용동)
1647,13841369,위키드 라운지,35.21547146,126.84837315,"광주광역시 광산구 임방울대로826번길 42 더첨단 시너지타워2 4층 301,302호(월계동)"
1648,13670256,삶오로지다 족발보쌈 본점,35.21047252,126.87764847,광주광역시 북구 양산동 849 1층
1649,10775053,백족발 첨단직영점,35.21944319,126.8457344,광주광역시 광산구 쌍암동 667-7 1층(쌍암동)
1650,10750436,고모네뽈찜,35.2096989,126.8662079,광주광역시 북구 신용동 763
1651,10767277,매운맛 땡길 때 밥장인 첨단점,35.2159578,126.8503396,광주광역시 광산구 쌍암동 694-42
1652,12026816,땡초돼지김치찌개첨단점,35.20936088,126.8390408,광주광역시 광산구 월계동 845-6 1층
1653,10675630,상무초밥 첨단직영점,35.21513811,126.8450679,광주광역시 광산구 첨단중앙로106번길 37 가동 1층(월계동)
1654,13302814,마왕족발 광주첨단점,35.21605473,126.84828981,광주광역시 광산구 월계동 881-1 1층 110호(월계동)
1655,13154269,플랜티 첨단2지구점,35.20652821,126.85951128,광주광역시 북구 신용동 691 대성빌딩 1층 105호(신용동)
1656,10778314,보향미보쌈전문점,35.2166602,126.8445154,"광주광역시 광산구 월계동 873-16 (월계동,(1층))"
1657,13603480,신똑순아구찜,35.21166686,126.87950938,"광주광역시 북구 양산동 705 (양산동,(1층))"
1658,10843935,생아구인생20년 아구의신,35.21125023,126.87881501,"광주광역시 북구 양산동 714 (양산동,1층)"
1659,13767709,해녀촌,35.21662044938853,126.84859058480988,"광주광역시 광산구 임방울대로826번길 20 101,102호 (월계동, 수연빌딩)"
1660,13669821,구이랑찌개랑,35.20652828,126.8636498,광주광역시 북구 신용동 732 첨단씨티빌딩  1층(신용동)
1661,13732954,OBPC 원바이트피자클럽,35.21424934,126.84642891,"광주광역시 광산구 임방울대로800번길 71 아크레타첨단4층401,402(월계동)"
1662,13443580,마피아포차 광주첨단점,35.20730591,126.86012232,광주광역시 북구 신용동 696 1층 106호(신용동)
1663,10744604,레스토랑 스테이크펍,35.18053043,126.81693237,광주광역시 광산구 신가동 1288
1664,13149648,판다마라탕,35.20902753,126.8359022,광주광역시 광산구 월계동 799-3 1층
1665,13680472,하노이어이,35.21319375,126.83687423,광주광역시 광산구 월계동 771-13 (월계동)
1666,10877555,첨단롯데슈퍼앞 윤가앞족발,35.2204937,126.8424079,광주광역시 광산구 쌍암동 655-4 1층(쌍암동)
1667,13402905,강남돌솥감자탕,35.21050027,126.87609305,광주광역시 북구 양산동 814 1층(양산동)
1668,13137201,미스사이공 첨단점,35.22160957,126.84351232,광주광역시 광산구 쌍암동 654-18 1층
1669,13628257,최씨부엌족발 전문점,35.20947267,126.87989829,광주광역시 북구 양산동 902 1층(양산동)
1670,13699645,요녀석 파스타 &필라프 첨단점,35.211345811564115,126.8456829964255,"광주광역시 광산구 첨단중앙로68번길 60 상가1동1층112호(산월동,첨단3-1차호반리젠시빌)"
1671,13006376,카페달링 첨단점,35.20874979,126.83595775,광주광역시 광산구 월계동 779-2 1층(월계동)
1672,13875435,찐한찜닭 첨단점,35.20650044,126.85948351,광주광역시 북구 첨단연신로91번길 44 대성빌딩 1층 109호 (신용동)
1673,13840788,하랑은 초밥&덮밥&모밀 신용점,35.20897248,126.86526071,광주광역시 북구 첨단연신로108번길 59-17 1층 101호(신용동)
1674,12008632,피자마루  첨단2지구점,35.20875802337949,126.86312560481238,"광주 북구 신용동 684 상가218동 103호(신용동, 호반아파트)"
1675,13363720,하루엔소쿠 첨단신용점,35.20730595,126.86203881,광주광역시 북구 신용동 713 103호
1676,13361341,사랑각 첨단점,35.21458263,126.84573452,"광주광역시 광산구 월계동 891-4 (월계동,(1층))"
1677,13310544,감성낙곱새 (북구광산점),35.19227943923591,126.83886497775578,광주광역시 광산구 신창동 1227-3 (신창동)
1678,13435699,족발창고 첨단점,35.21291455194878,126.8388974140791,광주광역시 광산구 월계동 819-16 1층(월계동)
1679,13196881,마라 삼국지,35.20902753,126.8359022,광주광역시 광산구 월계동 799-3 1층
1680,13705241,닭치고낙곱새 광주첨단점,35.207907919817,126.86512661940537,"광주광역시 북구 첨단연신로108번길 31-16 , 1층(신용동)"
1681,13865417,댄싱컵 광주첨단2지구점,35.20730595,126.86242767,광주광역시 북구 첨단연신로91번길 20-14 1층(신용동)
1682,13640544,PIZZA FULL 첨단본점,35.22094309,126.84990066,"광주광역시 광산구 쌍암동 687-5 상가1동1층107호(쌍암동,첨단대라수3차)"
1683,13840350,얌타코,35.214208392428624,126.87745456896558,광주광역시 북구 용두택지로 38 1층(용두동)
1684,13616366,미쁨상점,35.212474,126.836524,광주광역시 광산구 월계동 773-4 1층
1685,13262377,고향촌닭,35.20072404,126.9024243,광주광역시 북구 삼각동 812-10 1층
1686,13874581,곱도리탕전문점 대가 첨단점,35.20652823,126.86062229,광주광역시 북구 첨단연신로107번길 45-22 토담빌딩 1층 106-1호 (신용동)
1687,13312258,달리는커피 첨단1호점,35.21057310925684,126.83818075246765,광주광역시 광산구 월계동 836-5 1층
1688,13383424,요켈 샐러드,35.21158338,126.87017688,광주광역시 북구 용두동 311-50 1층 (용두동)
1689,13361341,사랑각 첨단점,35.21458263,126.84573452,"광주광역시 광산구 월계동 891-4 (월계동,(1층))"
1690,10539492,피자헛 광주양산점,35.2061014,126.8708406,"광주광역시 북구 연양로 32 (연제동, 1층)"
1691,13640544,PIZZA FULL 첨단본점,35.22094309,126.84990066,"광주광역시 광산구 쌍암동 687-5 상가1동1층107호(쌍암동,첨단대라수3차)"
1692,13832029,김선장 회센터,35.20730591,126.85978901,"광주광역시 북구 첨단연신로107번길 41 제2동1층105호,106호,107호,108호"
1693,13911414,챙길 밥 첨단신도시점,35.21091623,126.83706871,광주광역시 광산구 첨단내촌로 45-4 1층(월계동)
1694,13302814,마왕족발 광주첨단점,35.21605473,126.84828981,광주광역시 광산구 월계동 881-1 1층 110호(월계동)
1695,13884421,시나본 광주첨단점,35.22244295,126.85173379,광주광역시 북구 첨단과기로208번길 43-22 1층 R-128호(오룡동)
1696,13705241,닭치고낙곱새 광주첨단점,35.207907919817,126.86512661940537,"광주광역시 북구 첨단연신로108번길 31-16 , 1층(신용동)"
1697,13877973,아웃백 광주첨단점,35.21511036,126.84637334,광주광역시 광산구 첨단중앙로106번길 65-3 월계동주차빌딩1층 122(일부)호(월계동)
1698,13791814,화채의미 첨단점,35.20902762,126.84079065,광주광역시 광산구 산월로 33 1층(월계동)
1699,13484957,푸르릇 컷팅과일 광산점,35.22105389,126.83242998,"광주광역시 광산구 월계동 756-2 상가동 2층 205호(월계동, 신동아아파트)"
1700,13477441,오늘,35.19520077327395,126.86905068104528,광주광역시 북구 연제동 1119 126동지하2층103호
1701,13469767,코랑커피,35.20694485,126.86070561,"광주광역시 북구 신용동 704 (신용동,1층106호)"
1702,10915896,통큰아구찜,35.21027536288128,126.84196201781457,광주광역시 광산구 월계동 896-14
1703,13713145,큰손김치찜&찌개,35.20694486,126.86131667,광주광역시 북구 첨단연신로91번길 32-10 1층 109호(신용동)
1704,10808618,툴스돈카츠,35.20791705,126.86539961,광주 북구 신용동 835 1층
1705,12035567,엄가네시골집뼈해장국,35.21976445092885,126.84648168850617,광주광역시 광산구 쌍암동 673-8 1층 (쌍암동)
1706,13798443,키로kg회배달,35.22216561,126.87584278,광주광역시 북구 하서로523번길 35 1층(용두동)
1707,13696411,려포마라탕,35.20730596,126.86267765,"광주광역시 북구 첨단연신로107번길 15 (신용동, 용천타워1층 102호)"
1708,13609926,청자다방 첨단2지구점,35.20694484,126.86012233,광주광역시 북구 신용동 702 1층 109호(신용동)
1709,13678717,샐러드밥(첨단신용점),35.20652823,126.86065007,광주광역시 북구 신용동 694 토담빌딩 1층 106-2호(신용동)
1710,13045788,임실N치즈피자,35.20216829,126.90070219,광주광역시 북구 삼각동 804-5 1층(삼각동)
1711,10017955,깐깐한족발 본점,35.21563806,126.84526231,광주 광산구 월계동 886-3 891-4
1712,13081091,공차 첨단신용점,35.20730595,126.86245544,광주광역시 북구 신용동 718 1층 103호(신용동)
1713,13316414,쌈의 정석 양산점,35.20958357,126.86837153,"광주광역시 북구 임방울대로1042번길 49 105호(신용동, 첨단자이1차상가)"
1714,13208843,금오회수산,35.22213784,126.8759261,광주광역시 북구 용두동 1045-1 107호
1715,13450219,금커피별빙수 & 과일 첨단점,35.21383275,126.84781769,광주광역시 광산구 월계동 893-9 1층 116호(월계동)
1716,13678693,바른초밥 첨단점,35.21419379,126.84634559,"광주광역시 광산구 월계동 892-8 아크레타 첨단1층 118,119,120호(월계동)"
1717,13317585,청년감자탕 광주점,35.21288887,126.87520418,"광주광역시 북구 하서로 428 201호,202호,203호"
1718,13701546,록시드갸토 첨단아크레타점,35.21424934,126.84642891,"광주광역시 광산구 임방울대로800번길 71 아크레타 첨단1층 105,106호(월계동)"
1719,13782078,갓잡은 육회&연어 광산점,35.20949971,126.83654102,광주광역시 광산구 첨단내촌로35번길 7-12 1층(월계동)
1720,13417229,착한족발 첨단쌍암점,35.21308272,126.84145716,광주광역시 광산구 첨단내촌로70번길 92 1층(월계동)
1721,10783811,샌드리아 첨단2지구점,35.2095602,126.8646882,광주광역시 북구 신용동 747
1722,13447442,불장난 파스타 첨단점,35.20836144,126.86512185,광주광역시 북구 첨단연신로108번길 39-18 1층(신용동)
1723,13762263,순돌이 회수산 첨단점,35.21513811,126.8450679,광주광역시 광산구 첨단중앙로106번길 37 나동 1층(월계동)
1724,13039762,돈페플러스돈까스 양산용두점,35.21577757,126.88328672,광주광역시 북구 본촌동 2887 1층(본촌동)
1725,10735939,꽃마름샤브 동림점,35.17153229,126.86640044,광주광역시 서구 동천동 597 (3층)
1726,13670256,삶오로지다 족발보쌈 본점,35.21047252,126.87764847,광주광역시 북구 양산동 849 1층
1727,10017955,깐깐한족발 본점,35.21563806,126.84526231,광주 광산구 월계동 886-3 891-4
1728,13065248,돈페도시락,35.21577757,126.88328672,광주광역시 북구 본촌동 2887 1층(본촌동)
1729,13331734,마왕족발 광주양산점,35.21063915,126.87653745,"광주광역시 북구 양산동 810 양산동,1층"
1730,13897882,조선매운국물갈비찜 첨단점,35.20694484,126.85976125,광주광역시 북구 첨단연신로107번길 45-11 1층102호(신용동)
1731,13040575,해마루회수산,35.22213784,126.8759261,광주광역시 북구 용두동 1045-1 1층(용두동)
1732,13791817,건어물맛집,35.20902762,126.84079065,광주광역시 광산구 산월로 33 1층(월계동)
1733,13471997,레커버거,35.20652821,126.85951128,광주광역시 북구 신용동 691 대성빌딩 1층 111호 (신용동)
1734,13850548,봉명동내커피 광주첨단점,35.21286043,126.83581877,광주광역시 광산구 월계로 92 1층(월계동)
1735,12002943,이바돔감자탕(첨단2지구점),35.20677818,126.85928907,광주광역시 북구 신용동 690 2층 202호
1736,10853709,원조할매닭발,35.21000041,126.88139815,광주광역시 북구 양산동 909
1737,13861813,비네스캔커피,35.20691708,126.86070561,"광주광역시 북구 첨단연신로107번길 45-21 (신용동,1층106호)"
1738,13758906,바른보쌈1990 첨단점,35.20650044,126.85948351,광주광역시 북구 첨단연신로91번길 44 대성빌딩 1층 109호 (신용동)
1739,13791818,소프트젤라또,35.20902762,126.84079065,광주광역시 광산구 산월로 33 1층(월계동)
1740,13299175,크라운호프 첨단2지구점,35.20694488,126.86242768,광주광역시 북구 신용동 724 1층(신용동)
1741,13894665,더벤티 첨단2지구점,35.20730594,126.86176106,광주광역시 북구 첨단연신로107번길 21 일취빌딩 1층 104호(신용동)
1742,10878040,항상그자리에,35.20697264,126.86123334,광주광역시 북구 신용동 708 1층 101호
1743,13484462,더리터 커피 첨단2지구점,35.20730597,126.86359423,광주광역시 북구 신용동 722 1층(신용동)
1744,13805788,급식실,35.20872255,126.86803825,광주광역시 북구 연양로7번길 53 1층 (신용동)
1745,13683710,닭발공작소,35.2042509,126.87151028,광주광역시 북구 양산동 288-15 호반아파트 상가동 2층 201호 (양산동)
1746,13883364,메가커피 광주첨단2지구점,35.20730595,126.86206659,광주광역시 북구 첨단연신로107번길 19 1층 102호 (신용동)
1747,13717178,아구듬뿍&알곤마니 광주양산점,35.20538968,126.87312122,광주광역시 북구 하서로339번길 8 1층(양산동)
1748,13150222,족발이땡기는날 양산점,35.21139145164912,126.88065928643437,광주광역시 북구 양산동 721 1층
1749,13263770,청년피자 첨단양산점,35.20969461,126.86470519,광주광역시 북구 신용동 746 1층 (신용동)
1750,13408584,파스타17 첨단본점,35.215350690072846,126.84639211547105,광주광역시 광산구 월계동 885-1 월계동주차빌딩 1층 122(일부)호(월계동)
1751,13705241,닭치고낙곱새 광주첨단점,35.207907919817,126.86512661940537,"광주광역시 북구 첨단연신로108번길 31-16 , 1층(신용동)"
1752,13822536,호주에서온스시 신용직영점,35.21108344,126.87064907,"광주광역시 북구 임방울대로1042번길 14 , 1층 (용두동)"
1753,13257790,금순이네 생태탕&코다리조림,35.20880584,126.86592732,광주광역시 북구 신용동 801 1층(신용동)
1754,13197377,슬로우시티,35.2089447,126.8647052,광주광역시 북구 신용동 751 1층
1755,10625225,원조할매닭발,35.2098803,126.8374548,광주광역시 광산구 첨단내촌로 36 (월계동)
1756,13323570,요달의찜닭 광주쌍암점,35.22022083,126.84306795,광주광역시 광산구 쌍암동 662-5 1층(쌍암동)
1757,13726469,프랭크버거 광주첨단신용점,35.20730595,126.86242767,광주광역시 북구 첨단연신로91번길 20-14 만강빌딩1층(신용동)
1758,13701546,록시드갸토 첨단아크레타점,35.21424934,126.84642891,"광주광역시 광산구 임방울대로800번길 71 아크레타 첨단1층 105,106호(월계동)"
1759,13120983,롱쓰부대찌개 광주첨단점,35.21269383,126.83829078,광주광역시 광산구 월계로118번길 20 1층(월계동)
1760,10859923,엄마의 부엌,35.19808498,126.87439906,광주광역시 북구 양산동 660-10 1층(양산동)
1761,13810742,에그폭탄덮밥,35.22133196,126.85115054,광주광역시 광산구 첨단중앙로182번길 90 상가동 1층 127호 (쌍암동)
1762,13739254,본도시락 광주첨단신용점,35.20647269,126.86123335,광주광역시 북구 첨단연신로91번길 30 삼성타워 1층 102호(신용동)
1763,12031761,수진초밥,35.20983351,126.86623282,광주광역시 북구 신용동 762 1층(신용동)
1764,13463136,떡케익 케이쿠이쿠,35.18061412,126.83829158,광주광역시 광산구 풍영정길 27-17 103호
1765,13696618,신묘한 닭도리탕&곱도리탕 신창점,35.19714007,126.84045765,"광주광역시 광산구 신창로138번길 15-16 (신창동,(1층))"
1766,13782078,갓잡은 육회&연어 광산점,35.20949971,126.83654102,광주광역시 광산구 첨단내촌로35번길 7-12 1층(월계동)
1767,13079319,난타5000 양산점,35.21263888,126.87420427,"광주광역시 북구 하서로 421 105(용두동,1층)"
1768,13696618,신묘한 닭도리탕&곱도리탕 신창점,35.19714007,126.84045765,"광주광역시 광산구 신창로138번길 15-16 (신창동,(1층))"
1769,13566613,7번가피자 첨단2지구점,35.20650048,126.86192773,"광주광역시 북구 신용동 717 (신용동, 1층 105호)"
1770,10909674,청춘얼큰이 첨단본점,35.21474927,126.84559564,광주광역시 광산구 월계동 891-4
1771,13840649,정성이 가득찬 집밥 첨단점,35.22033195,126.84429006,광주광역시 광산구 첨단중앙로152번길 31-16 A동1층(쌍암동)
1772,10736822,난타5000 첨단월계점,35.2127493,126.83401338,광주광역시 광산구 월계로 77 1층 110호 (월계동)
1773,10617510,부부피자 본점,35.20897205,126.8400685,광주광역시 광산구 월계동 851-24 1층
1774,13471362,신카라이 라멘전문점,35.2128049,126.83690201,광주광역시 광산구 월계동 813-3 1층(월계동)
1775,13415578,맛깔 돼지김치찌개 첨단점,35.2109718,126.83815195,광주광역시 광산구 월계동 836-1 1층(월계동)
1776,13083272,홍콩반점0410 광주쌍암공원점,35.22138739,126.84420671,광주광역시 광산구 첨단중앙로182번길 24-3 (쌍암동)
1777,13315282,임실치즈피자 첨단직영점,35.2129438,126.838263,광주광역시 광산구 월계동 816-3 1층(월계동)
1778,13315280,깻잎치킨 첨단직영점,35.2129438,126.838263,광주광역시 광산구 월계동 816-3 1층(월계동)
1779,13352217,피자베이 첨단점,35.20936085,126.83742983,광주광역시 광산구 월계동 839-10 1층(월계동)
1780,10899101,청년다방 첨단점,35.22135961,126.84373453,광주광역시 광산구 쌍암동 654-7
1781,13107540,양동가마솥통닭,35.21305489,126.83784637,광주광역시 광산구 월계동 814-7
1782,13415582,닭발&오돌뼈 첨단점,35.2109718,126.83815195,광주광역시 광산구 월계동 836-1 1층(월계동)
1783,13455911,제육에 미친 남자,35.21288826,126.83892961,광주광역시 광산구 월계동 819-16 1층(월계동)
1784,13471359,콜라겐파티,35.2128049,126.83690201,광주광역시 광산구 월계동 813-3 1층(월계동)
1785,13431218,임실N치즈피자 첨단점,35.21122175,126.8369576,광주광역시 광산구 월계동 810-2 A동 1층 104호(월계동)
1786,10883346,치킨매니아 첨단점,35.231681399370295,126.8515287149236,"광주광역시 북구 앰코로 100 (대촌동, 앰코코리아(주) 복지관 2층)"
1787,13447472,강릉초당 짬뽕순두부,35.21308266,126.83770749,광주광역시 광산구 첨단내촌로70번길 24 (월계동)
1788,13315280,깻잎치킨 첨단직영점,35.2129438,126.838263,광주광역시 광산구 월계동 816-3 1층(월계동)
1789,13915507,유쾌한 꼬막&한끼끝판왕 광산점,35.21174954,126.84156829,광주광역시 광산구 월계로140번길 35-16 1층(월계동)
1790,13121733,빨간토마토피자 첨단양산점,35.20652821,126.85951128,광주광역시 북구 신용동 691 대성빌딩 1층 113호(신용동)
1791,10543356,맛짱왕,35.2188248,126.8427451,광주광역시 광산구 쌍암동 658-1
1792,13840649,정성이 가득찬 집밥 첨단점,35.22033195,126.84429006,광주광역시 광산구 첨단중앙로152번길 31-16 A동1층(쌍암동)
1793,13435011,홍익스테이크 첨단점,35.20936085,126.83742983,광주광역시 광산구 월계동 839-10 1층(월계동)
1794,13840649,정성이 가득찬 집밥 첨단점,35.22033195,126.84429006,광주광역시 광산구 첨단중앙로152번길 31-16 A동1층(쌍암동)
1795,13331696,나주진사곰탕&육개장,35.21288826,126.83892961,광주광역시 광산구 월계동 819-16 1층(월계동)
1796,13352217,피자베이 첨단점,35.20936085,126.83742983,광주광역시 광산구 월계동 839-10 1층(월계동)
1797,13806393,신쭈황 첨단점,35.21394382,126.84617894,"광주광역시 광산구 임방울대로800번길 77 (월계동,(1층))"
1798,13915505,유쾌한김치찜 광산직영점,35.21174954,126.84156829,광주광역시 광산구 월계로140번길 35-16 1층(월계동)
1799,13292311,투가이즈 피자&치킨 양산점,35.21180573,126.87953715,광주광역시 북구 양산동 704 1층(양산동)
1800,10666627,반올림피자샵 첨단점,35.20914682258683,126.84192466824848,광주광역시 광산구 산월로41번길 8-2 1층(월계동)
1801,13798392,닭먹으면되지,35.21511036,126.84637334,광주광역시 광산구 첨단중앙로106번길 65-3 월계동주차빌딩 1층 122(일부)호 (월계동)
1802,13372014,요기타코야끼,35.21520670662662,126.84670760815015,광주광역시 광산구 첨단중앙로106번길 65-3 월계동주차빌딩 1층 121호(월계동)
1803,13798392,닭먹으면되지,35.21511036,126.84637334,광주광역시 광산구 첨단중앙로106번길 65-3 월계동주차빌딩 1층 122(일부)호 (월계동)
1804,13292312,후라이드 정말 맛있는집 양산점,35.21180573,126.87953715,광주광역시 북구 양산동 704 1층(양산동)
1805,10787202,가마솥김치찜&갈비찜 첨단점,35.21288826,126.83892961,광주광역시 광산구 월계동 819-16 1층(월계동)
1806,13431974,정광석항아리보쌈 첨단점,35.21438826,126.84909534,광주광역시 광산구 쌍암동 694-60 1층 (쌍암동)
1807,13352217,피자베이 첨단점,35.20936085,126.83742983,광주광역시 광산구 월계동 839-10 1층(월계동)
1808,13735778,오븐구이 훈제두마리치킨 첨단직영점,35.21291602,126.838263,광주광역시 광산구 월계로118번길 14 1층(월계동)
1809,13397412,쫄면주는 삼겹본능 광주첨단점,35.22241514,126.84948399,광주광역시 북구 오룡동 1110-22 1층 120호(오룡동)
1810,10739762,황궁쟁반짜장 첨단점,35.21484665656522,126.84401750604201,광주광역시 광산구 쌍암동 658-1
1811,13915507,유쾌한 꼬막&한끼끝판왕 광산점,35.21174954,126.84156829,광주광역시 광산구 월계로140번길 35-16 1층(월계동)
1812,13316804,금호회수산,35.189696,126.81329357,광주광역시 광산구 장덕동 1566 1층(장덕동)
1813,10797492,이자카야 유메,35.21860992,126.84379015,광주 광산구 쌍암동 658-6
1814,13226143,일미리금계찜닭 첨단점,35.20936088,126.83901302,광주광역시 광산구 첨단내촌로36번길 34-14 1층 (월계동)
1815,13453801,1+1 통큰회,35.189696,126.81329357,광주광역시 광산구 장덕동 1566 1층(장덕동)
1816,13316804,금호회수산,35.189696,126.81329357,광주광역시 광산구 장덕동 1566 1층(장덕동)
1817,13670468,어항,35.20652821,126.85951128,광주광역시 북구 신용동 691 대성빌딩 1층 110호(신용동)
1818,13476757,깐튀남 첨단점,35.21230492,126.8349022,광주광역시 광산구 월계동 776-7 나동 1층(월계동)
1819,13855258,고기데이,35.21005531,126.84245715,광주광역시 광산구 첨단중앙로47번길 8-10 1층(월계동)
1820,10834402,갈비굽는집,35.2112733,126.8788002,광주광역시 북구 양산동 714
1821,13017376,딜스테이크&파스타 광주첨단점,35.21308266,126.83770749,광주광역시 광산구 첨단내촌로70번길 24 (월계동)
1822,13476757,깐튀남 첨단점,35.21230492,126.8349022,광주광역시 광산구 월계동 776-7 나동 1층(월계동)
1823,13017903,오리도니 광주첨단점,35.21308266,126.83770749,광주광역시 광산구 첨단내촌로70번길 24 (월계동)
1824,13871381,냉면클라쓰&마약만두 광주첨단점,35.22249846,126.84951177,광주광역시 북구 첨단과기로208번길 43-10 1층 120호(오룡동)
1825,13386183,봉구비어 첨단점,35.21991531,126.8427902,광주광역시 광산구 쌍암동 662-4 1층105호(쌍암동)
1826,13658301,물첨벙아구찜 첨단점,35.20974973,126.83945742,광주광역시 광산구 월계동 846-3 1층(월계동)
1827,13608960,딜리바리1리터&정 대왕카스테라 첨단점,35.22101645439782,126.8488887033165,광주광역시 광산구 쌍암동 688-2 상가동 108호(쌍암동)
1828,13415580,밥도둑 애호박찌개 첨단점,35.2109718,126.83815195,광주광역시 광산구 월계동 836-1 1층(월계동)
1829,13403662,친구도시락,35.21288826,126.83892961,광주광역시 광산구 월계동 819-16 1층(월계동)
1830,13850463,두남자의 두마리파닭 양산점,35.21180573,126.87953715,광주광역시 북구 상촌로43번길 6 1층(양산동)
1831,13315282,임실치즈피자 첨단직영점,35.2129438,126.838263,광주광역시 광산구 월계동 816-3 1층(월계동)
1832,13840649,정성이 가득찬 집밥 첨단점,35.22033195,126.84429006,광주광역시 광산구 첨단중앙로152번길 31-16 A동1층(쌍암동)
1833,10617510,부부피자 본점,35.20897205,126.8400685,광주광역시 광산구 월계동 851-24 1층
1834,13435011,홍익스테이크 첨단점,35.20936085,126.83742983,광주광역시 광산구 월계동 839-10 1층(월계동)
1835,13415581,맛깔 국물돼지갈비찜 첨단점,35.2109718,126.83815195,광주광역시 광산구 월계동 836-1 1층(월계동)
1836,13321752,1인닭도리&찜닭,35.21288826,126.83892961,광주광역시 광산구 월계동 819-16 1층(월계동)
1837,13915507,유쾌한 꼬막&한끼끝판왕 광산점,35.21174954,126.84156829,광주광역시 광산구 월계로140번길 35-16 1층(월계동)
1838,13880589,황가네칡냉면,35.21424932,126.84526235,광주광역시 광산구 임방울대로800번길 72 1층 111호
1839,13871381,냉면클라쓰&마약만두 광주첨단점,35.22249846,126.84951177,광주광역시 북구 첨단과기로208번길 43-10 1층 120호(오룡동)
1840,13193511,멕시카나치킨 첨단점,35.21529712286137,126.83816164032713,"광주광역시 광산구 월계로 117-21 (월계동,두산아파트상가 106호)"
1841,13447472,강릉초당 짬뽕순두부,35.21308266,126.83770749,광주광역시 광산구 첨단내촌로70번길 24 (월계동)
1842,13720082,뚝딱 짜글이 & 제육 월계점,35.20987981594474,126.83900861310185,광주광역시 광산구 첨단내촌로36번길 26 1층
1843,13840649,정성이 가득찬 집밥 첨단점,35.22033195,126.84429006,광주광역시 광산구 첨단중앙로152번길 31-16 A동1층(쌍암동)
1844,10798972,전골나라,35.214989490550046,126.83690611455101,광주광역시 광산구 월계동 813-3
1845,13878093,뚠뚠돼지김치찌개 첨단점,35.21511036,126.84637334,광주광역시 광산구 첨단중앙로106번길 65-3 월계동주차빌딩 1층 122(일부)호 (월계동)
1846,13017376,딜스테이크&파스타 광주첨단점,35.21308266,126.83770749,광주광역시 광산구 첨단내촌로70번길 24 (월계동)
1847,13523353,오치킨 첨단점,35.20866648,126.83670769,광주광역시 광산구 월계동 797-4 1층(월계동)
1848,13840649,정성이 가득찬 집밥 첨단점,35.22033195,126.84429006,광주광역시 광산구 첨단중앙로152번길 31-16 A동1층(쌍암동)
1849,10736822,난타5000 첨단월계점,35.2127493,126.83401338,광주광역시 광산구 월계로 77 1층 110호 (월계동)
1850,13321752,1인닭도리&찜닭,35.21288826,126.83892961,광주광역시 광산구 월계동 819-16 1층(월계동)
1851,13915505,유쾌한김치찜 광산직영점,35.21174954,126.84156829,광주광역시 광산구 월계로140번길 35-16 1층(월계동)
1852,13614974,용봉낙지한마당 첨단직영점,35.21230498,126.83826302,광주광역시 광산구 월계동 816-8 1층 (월계동)
1853,10875573,고봉민김밥 첨단초교점,35.2181057,126.8360685,광주광역시 광산구 월계동 759-3
1854,13704267,엄마부엌,35.21291602,126.8380408,광주광역시 광산구 첨단내촌로70번길 28-3 (월계동)
1855,13855258,고기데이,35.21005531,126.84245715,광주광역시 광산구 첨단중앙로47번길 8-10 1층(월계동)
1856,13591309,한방삼계탕,35.21288826,126.83892961,광주광역시 광산구 월계동 819-16 1층(월계동)
1857,13265377,냉면장인 임사부&숯불구이,35.217441613785105,126.85076467828232,"광주광역시 광산구 쌍암동 694-40 (쌍암동, 1층)"
1858,10834402,갈비굽는집,35.2112733,126.8788002,광주광역시 북구 양산동 714
1859,13137960,100's쭈꾸미(본점),35.18661597406043,126.83647930796552,"광주광역시 광산구 신가동 983-7 (신가동,(1층))"
1860,13879149,설레임식혜 첨단점,35.21511036,126.84637334,광주광역시 광산구 첨단중앙로106번길 65-3 월계동주차빌딩 1층 122(일부)호 (월계동)
1861,13431218,임실N치즈피자 첨단점,35.21122175,126.8369576,광주광역시 광산구 월계동 810-2 A동 1층 104호(월계동)
1862,13193511,멕시카나치킨 첨단점,35.21529712286137,126.83816164032713,"광주광역시 광산구 월계로 117-21 (월계동,두산아파트상가 106호)"
1863,13397412,쫄면주는 삼겹본능 광주첨단점,35.22241514,126.84948399,광주광역시 북구 오룡동 1110-22 1층 120호(오룡동)
1864,10706873,가야성,35.21787817691165,126.84274509967962,광주광역시 광산구 쌍암동 658-1
1865,13390276,꼬치상회,35.206733693725496,126.87157571382089,광주광역시 북구 양산동 366-1 한양아파트 상가동 1층3호(양산동)
1866,13476757,깐튀남 첨단점,35.21230492,126.8349022,광주광역시 광산구 월계동 776-7 나동 1층(월계동)
1867,13885594,하이덮밥,35.20388981,126.8703715,"광주광역시 북구 양산제로 109-7 , 1층(연제동)"
1868,13665992,사계진미 첨단점,35.21613798,126.84423461,광주광역시 광산구 월계동 876-1 1층 103~104(일부)호(월계동)
1869,13880589,황가네칡냉면,35.21424932,126.84526235,광주광역시 광산구 임방울대로800번길 72 1층 111호
1870,13121733,빨간토마토피자 첨단양산점,35.20652821,126.85951128,광주광역시 북구 신용동 691 대성빌딩 1층 113호(신용동)
1871,13292312,후라이드 정말 맛있는집 양산점,35.21180573,126.87953715,광주광역시 북구 양산동 704 1층(양산동)
1872,10736822,난타5000 첨단월계점,35.2127493,126.83401338,광주광역시 광산구 월계로 77 1층 110호 (월계동)
1873,13668673,갓포호사 첨단점,35.21544368,126.84834538,광주광역시 광산구 월계동 882-1 더첨단 시너지타워2 3층201호(월계동)
1874,13552059,고가네 생선구이전문점,35.21288826,126.83892961,광주광역시 광산구 월계동 819-16 1층(월계동)
1875,13121812,역전할머니맥주 광주첨단2호점,35.22041526,126.84342902,광주광역시 광산구 첨단중앙로152번길 17-16 1층(쌍암동)
1876,13915507,유쾌한 꼬막&한끼끝판왕 광산점,35.21174954,126.84156829,광주광역시 광산구 월계로140번길 35-16 1층(월계동)
1877,13042734,순살이맛있는디디치킨 첨단점,35.21063849,126.8374298,광주광역시 광산구 월계동 838-11 1층 (월계동)
1878,10489677,고려왕족발보쌈,35.20590112844104,126.87171384597248,광주광역시 북구 양산동 283-50 1층 고려왕족발보쌈
1879,13352217,피자베이 첨단점,35.20936085,126.83742983,광주광역시 광산구 월계동 839-10 1층(월계동)
1880,13352217,피자베이 첨단점,35.20936085,126.83742983,광주광역시 광산구 월계동 839-10 1층(월계동)
1881,13636590,오븐에구운 훈제치킨,35.20936085,126.83742983,광주광역시 광산구 월계동 839-10 1층(월계동)
1882,10787204,가마솥김치찜&갈비찜 첨단점,35.21288826,126.83892961,광주광역시 광산구 월계동 819-16 1층(월계동)
1883,10812610,청춘얼큰이 광산본점,35.18864084,126.82948661,광주광역시 광산구 수완동 1699 1층 102호 (수완동)
1884,13840649,정성이 가득찬 집밥 첨단점,35.22033195,126.84429006,광주광역시 광산구 첨단중앙로152번길 31-16 A동1층(쌍암동)
1885,13898501,더핏짜 광주점,35.21516599,126.85115069,"광주광역시 광산구 첨단강변로99번길 21 1층 108호(쌍암동, 윤진리안채)"
1886,13840649,정성이 가득찬 집밥 첨단점,35.22033195,126.84429006,광주광역시 광산구 첨단중앙로152번길 31-16 A동1층(쌍암동)
1887,13335431,호호밥상,35.20694484,126.85976125,광주광역시 북구 신용동 701 1층 101호(신용동)
1888,13121733,빨간토마토피자 첨단양산점,35.20652821,126.85951128,광주광역시 북구 신용동 691 대성빌딩 1층 113호(신용동)
1889,13360566,얌샘김밥 광주첨단점,35.20766675,126.84598467,광주광역시 광산구 산월동 886-2 1층 107호(산월동)
1890,13103900,생생손왕만두,35.22174812,126.82418069,광주광역시 광산구 비아중앙로31번길 10 (비아동)
1891,13480057,21parkcoffee,35.2257684895873,126.85173089360116,광주광역시 북구 첨단과기로208번길 17-23 주건축물 제1동 1층101호(오룡동)
1892,13879149,설레임식혜 첨단점,35.21511036,126.84637334,광주광역시 광산구 첨단중앙로106번길 65-3 월계동주차빌딩 1층 122(일부)호 (월계동)
1893,13879141,상지뼈해장국,35.21511036,126.84637334,광주광역시 광산구 첨단중앙로106번길 65-3 월계동주차빌딩 1층 122(일부)호 (월계동)
1894,13017903,오리도니 광주첨단점,35.21308266,126.83770749,광주광역시 광산구 첨단내촌로70번길 24 (월계동)
1895,13840649,정성이 가득찬 집밥 첨단점,35.22033195,126.84429006,광주광역시 광산구 첨단중앙로152번길 31-16 A동1층(쌍암동)
1896,10536632,미스김꼬마김밥,35.21563803,126.84351247,광주광역시 광산구 월계동 888-3 1층 (월계동)
1897,13447472,강릉초당 짬뽕순두부,35.21308266,126.83770749,광주광역시 광산구 첨단내촌로70번길 24 (월계동)
1898,10706873,가야성,35.21787817691165,126.84274509967962,광주광역시 광산구 쌍암동 658-1
1899,13915507,유쾌한 꼬막&한끼끝판왕 광산점,35.21174954,126.84156829,광주광역시 광산구 월계로140번길 35-16 1층(월계동)
1900,10909674,청춘얼큰이 첨단본점,35.21474927,126.84559564,광주광역시 광산구 월계동 891-4
1901,13777466,더아이론우드,35.21527705,126.84920642,광주광역시 광산구 임방울대로826번길 47 3층307호(쌍암동)
1902,13777466,더아이론우드,35.21527705,126.84920642,광주광역시 광산구 임방울대로826번길 47 3층307호(쌍암동)
1903,13867448,제주 쾅쾅돈가스 첨단점,35.2142493,126.84373471,광주광역시 광산구 월계로 167 1층(월계동)
1904,10787202,가마솥김치찜&갈비찜 첨단점,35.21288826,126.83892961,광주광역시 광산구 월계동 819-16 1층(월계동)
1905,10894125,임실치즈피자,35.20536189,126.87217686,광주광역시 북구 양산동 284-34 1층(양산동)
1906,13840649,정성이 가득찬 집밥 첨단점,35.22033195,126.84429006,광주광역시 광산구 첨단중앙로152번길 31-16 A동1층(쌍암동)
1907,13722992,밥한술,35.22116533,126.85251153,광주광역시 광산구 앰코로 35 폭스존 1층 113호(쌍암동)
1908,13614974,용봉낙지한마당 첨단직영점,35.21230498,126.83826302,광주광역시 광산구 월계동 816-8 1층 (월계동)
1909,13871381,냉면클라쓰&마약만두 광주첨단점,35.22249846,126.84951177,광주광역시 북구 첨단과기로208번길 43-10 1층 120호(오룡동)
1910,13164060,말캉,35.21536039,126.85020633,광주광역시 광산구 쌍암동 694-56 1층 105호 (쌍암동)
1911,13878093,뚠뚠돼지김치찌개 첨단점,35.21511036,126.84637334,광주광역시 광산구 첨단중앙로106번길 65-3 월계동주차빌딩 1층 122(일부)호 (월계동)
1912,13226143,일미리금계찜닭 첨단점,35.20936088,126.83901302,광주광역시 광산구 첨단내촌로36번길 34-14 1층 (월계동)
1913,13879141,상지뼈해장국,35.21511036,126.84637334,광주광역시 광산구 첨단중앙로106번길 65-3 월계동주차빌딩 1층 122(일부)호 (월계동)
1914,13720082,뚝딱 짜글이 & 제육 월계점,35.20987981594474,126.83900861310185,광주광역시 광산구 첨단내촌로36번길 26 1층
1915,13840649,정성이 가득찬 집밥 첨단점,35.22033195,126.84429006,광주광역시 광산구 첨단중앙로152번길 31-16 A동1층(쌍암동)
1916,13315282,임실치즈피자 첨단직영점,35.2129438,126.838263,광주광역시 광산구 월계동 816-3 1층(월계동)
1917,12001701,설악냉면,35.21288826,126.83892961,광주광역시 광산구 월계동 819-16 1층(월계동)
1918,13725166,낙곱새 녀석들 북구광산점,35.21497146,126.84481792,광주광역시 광산구 첨단중앙로106번길 29 2층(월계동)
1919,13256160,홍익 궁중전통육개장,35.21522152,126.85042853,"광주광역시 광산구 월계로 223-20 101,102호(쌍암동)"
1920,13292311,투가이즈 피자&치킨 양산점,35.21180573,126.87953715,광주광역시 북구 양산동 704 1층(양산동)
1921,10617510,부부피자 본점,35.20897205,126.8400685,광주광역시 광산구 월계동 851-24 1층
1922,13898501,더핏짜 광주점,35.21516599,126.85115069,"광주광역시 광산구 첨단강변로99번길 21 1층 108호(쌍암동, 윤진리안채)"
1923,13390276,꼬치상회,35.206733693725496,126.87157571382089,광주광역시 북구 양산동 366-1 한양아파트 상가동 1층3호(양산동)
1924,13226143,일미리금계찜닭 첨단점,35.20936088,126.83901302,광주광역시 광산구 첨단내촌로36번길 34-14 1층 (월계동)
1925,13370301,덕구네 멸치국수,35.21394378,126.84409579,광주광역시 광산구 월계동 890-3 1층(월계동)
1926,10875573,고봉민김밥 첨단초교점,35.2181057,126.8360685,광주광역시 광산구 월계동 759-3
1927,13892254,밀호,35.21179604797942,126.84523832934867,광주광역시 광산구 첨단강변로99번길 34 루빌코리아 1층 102(일부)호 (쌍암동)
1928,13315282,임실치즈피자 첨단직영점,35.2129438,126.838263,광주광역시 광산구 월계동 816-3 1층(월계동)
1929,13591309,한방삼계탕,35.21288826,126.83892961,광주광역시 광산구 월계동 819-16 1층(월계동)
1930,13137960,100's쭈꾸미(본점),35.18661597406043,126.83647930796552,"광주광역시 광산구 신가동 983-7 (신가동,(1층))"
1931,13083272,홍콩반점0410 광주쌍암공원점,35.22138739,126.84420671,광주광역시 광산구 첨단중앙로182번길 24-3 (쌍암동)
1932,13390276,꼬치상회,35.206733693725496,126.87157571382089,광주광역시 북구 양산동 366-1 한양아파트 상가동 1층3호(양산동)
1933,13577004,참연광이네,35.20608403,126.87173243,광주광역시 북구 양산동 283-5 1층 (양산동)
1934,13806393,신쭈황 첨단점,35.21394382,126.84617894,"광주광역시 광산구 임방울대로800번길 77 (월계동,(1층))"
1935,13670468,어항,35.20652821,126.85951128,광주광역시 북구 신용동 691 대성빌딩 1층 110호(신용동)
1936,13879141,상지뼈해장국,35.21511036,126.84637334,광주광역시 광산구 첨단중앙로106번길 65-3 월계동주차빌딩 1층 122(일부)호 (월계동)
1937,10899101,청년다방 첨단점,35.22135961,126.84373453,광주광역시 광산구 쌍암동 654-7
1938,10734889,홍춘천치즈닭갈비 첨단점,35.21394389,126.85056744,광주광역시 광산구 쌍암동 694-59
1939,13352217,피자베이 첨단점,35.20936085,126.83742983,광주광역시 광산구 월계동 839-10 1층(월계동)
1940,13415580,밥도둑 애호박찌개 첨단점,35.2109718,126.83815195,광주광역시 광산구 월계동 836-1 1층(월계동)
1941,13798392,닭먹으면되지,35.21511036,126.84637334,광주광역시 광산구 첨단중앙로106번길 65-3 월계동주차빌딩 1층 122(일부)호 (월계동)
1942,13608960,딜리바리1리터&정 대왕카스테라 첨단점,35.22101645439782,126.8488887033165,광주광역시 광산구 쌍암동 688-2 상가동 108호(쌍암동)
1943,13552059,고가네 생선구이전문점,35.21288826,126.83892961,광주광역시 광산구 월계동 819-16 1층(월계동)
1944,13624597,장수하늘소,35.21380503,126.85126183,광주광역시 광산구 월계로 235-1 1층 101호
1945,13528787,명장 한우 육회비빔밥,35.21380503,126.85126183,광주광역시 광산구 월계로 235-1 1층 101호
1946,13840649,정성이 가득찬 집밥 첨단점,35.22033195,126.84429006,광주광역시 광산구 첨단중앙로152번길 31-16 A동1층(쌍암동)
1947,10736822,난타5000 첨단월계점,35.2127493,126.83401338,광주광역시 광산구 월계로 77 1층 110호 (월계동)
1948,13321752,1인닭도리&찜닭,35.21288826,126.83892961,광주광역시 광산구 월계동 819-16 1층(월계동)
1949,10834402,갈비굽는집,35.2112733,126.8788002,광주광역시 북구 양산동 714
1950,13584782,프럼더원,35.21244387,126.8390685,광주광역시 광산구 월계동 819-6 1층 (월계동)
1951,13840649,정성이 가득찬 집밥 첨단점,35.22033195,126.84429006,광주광역시 광산구 첨단중앙로152번길 31-16 A동1층(쌍암동)
1952,13431974,정광석항아리보쌈 첨단점,35.21438826,126.84909534,광주광역시 광산구 쌍암동 694-60 1층 (쌍암동)
1953,13704267,엄마부엌,35.21291602,126.8380408,광주광역시 광산구 첨단내촌로70번길 28-3 (월계동)
1954,10798972,전골나라,35.214989490550046,126.83690611455101,광주광역시 광산구 월계동 813-3
1955,13915507,유쾌한 꼬막&한끼끝판왕 광산점,35.21174954,126.84156829,광주광역시 광산구 월계로140번길 35-16 1층(월계동)
1956,13871381,냉면클라쓰&마약만두 광주첨단점,35.22249846,126.84951177,광주광역시 북구 첨단과기로208번길 43-10 1층 120호(오룡동)
1957,13397412,쫄면주는 삼겹본능 광주첨단점,35.22241514,126.84948399,광주광역시 북구 오룡동 1110-22 1층 120호(오룡동)
1958,13879149,설레임식혜 첨단점,35.21511036,126.84637334,광주광역시 광산구 첨단중앙로106번길 65-3 월계동주차빌딩 1층 122(일부)호 (월계동)
1959,13315282,임실치즈피자 첨단직영점,35.2129438,126.838263,광주광역시 광산구 월계동 816-3 1층(월계동)
1960,13806393,신쭈황 첨단점,35.21394382,126.84617894,"광주광역시 광산구 임방울대로800번길 77 (월계동,(1층))"
1961,13316804,금호회수산,35.189696,126.81329357,광주광역시 광산구 장덕동 1566 1층(장덕동)
1962,10706873,가야성,35.21787817691165,126.84274509967962,광주광역시 광산구 쌍암동 658-1
1963,13453801,1+1 통큰회,35.189696,126.81329357,광주광역시 광산구 장덕동 1566 1층(장덕동)
1964,13456651,양 많은 눈꽃육회 첨단점,35.21497146,126.84481792,광주광역시 광산구 월계동 887-3 2층(월계동)
1965,13676220,오로지 닭 볶음탕,35.21280492,126.838263,광주광역시 광산구 월계동 816-4 1층(월계동)
1966,10736822,난타5000 첨단월계점,35.2127493,126.83401338,광주광역시 광산구 월계로 77 1층 110호 (월계동)
1967,13415578,맛깔 돼지김치찌개 첨단점,35.2109718,126.83815195,광주광역시 광산구 월계동 836-1 1층(월계동)
1968,13878093,뚠뚠돼지김치찌개 첨단점,35.21511036,126.84637334,광주광역시 광산구 첨단중앙로106번길 65-3 월계동주차빌딩 1층 122(일부)호 (월계동)
1969,13121733,빨간토마토피자 첨단양산점,35.20652821,126.85951128,광주광역시 북구 신용동 691 대성빌딩 1층 113호(신용동)
1970,10798972,전골나라,35.214989490550046,126.83690611455101,광주광역시 광산구 월계동 813-3
1971,13415582,닭발&오돌뼈 첨단점,35.2109718,126.83815195,광주광역시 광산구 월계동 836-1 1층(월계동)
1972,13447691,까로치아 첨단점,35.21130509,126.83806861,광주광역시 광산구 월계동 835-4 1층(월계동)
1973,13900709,빙수바보 빙식이 첨단2지구점,35.20694484,126.85976125,광주광역시 북구 첨단연신로107번길 45-11 1층 101호(신용동)
1974,13471359,콜라겐파티,35.2128049,126.83690201,광주광역시 광산구 월계동 813-3 1층(월계동)
1975,13915505,유쾌한김치찜 광산직영점,35.21174954,126.84156829,광주광역시 광산구 월계로140번길 35-16 1층(월계동)
1976,10736822,난타5000 첨단월계점,35.2127493,126.83401338,광주광역시 광산구 월계로 77 1층 110호 (월계동)
1977,13668673,갓포호사 첨단점,35.21544368,126.84834538,광주광역시 광산구 월계동 882-1 더첨단 시너지타워2 3층201호(월계동)
1978,13415581,맛깔 국물돼지갈비찜 첨단점,35.2109718,126.83815195,광주광역시 광산구 월계동 836-1 1층(월계동)
1979,10617510,부부피자 본점,35.20897205,126.8400685,광주광역시 광산구 월계동 851-24 1층
1980,13704267,엄마부엌,35.21291602,126.8380408,광주광역시 광산구 첨단내촌로70번길 28-3 (월계동)
1981,13545478,오빠막창광산구점,35.19266833,126.83926342,광주광역시 광산구 신창동 1229-3 1층103호(신창동)
1982,13431974,정광석항아리보쌈 첨단점,35.21438826,126.84909534,광주광역시 광산구 쌍암동 694-60 1층 (쌍암동)
1983,10736822,난타5000 첨단월계점,35.2127493,126.83401338,광주광역시 광산구 월계로 77 1층 110호 (월계동)
1984,13309747,495 나폴리 첨단2지구점,35.20658384,126.86401088,"광주광역시 북구 첨단연신로 97 (신용동,솔로몬타워2층 202호)"
1985,13431218,임실N치즈피자 첨단점,35.21122175,126.8369576,광주광역시 광산구 월계동 810-2 A동 1층 104호(월계동)
1986,10798972,전골나라,35.214989490550046,126.83690611455101,광주광역시 광산구 월계동 813-3
1987,13704267,엄마부엌,35.21291602,126.8380408,광주광역시 광산구 첨단내촌로70번길 28-3 (월계동)
1988,13471362,신카라이 라멘전문점,35.2128049,126.83690201,광주광역시 광산구 월계동 813-3 1층(월계동)
1989,13042964,마른안주는막잔,35.19700115,126.8380412,광주광역시 광산구 신창동 1123-4 자선빌딩 1층 103호(신창동)
1990,13435011,홍익스테이크 첨단점,35.20936085,126.83742983,광주광역시 광산구 월계동 839-10 1층(월계동)
1991,13898501,더핏짜 광주점,35.21516599,126.85115069,"광주광역시 광산구 첨단강변로99번길 21 1층 108호(쌍암동, 윤진리안채)"
1992,13315282,임실치즈피자 첨단직영점,35.2129438,126.838263,광주광역시 광산구 월계동 816-3 1층(월계동)
1993,13435011,홍익스테이크 첨단점,35.20936085,126.83742983,광주광역시 광산구 월계동 839-10 1층(월계동)
1994,13898501,더핏짜 광주점,35.21516599,126.85115069,"광주광역시 광산구 첨단강변로99번길 21 1층 108호(쌍암동, 윤진리안채)"
1995,13704056,슈바인당케 광주첨단점,35.21991531,126.84281798,"광주광역시 광산구 첨단중앙로152번길 5-10 1층 102호 일부, 103호 일부(쌍암동)"
1996,13315282,임실치즈피자 첨단직영점,35.2129438,126.838263,광주광역시 광산구 월계동 816-3 1층(월계동)
1997,10496456,원할머니보쌈족발 광주양산점,35.20991706,126.87959275,광주 북구 양산동 884
1998,10749932,명가왕족발,35.21263888,126.87400984,광주광역시 북구 용두동 306 1층 106호
1999,13292311,투가이즈 피자&치킨 양산점,35.21180573,126.87953715,광주광역시 북구 양산동 704 1층(양산동)
2000,13352217,피자베이 첨단점,35.20936085,126.83742983,광주광역시 광산구 월계동 839-10 1층(월계동)
2001,13456651,양 많은 눈꽃육회 첨단점,35.21497146,126.84481792,광주광역시 광산구 월계동 887-3 2층(월계동)
2002,13447691,까로치아 첨단점,35.21130509,126.83806861,광주광역시 광산구 월계동 835-4 1층(월계동)
2003,13745312,따봉 막창닭발육회,35.21991531,126.84281798,"광주광역시 광산구 첨단중앙로152번길 5-10 1층 102호 일부, 103호 일부(쌍암동)"
2004,13690768,만두의민족 양산점,35.21069469,126.87617637,광주광역시 북구 양산로 18 (양산동)
2005,13704267,엄마부엌,35.21291602,126.8380408,광주광역시 광산구 첨단내촌로70번길 28-3 (월계동)
2006,13618510,오늘와인한잔 광주첨단점,35.21544368,126.84834538,광주광역시 광산구 월계동 882-1 더첨단 시너지타워2 1~2층 115호 (월계동)
2007,10590556,임실치즈피자 직영점,35.20727897411336,126.86795070804324,광주광역시 북구 연양로7번길 23-5 1층 (연제동)
2008,13898501,더핏짜 광주점,35.21516599,126.85115069,"광주광역시 광산구 첨단강변로99번길 21 1층 108호(쌍암동, 윤진리안채)"
2009,13668673,갓포호사 첨단점,35.21544368,126.84834538,광주광역시 광산구 월계동 882-1 더첨단 시너지타워2 3층201호(월계동)
2010,13761508,미미가양꼬치&마라탕,35.19102945,126.82898659,광주광역시 광산구 수완로 66 2층(수완동)
2011,13704267,엄마부엌,35.21291602,126.8380408,광주광역시 광산구 첨단내촌로70번길 28-3 (월계동)
2012,13645988,염 통,35.21991531,126.8427902,"광주광역시 광산구 쌍암동 662-4 1층 102호 일부, 103호 일부(쌍암동)"
2013,13456651,양 많은 눈꽃육회 첨단점,35.21497146,126.84481792,광주광역시 광산구 월계동 887-3 2층(월계동)
2014,10894125,임실치즈피자,35.20536189,126.87217686,광주광역시 북구 양산동 284-34 1층(양산동)
2015,13226143,일미리금계찜닭 첨단점,35.20936088,126.83901302,광주광역시 광산구 첨단내촌로36번길 34-14 1층 (월계동)
2016,13471362,신카라이 라멘전문점,35.2128049,126.83690201,광주광역시 광산구 월계동 813-3 1층(월계동)
2017,13670468,어항,35.20652821,126.85951128,광주광역시 북구 신용동 691 대성빌딩 1층 110호(신용동)
2018,13501355,윰's 김치찜,35.2093609,126.84009626,광주광역시 광산구 월계동 850-20 1층 (월계동)
2019,13008596,먹태비어바,35.20688935,126.86345537,광주광역시 북구 신용동 727 106호
2020,13431974,정광석항아리보쌈 첨단점,35.21438826,126.84909534,광주광역시 광산구 쌍암동 694-60 1층 (쌍암동)
2021,13658301,물첨벙아구찜 첨단점,35.20974973,126.83945742,광주광역시 광산구 월계동 846-3 1층(월계동)
2022,13431218,임실N치즈피자 첨단점,35.21122175,126.8369576,광주광역시 광산구 월계동 810-2 A동 1층 104호(월계동)
2023,13608960,딜리바리1리터&정 대왕카스테라 첨단점,35.22101645439782,126.8488887033165,광주광역시 광산구 쌍암동 688-2 상가동 108호(쌍암동)
2024,13431974,정광석항아리보쌈 첨단점,35.21438826,126.84909534,광주광역시 광산구 쌍암동 694-60 1층 (쌍암동)
2025,13898501,더핏짜 광주점,35.21516599,126.85115069,"광주광역시 광산구 첨단강변로99번길 21 1층 108호(쌍암동, 윤진리안채)"
2026,13577004,참연광이네,35.20608403,126.87173243,광주광역시 북구 양산동 283-5 1층 (양산동)
2027,10666627,반올림피자샵 첨단점,35.20914682258683,126.84192466824848,광주광역시 광산구 산월로41번길 8-2 1층(월계동)
2028,10869154,못난이치킨&피자,35.16000578,126.86445645,광주광역시 서구 쌍촌동 1345-12 1층(쌍촌동)
2029,13898501,더핏짜 광주점,35.21516599,126.85115069,"광주광역시 광산구 첨단강변로99번길 21 1층 108호(쌍암동, 윤진리안채)"
2030,10909674,청춘얼큰이 첨단본점,35.21474927,126.84559564,광주광역시 광산구 월계동 891-4
2031,13424676,닭발 전문점 발발이 양산점,35.21065963767038,126.876626986289,광주광역시 북구 양산동 808 (양산동)
2032,13840649,정성이 가득찬 집밥 첨단점,35.22033195,126.84429006,광주광역시 광산구 첨단중앙로152번길 31-16 A동1층(쌍암동)
2033,13137960,100's쭈꾸미(본점),35.18661597406043,126.83647930796552,"광주광역시 광산구 신가동 983-7 (신가동,(1층))"
2034,13885594,하이덮밥,35.20388981,126.8703715,"광주광역시 북구 양산제로 109-7 , 1층(연제동)"
2035,13316804,금호회수산,35.189696,126.81329357,광주광역시 광산구 장덕동 1566 1층(장덕동)
2036,13121733,빨간토마토피자 첨단양산점,35.20652821,126.85951128,광주광역시 북구 신용동 691 대성빌딩 1층 113호(신용동)
2037,13911037,와우곱창 광주양산점,35.21138908,126.87770399,광주광역시 북구 상촌로 24 상가동 104호(양산동)
2038,13121733,빨간토마토피자 첨단양산점,35.20652821,126.85951128,광주광역시 북구 신용동 691 대성빌딩 1층 113호(신용동)
2039,10489677,고려왕족발보쌈,35.20590112844104,126.87171384597248,광주광역시 북구 양산동 283-50 1층 고려왕족발보쌈
2040,13915505,유쾌한김치찜 광산직영점,35.21174954,126.84156829,광주광역시 광산구 월계로140번길 35-16 1층(월계동)
2041,13203939,쏘핫 마라탕&마라샹궈,35.20650044,126.85948351,광주광역시 북구 첨단연신로91번길 44 대성빌딩 1층 108호(신용동)
2042,13447691,까로치아 첨단점,35.21130509,126.83806861,광주광역시 광산구 월계동 835-4 1층(월계동)
2043,13885594,하이덮밥,35.20388981,126.8703715,"광주광역시 북구 양산제로 109-7 , 1층(연제동)"
2044,13203939,쏘핫 마라탕&마라샹궈,35.20650044,126.85948351,광주광역시 북구 첨단연신로91번길 44 대성빌딩 1층 108호(신용동)
2045,13900709,빙수바보 빙식이 첨단2지구점,35.20694484,126.85976125,광주광역시 북구 첨단연신로107번길 45-11 1층 101호(신용동)
